name,ein,category,address,city,state,zip_code,website,description,phone
YOUNG MENS CHRISTIAN ASSOCIATION OF CENTRAL MARYLAND INC,520591699,Human Services,303 W CHESAPEAKE AVE,BALTIMORE,MD,21204-4406,,"Human Services organization in BALTIMORE, MD with annual revenue of approximately $101M",
ALLIANCE OF NONPROFITS FOR INSURANCE RISK RETENTION GROUP INC,061555320,Other,PO BOX 8507,SANTA CRUZ,CA,95061-8507,,"Other organization in SANTA CRUZ, CA with annual revenue of approximately $101M",
METROPOLITAN ENTERTAINMENT &,911846837,Community,455 N 10TH ST,OMAHA,NE,68102-1151,,"Community organization in OMAHA, NE with annual revenue of approximately $101M",
BAYSTATE WING HOSPITAL CORPORATION,222519813,Health,40 WRIGHT ST,PALMER,MA,01069-1138,,"Health organization in PALMER, MA with annual revenue of approximately $101M",
CATHOLIC CHARITIES OF THE DIOCESE OF ROCHESTER,300553416,Other,1150 BUFFALO RD,ROCHESTER,NY,14624-1823,,"Other organization in ROCHESTER, NY with annual revenue of approximately $101M",
WASHOE BARTON MEDICAL CLINIC A NEVADA NONPROFIT CORPORATION,880405927,Health,1107 US HIGHWAY 395 N,GARDNERVILLE,NV,89410-5304,,"Health organization in GARDNERVILLE, NV with annual revenue of approximately $101M",
NDC HOUSING AND ECONOMIC DEVELOPMENT CORPORATION,911884698,Human Services,633 THIRD AVE 19J,NEW YORK,NY,10017-6706,,"Human Services organization in NEW YORK, NY with annual revenue of approximately $101M",
MARYLAND FOOD BANK INC,521135690,Other,2200 HALETHORPE FARMS RD,BALTIMORE,MD,21227-4551,,"Other organization in BALTIMORE, MD with annual revenue of approximately $101M",
MOSES CONE MEDICAL SERVICES INC,561714318,Health,1200 N ELM ST,GREENSBORO,NC,27401-1004,,"Health organization in GREENSBORO, NC with annual revenue of approximately $101M",
BEATRICE COMMUNITY HOSPITAL & HEALTH CENTER INC,470379834,Health,4800 HOSPITAL PKWY,BEATRICE,NE,68310-6906,,"Health organization in BEATRICE, NE with annual revenue of approximately $101M",
WELVISTA,562034627,Health,121 GREYSTONE BLVD,COLUMBIA,SC,29210-8002,,"Health organization in COLUMBIA, SC with annual revenue of approximately $101M",
SALEM HEALTH WEST VALLEY,431960221,Health,525 SE WASHINGTON ST,DALLAS,OR,97338-2834,,"Health organization in DALLAS, OR with annual revenue of approximately $101M",
ATLANTICARE HEALTH SYSTEM INC,223265213,Health,2500 ENGLISH CREEK AVE STE 500,EGG HBR TWP,NJ,08234-5549,,"Health organization in EGG HBR TWP, NJ with annual revenue of approximately $101M",
MONTANA STATE UNIVERSITY FOUNDATION,816001649,Education,1501 S 11TH AVE,BOZEMAN,MT,59715-5402,,"Education organization in BOZEMAN, MT with annual revenue of approximately $101M",
HOSPITAL DE LA CONCEPCION INC,660227304,Other,PO BOX 285,SAN GERMAN,PR,00683-0285,,"Other organization in SAN GERMAN, PR with annual revenue of approximately $101M",
EL PROYECTO DEL BARRIO INC,952662606,Human Services,8932 WOODMAN AVENUE,ARLETA,CA,91331-8021,,"Human Services organization in ARLETA, CA with annual revenue of approximately $101M",
ATLANTIC HOUSING FOUNDATION INC,571090154,Human Services,4770 IBERIA AVE SUITE100,DALLAS,TX,75207-5508,,"Human Services organization in DALLAS, TX with annual revenue of approximately $101M",
SECOND HARVEST FOOD BANK OF GREATER NEW ORLEANS AND ACADIANA,720956468,Human Services,700 EDWARDS AVE,NEW ORLEANS,LA,70123-3121,,"Human Services organization in NEW ORLEANS, LA with annual revenue of approximately $100M",
DR GERTRUDE A BARBER CENTER INC,237447611,Human Services,100 BARBER PL,ERIE,PA,16507-1863,,"Human Services organization in ERIE, PA with annual revenue of approximately $100M",
HERITAGE FOUNDATION,237327730,Community,214 MASSACHUSETTS AVENUE NE,WASHINGTON,DC,20002-4958,,"Community organization in WASHINGTON, DC with annual revenue of approximately $100M",
NORTH ARKANSAS REGIONAL MEDICAL CENTER,710787860,Health,620 N MAIN ST,HARRISON,AR,72601-2911,,"Health organization in HARRISON, AR with annual revenue of approximately $100M",
UPPER MIDWEST ORGAN PROCUREMENT ORGANIZATION INC,363584029,Health,2225 W RIVER RD,MINNEAPOLIS,MN,55411-2228,,"Health organization in MINNEAPOLIS, MN with annual revenue of approximately $100M",
HELIO HEALTH INC,150532288,Health,555 E GENESEE ST,SYRACUSE,NY,13202-2118,,"Health organization in SYRACUSE, NY with annual revenue of approximately $100M",
ST LUKES WOOD RIVER MEDICAL CENTER LTD,841421665,Health,190 E BANNOCK ST,BOISE,ID,83712-6241,,"Health organization in BOISE, ID with annual revenue of approximately $100M",
THE DETROIT INSTITUTE OF ARTS,381359510,Arts & Culture,5200 WOODWARD AVE,DETROIT,MI,48202-4008,,"Arts & Culture organization in DETROIT, MI with annual revenue of approximately $100M",
ADRIAN COLLEGE,381357980,Education,110 S MADISON ST,ADRIAN,MI,49221-2518,,"Education organization in ADRIAN, MI with annual revenue of approximately $100M",
UNIVERSITY OF LOUISVILLE REAL ESTATE FOUNDATION,472373203,Community,215 CENTRAL AVE STE 212,LOUISVILLE,KY,40208-1451,,"Community organization in LOUISVILLE, KY with annual revenue of approximately $100M",
ASPIRUS MEDFORD HOSPITAL & CLINICS INC,390964813,Health,135 S GIBSON ST,MEDFORD,WI,54451-1622,,"Health organization in MEDFORD, WI with annual revenue of approximately $100M",
COMMUNTIY HEALTH CENTER OF SOUTHEAST KANSAS INC,753002264,Health,PO BOX 1832,PITTSBURG,KS,66762-1832,,"Health organization in PITTSBURG, KS with annual revenue of approximately $100M",
GREENSPRING VILLAGE INC,522095427,Human Services,813 MAIDEN CHOICE LN,CATONSVILLE,MD,21228-3679,,"Human Services organization in CATONSVILLE, MD with annual revenue of approximately $100M",
THE DALLAS FOUNDATION,752890371,Community,3000 PEGASUS PARK DR 930,DALLAS,TX,75247-6203,,"Community organization in DALLAS, TX with annual revenue of approximately $100M",
ALBION COLLEGE,381359081,Education,CELL E-PORTER ST,ALBION,MI,49224-0000,,"Education organization in ALBION, MI with annual revenue of approximately $100M",
GENE B GLICK FAMILY HOUSING FOUNDATION INC,201698926,Human Services,PO BOX 40177,INDIANAPOLIS,IN,46240-0177,,"Human Services organization in INDIANAPOLIS, IN with annual revenue of approximately $100M",
DELAWARE VALLEY UNIVERSITY,231352665,Other,700 E BUTLER AVE,DOYLESTOWN,PA,18901-2607,,"Other organization in DOYLESTOWN, PA with annual revenue of approximately $100M",
FOX CHASE CANCER CENTER MEDICAL GROUP INC,454540585,Health,3509 N BROAD ST BOYER PAV 225,PHILADELPHIA,PA,19140-4105,,"Health organization in PHILADELPHIA, PA with annual revenue of approximately $100M",
LEHIGH VALLEY HOSPITAL - COORDINATED HEALTH ALLENTOWN,843843850,Health,PO BOX 4000,ALLENTOWN,PA,18105-4000,,"Health organization in ALLENTOWN, PA with annual revenue of approximately $100M",
VIRGINIA GARCIA MEMORIAL HEALTH CENTER,930717997,Health,3305 NE ALOCLEK DR,HILLSBORO,OR,97124-7143,,"Health organization in HILLSBORO, OR with annual revenue of approximately $100M",
LA MAESTRA FAMILY CLINIC INC,330473171,Health,4060 FAIRMOUNT AVE,SAN DIEGO,CA,92105-1608,,"Health organization in SAN DIEGO, CA with annual revenue of approximately $100M",
MERCY HOUSING INC,470646706,Human Services,1600 BROADWAY STE 2000,DENVER,CO,80202-4929,,"Human Services organization in DENVER, CO with annual revenue of approximately $100M",
MARVIN M JORGENSEN CHARITABLE TR,876969181,Health,2301 128TH ST,URBANDALE,IA,50323-1818,,"Health organization in URBANDALE, IA with annual revenue of approximately $100M",
LYNN COMMUNITY HEALTH INC,042525066,Other,269 UNION ST,LYNN,MA,01901-1314,,"Other organization in LYNN, MA with annual revenue of approximately $100M",
I AM BOUNDLESS INC,900817260,Human Services,445 E DUBLIN GRANVL RDH,WORTHINGTON,OH,43085-0000,,"Human Services organization in WORTHINGTON, OH with annual revenue of approximately $100M",
ALABAMA NURSING HOME ASSOCIATION EDUCATION FOUNDATION,631074164,Education,4156 CARMICHAEL RD,MONTGOMERY,AL,36106-2866,,"Education organization in MONTGOMERY, AL with annual revenue of approximately $100M",
OPERATION SMILE INC,541460147,International,3641 FACULTY BLVD,VIRGINIA BCH,VA,23453-8000,,"International organization in VIRGINIA BCH, VA with annual revenue of approximately $100M",
MOUNT SINAI HEALTH SYSTEM EXECUTIVE V P FOR FINANCE,464248304,Human Services,1 GUSTAVE L LEVY PL,NEW YORK,NY,10029-6504,,"Human Services organization in NEW YORK, NY with annual revenue of approximately $100M",
LOWER RIO GRANDE VALLEY WORK FORCE DEVELOPMENT BOARD INC,742940085,Human Services,3101 W BUSINESS 83,MCALLEN,TX,78501-8247,,"Human Services organization in MCALLEN, TX with annual revenue of approximately $100M",
KAISER PERMANENTE BERNARD J TYSON SCHOOL OF MEDICINE INC,814053028,Education,C/O KP TAX ONE KAISER PLZ FL 26,OAKLAND,CA,94612-0000,,"Education organization in OAKLAND, CA with annual revenue of approximately $100M",
UNIVERSITY OF THE ARTS,231639911,Education,320 S BROAD ST,PHILADELPHIA,PA,19102-4901,,"Education organization in PHILADELPHIA, PA with annual revenue of approximately $100M",
OPEN DOOR COMMUNITY HEALTH CENTERS,952671433,Health,1275 8TH ST,ARCATA,CA,95521-5770,,"Health organization in ARCATA, CA with annual revenue of approximately $100M",
SIGNAL BEHAVIORAL HEALTH NETWORK,841362495,Health,6130 GREENWOOD PLAZA BLVD UNIT 150,GREENWOOD VLG,CO,80111-4854,,"Health organization in GREENWOOD VLG, CO with annual revenue of approximately $100M",
GOODWILL INDUSTRIES-SUNCOAST INC,590718492,Human Services,10596 GANDY BLVD N,ST PETERSBURG,FL,33702-1422,,"Human Services organization in ST PETERSBURG, FL with annual revenue of approximately $100M",
CENTRAL BOSTON ELDER SERVICES INC,042546441,Human Services,2315 WASHINGTON ST,BOSTON,MA,02119-3214,,"Human Services organization in BOSTON, MA with annual revenue of approximately $100M",
PINE STREET INN INC,042516093,Human Services,434 HARRISON AVE,BOSTON,MA,02118-2404,,"Human Services organization in BOSTON, MA with annual revenue of approximately $100M",
BETHUNE-COOKMAN UNIVERSITY,590704726,Education,640 DR MARY MCLEOD BETHUNE BLVD,DAYTONA BEACH,FL,32114-3099,,"Education organization in DAYTONA BEACH, FL with annual revenue of approximately $100M",
NATIONAL WORLD WAR II MUSEUM INC,721200790,Arts & Culture,945 MAGAZINE ST,NEW ORLEANS,LA,70130-3813,,"Arts & Culture organization in NEW ORLEANS, LA with annual revenue of approximately $100M",
UNIVERSITY ASSOCIATES IN OBSTETRICS & GYNECOLOGY P C,112569522,Health,PO BOX 1554,STONY BROOK,NY,11790-0988,,"Health organization in STONY BROOK, NY with annual revenue of approximately $100M",
SIGNATURE HEALTH INC,341751703,Health,7232 JUSTIN WAY,MENTOR,OH,44060-4881,,"Health organization in MENTOR, OH with annual revenue of approximately $100M",
CHENANGO MEMORIAL HOSPITAL INC,150532180,Health,179 N BROAD ST,NORWICH,NY,13815-1019,,"Health organization in NORWICH, NY with annual revenue of approximately $100M",
THE NEW LONDON HOSPITAL ASSOCIATION INC,020222171,Health,273 COUNTY RD,NEW LONDON,NH,03257-5736,,"Health organization in NEW LONDON, NH with annual revenue of approximately $100M",
CARILION GILES COMMUNITY HOSPITAL,540549603,Health,PO BOX 12385,ROANOKE,VA,24025-2385,,"Health organization in ROANOKE, VA with annual revenue of approximately $100M",
GREATER WASHINGTON COMMUNITY FOUNDATION,237343119,Community,1325 G ST NW STE 480,WASHINGTON,DC,20005-3121,,"Community organization in WASHINGTON, DC with annual revenue of approximately $99M",
AMERICAN INSTITUTE OF PHYSICS INCORPORATED,131667053,Research,1 PHYSICS ELLIPSE,COLLEGE PARK,MD,20740-3841,,"Research organization in COLLEGE PARK, MD with annual revenue of approximately $99M",
GREATER OREGON BEHAVIORAL HEALTH INC,931144014,Health,3729 KLINDT DR,THE DALLES,OR,97058-3566,,"Health organization in THE DALLES, OR with annual revenue of approximately $99M",
YOUNG MENS CHRISTIAN ASSOCIATION OF NASHVILLE AND MIDDLE TENNESSEE,620476243,Human Services,1000 CHURCH ST,NASHVILLE,TN,37203-3420,,"Human Services organization in NASHVILLE, TN with annual revenue of approximately $99M",
WORLD EDUCATION SERVICES INC,237396384,International,ONE BATTERY PARK PLAZA 3RD FLOOR,NEW YORK,NY,10004-1405,,"International organization in NEW YORK, NY with annual revenue of approximately $99M",
ISABELLA GERIATRIC CENTER INC,133623808,Human Services,55 WATER ST 46TH FLOOR,NEW YORK,NY,10041-3211,,"Human Services organization in NEW YORK, NY with annual revenue of approximately $99M",
CONFERENCE BOARD INC,131624108,Community,845 THIRD AVENUE 3RD FL,NEW YORK,NY,10022-6633,,"Community organization in NEW YORK, NY with annual revenue of approximately $99M",
SOUTHWEST CHARTER FOUNDATION INC,010561262,Education,800 CORPORATE DR STE 124,FT LAUDERDALE,FL,33334-3618,,"Education organization in FT LAUDERDALE, FL with annual revenue of approximately $99M",
LURIE CHILDRENS SURGICAL FOUNDATION INC,831650513,Health,225 E CHICAGO AVE BOX 282,CHICAGO,IL,60611-2991,,"Health organization in CHICAGO, IL with annual revenue of approximately $99M",
EPISCOPAL CHILDRENS SERVICES INC,591146765,Human Services,8649 BAYPINE RD STE 300 BLDG 7,JACKSONVILLE,FL,32256-7536,,"Human Services organization in JACKSONVILLE, FL with annual revenue of approximately $99M",
REGIS COLLEGE,042104451,Education,235 WELLESLEY STREET,WESTON,MA,02493-1572,,"Education organization in WESTON, MA with annual revenue of approximately $99M",
DYOUVILLE COLLEGE,160743989,Education,320 PORTER AVE,BUFFALO,NY,14201-1032,,"Education organization in BUFFALO, NY with annual revenue of approximately $99M",
JEWISH COMMUNITY FOUNDATION OF GREATER METROWEST NJ,221714130,Community,901 ROUTE 10,WHIPPANY,NJ,07981-1156,,"Community organization in WHIPPANY, NJ with annual revenue of approximately $99M",
ERIC AND KELLY SCHWARTZ CHARITABLE TRUST,474959497,Community,1776 PLEASANT PLAIN RD,FAIRFIELD,IA,52556-8757,,"Community organization in FAIRFIELD, IA with annual revenue of approximately $99M",
DISMAS CHARITIES INC,610663854,Human Services,2500 SEVENTH STREET RD,LOUISVILLE,KY,40208-1078,,"Human Services organization in LOUISVILLE, KY with annual revenue of approximately $99M",
GOOD SHEPERD FOOD BANK,222986809,Human Services,3121 HOTEL RD,AUBURN,ME,04210-8398,,"Human Services organization in AUBURN, ME with annual revenue of approximately $99M",
COMMUNITY BUILDERS INC,042324773,Human Services,33 ARCH ST STE 1000,BOSTON,MA,02110-1442,,"Human Services organization in BOSTON, MA with annual revenue of approximately $99M",
WAIANAE DISTRICT COMPREHENSIVE HEALTH AND HOSPITAL BOARD,990148164,Health,86-260 FARRINGTON HWY,WAIANAE,HI,96792-3128,,"Health organization in WAIANAE, HI with annual revenue of approximately $99M",
SMILE TRAIN INC,133661416,Other,633 THIRD AVE 9TH FLOOR,NEW YORK,NY,10017-6706,,"Other organization in NEW YORK, NY with annual revenue of approximately $99M",
OAK CREST VILLAGE INC,521874053,Human Services,701 MAIDEN CHOICE LN,CATONSVILLE,MD,21228-5968,,"Human Services organization in CATONSVILLE, MD with annual revenue of approximately $99M",
ST LUKES HOSPITAL-CARBON CAMPUS,861248931,Health,1110 ST LUKES WAY,ALLENTOWN,PA,18109-9153,,"Health organization in ALLENTOWN, PA with annual revenue of approximately $99M",
INDEPENDENT LIVING FOR SENIORS INC,161491059,Religion,100 KINGS HIGHWAY SOUTH,ROCHESTER,NY,14617-5504,,"Religion organization in ROCHESTER, NY with annual revenue of approximately $99M",
MHT HOUSING INC,382957148,Human Services,32500 TELEGRAPH RD STE 100,BINGHAM FARMS,MI,48025-2462,,"Human Services organization in BINGHAM FARMS, MI with annual revenue of approximately $99M",
GOODWILL OF CENTRAL AND SOUTHERN INDIANA INC,350893506,Human Services,1635 W MICHIGAN ST,INDIANAPOLIS,IN,46222-3852,,"Human Services organization in INDIANAPOLIS, IN with annual revenue of approximately $99M",
THE ACTORS FUND OF AMERICA,131635251,Other,729 SEVENTH AVENUE 10TH,NEW YORK,NY,10019-6895,,"Other organization in NEW YORK, NY with annual revenue of approximately $99M",
TOURO UNIVERSITY,133838740,Other,1310 CLUB DRIVE,VALLEJO,CA,94592-1187,,"Other organization in VALLEJO, CA with annual revenue of approximately $99M",
HALIFAX REGIONAL HOSPITAL INC,540648699,Health,1300 SENTARA PARK,VIRGINIA BCH,VA,23464-5884,,"Health organization in VIRGINIA BCH, VA with annual revenue of approximately $99M",
FAMILY COUNSELING CENTER INC,431116734,Human Services,PO BOX 71,KENNETT,MO,63857-0071,,"Human Services organization in KENNETT, MO with annual revenue of approximately $99M",
THE UNITED METHODIST RETIREMENT HOMES INC,560634527,Community,2600 CROASDAILE FARM PARKWAY A-500,DURHAM,NC,27705-1331,,"Community organization in DURHAM, NC with annual revenue of approximately $99M",
WOODWARD ACADEMY INC,580625584,Education,1662 RUGBY AVE,COLLEGE PARK,GA,30337-2116,,"Education organization in COLLEGE PARK, GA with annual revenue of approximately $99M",
THE FOGARTY CENTER,042936360,Human Services,310 MAPLE AVE STE 102,BARRINGTON,RI,02806-3431,,"Human Services organization in BARRINGTON, RI with annual revenue of approximately $99M",
NATIONAL ARBOR DAY FOUNDATION,237169265,Environment,211 N 12TH ST,LINCOLN,NE,68508-1422,,"Environment organization in LINCOLN, NE with annual revenue of approximately $99M",
ST LOUIS AREA FOOD BANK INC,431253102,Other,70 CORPORATE WOODS DR,BRIDGETON,MO,63044-3806,,"Other organization in BRIDGETON, MO with annual revenue of approximately $99M",
JACKSON PARK HOSPITAL FOUNDATION,362448028,Health,7531 S STONY ISLAND AVE,CHICAGO,IL,60649-3954,,"Health organization in CHICAGO, IL with annual revenue of approximately $99M",
AURORA MEDICAL CENTER BAY AREA INC,391528430,Health,PO BOX 343910,MILWAUKEE,WI,53234-3910,,"Health organization in MILWAUKEE, WI with annual revenue of approximately $98M",
CHEROKEE HEALTH SYSTEMS,620637925,Health,6350 W ANDREW JOHNSON HWY,TALBOTT,TN,37877-8605,,"Health organization in TALBOTT, TN with annual revenue of approximately $98M",
ST PAULS SCHOOL,020222227,Education,325 PLEASANT ST,CONCORD,NH,03301-2552,,"Education organization in CONCORD, NH with annual revenue of approximately $98M",
TEXAS ASSOCIATION OF SCHOOL BOARDS INC,742275519,Education,12007 RESEARCH BLVD,AUSTIN,TX,78759-2429,,"Education organization in AUSTIN, TX with annual revenue of approximately $98M",
UW PHYSICIANS NETWORK,911715882,Education,4333 BROOKLYN AVE NE BOX 359415,SEATTLE,WA,98195-1016,,"Education organization in SEATTLE, WA with annual revenue of approximately $98M",
NEW YORK PSYCHOTHERAPY AND COUNSELING CENTER,112320614,Health,17620 148TH AVE,JAMAICA,NY,11434-5518,,"Health organization in JAMAICA, NY with annual revenue of approximately $98M",
NORTHBAY HEALTHCARE CORPORATION,680046750,Health,4500 BUSINESS CENTER DR,FAIRFIELD,CA,94534-6888,,"Health organization in FAIRFIELD, CA with annual revenue of approximately $98M",
TERROS INC,860252067,Other,3003 N CENTRAL AVE STE 400,PHOENIX,AZ,85012-2929,,"Other organization in PHOENIX, AZ with annual revenue of approximately $98M",
UNIQUESOURCE PRODUCTS & SERVICES,231523064,Human Services,500 BENT CREEK BLVD,MECHANICSBURG,PA,17050-1876,,"Human Services organization in MECHANICSBURG, PA with annual revenue of approximately $98M",
GARNET HEALTH MEDICAL CENTER CATSKILLS,146049030,Health,PO BOX 80068,HARRIS,NY,12742-0000,,"Health organization in HARRIS, NY with annual revenue of approximately $98M",
LIGHTHOUSE FOR THE BLIND INC,910295070,Other,2501 S PLUM ST,SEATTLE,WA,98144-4711,,"Other organization in SEATTLE, WA with annual revenue of approximately $98M",
TEXAS GUARANTEED STUDENT LOAN CORPORATION,742094204,Community,PO BOX 83100,ROUND ROCK,TX,78683-3100,,"Community organization in ROUND ROCK, TX with annual revenue of approximately $98M",
NEBRASKA PEDIATRIC PRACTICE INC,263064869,Health,8200 DODGE ST,OMAHA,NE,68114-4113,,"Health organization in OMAHA, NE with annual revenue of approximately $98M",
WHEELER CLINIC INC,060867065,Health,91 NORTHWEST DR,PLAINVILLE,CT,06062-1534,,"Health organization in PLAINVILLE, CT with annual revenue of approximately $98M",
SAINT MICHAELS COLLEGE,030179403,Education,1 WINOOSKI PARK,COLCHESTER,VT,05439-1000,,"Education organization in COLCHESTER, VT with annual revenue of approximately $98M",
WESTERN EDUCATIONAL CORPORATION,811960983,Education,177 HOLSTON DR,LANCASTER,CA,93535-4570,,"Education organization in LANCASTER, CA with annual revenue of approximately $98M",
UND ALUMNI ASSOCIATION AND FOUNDATION,450348296,Education,3501 UNIV AVE STOP 8157,GRAND FORKS,ND,58202-0000,,"Education organization in GRAND FORKS, ND with annual revenue of approximately $98M",
AUNT MARTHAS HEALTH AND WELLNESS INC,237188150,Human Services,19990 GOVERNORS HWY,OLYMPIA FLDS,IL,60461-1021,,"Human Services organization in OLYMPIA FLDS, IL with annual revenue of approximately $98M",
W E UPJOHN UNEMPLOYMENT TRUSTEE CORPORATION,381360419,Human Services,300 S WESTNEDGE AVE,KALAMAZOO,MI,49007-4630,,"Human Services organization in KALAMAZOO, MI with annual revenue of approximately $98M",
CREOKS MENTAL HEALTH SERVICES,731108774,Health,PO BOX 700360,TULSA,OK,74170-0360,,"Health organization in TULSA, OK with annual revenue of approximately $98M",
BRATTLEBORO RETREAT,030107360,Health,22 ANNA MARSH LN,DUMMERSTON,VT,05301-3292,,"Health organization in DUMMERSTON, VT with annual revenue of approximately $98M",
HARLEM CHILDRENS ZONE INC,237112974,Human Services,35 E 125TH ST,NEW YORK,NY,10035-1816,,"Human Services organization in NEW YORK, NY with annual revenue of approximately $98M",
THREE LOWER COUNTIES COMMUNITY SERVICES INC,521860379,Health,PO BOX 1978,SALISBURY,MD,21802-1978,,"Health organization in SALISBURY, MD with annual revenue of approximately $98M",
BENEFIS MEDICAL GROUP INC,263538192,Health,500 15TH AVE S,GREAT FALLS,MT,59405-4324,,"Health organization in GREAT FALLS, MT with annual revenue of approximately $98M",
WARREN GENERAL HOSPITAL,250965598,Health,2 W CRESCENT PARK,WARREN,PA,16365-2111,,"Health organization in WARREN, PA with annual revenue of approximately $98M",
UNIVERSITY OF SAINT JOSEPH,060646829,Education,1678 ASYLUM AVE,WEST HARTFORD,CT,06117-2764,,"Education organization in WEST HARTFORD, CT with annual revenue of approximately $98M",
INSTITUTE FOR CANCER RESEARCH,236296135,Health,3509 N BROAD ST BOYER PAV 225,PHILADELPHIA,PA,19140-4105,,"Health organization in PHILADELPHIA, PA with annual revenue of approximately $98M",
RIVERDALE COUNTRY SCHOOL INC,131740483,Education,5250 FIELDSTON RD,BRONX,NY,10471-2935,,"Education organization in BRONX, NY with annual revenue of approximately $98M",
GOODWILL INDUSTRIES OF THE CHESAPEAKE INC,520591576,Other,3700 KOPPERS STREET,HALETHORPE,MD,21227-1019,,"Other organization in HALETHORPE, MD with annual revenue of approximately $97M",
ILLINOIS COALITION FOR IMMIGRANT AND REFUGEE RIGHTS,363783551,Religion,228 S WABASH AVE STE 800,CHICAGO,IL,60604-2373,,"Religion organization in CHICAGO, IL with annual revenue of approximately $97M",
MUNSON HEALTHCARE GRAYLING,471161992,Health,1105 SIXTH ST,TRAVERSE CITY,MI,49684-2345,,"Health organization in TRAVERSE CITY, MI with annual revenue of approximately $97M",
WASHINGTON REGINAL MEDICAL SYSTEM,710664686,Other,3215 N NORTHHILLS BLVD,FAYETTEVILLE,AR,72703-4007,,"Other organization in FAYETTEVILLE, AR with annual revenue of approximately $97M",
CAL POLY POMONA FOUNDATION INC,952417645,Education,3801 W TEMPLE AVE BLDG 55 ENTERPRIS,POMONA,CA,91768-2557,,"Education organization in POMONA, CA with annual revenue of approximately $97M",
VARIETY CARE INC,731088577,Health,3000 N GRAND BLVD,OKLAHOMA CITY,OK,73107-1818,,"Health organization in OKLAHOMA CITY, OK with annual revenue of approximately $97M",
DAYMARK RECOVERY SERVICES INC,020707661,Health,284 EXECUTIVE PARK DR,CONCORD,NC,28025-1831,,"Health organization in CONCORD, NC with annual revenue of approximately $97M",
NEIGHBORCARE HEALTH,910893287,Health,1200 12TH AVE S STE 901,SEATTLE,WA,98144-2712,,"Health organization in SEATTLE, WA with annual revenue of approximately $97M",
RESOURCE CENTER FOR INDEPENDENT LIVING INC,222518284,Human Services,131 GENESEE ST,UTICA,NY,13501-2105,,"Human Services organization in UTICA, NY with annual revenue of approximately $97M",
VISITING NURSING ASSOCIATION OF WESTERN NEW YORK INC,160743214,Health,650 AIRBORNE PKWY,CHEEKTOWAGA,NY,14225-1434,,"Health organization in CHEEKTOWAGA, NY with annual revenue of approximately $97M",
PHILADELPHIA CORPORATION FOR AGING,231905649,Human Services,642 NORTH BROAD STREET,PHILADELPHIA,PA,19130-3424,,"Human Services organization in PHILADELPHIA, PA with annual revenue of approximately $97M",
KNOX COLLEGE,370673513,Education,2 E SOUTH ST,GALESBURG,IL,61401-4938,,"Education organization in GALESBURG, IL with annual revenue of approximately $97M",
CHARLES DREW UNIVERSITY OF MEDICINE & SCIENCE,956151774,Education,1731 EAST 120TH STREET AP DEPT COBB,LOS ANGELES,CA,90059-3051,,"Education organization in LOS ANGELES, CA with annual revenue of approximately $97M",
ROBERT R MCCORMICK FOUNDATION,363689171,Community,205 N MICHIGAN AVENUE,CHICAGO,IL,60601-5927,,"Community organization in CHICAGO, IL with annual revenue of approximately $97M",
NATIONAL COUNCIL ON AGING INC,131932384,Other,251 18TH STREET SOUTH,ARLINGTON,VA,22202-3531,,"Other organization in ARLINGTON, VA with annual revenue of approximately $97M",
UNIVERSITY OF CONNECTICUT FOUNDATION INCORPORATED,066070722,Education,2390 ALUMNI DRIVE U3206,STORRS,CT,06269-3603,,"Education organization in STORRS, CT with annual revenue of approximately $97M",
HOSPITAL MENONITA GUAYAMA INC,660876852,Health,PO BOX 10018,GUAYAMA,PR,00785-4018,,"Health organization in GUAYAMA, PR with annual revenue of approximately $97M",
UNITED MIGRANT OPPORTUNITY SERVICES INCORPORATED,391047172,Human Services,2701 CHASE AVENUE,MILWAUKEE,WI,53207-1482,,"Human Services organization in MILWAUKEE, WI with annual revenue of approximately $97M",
THREE SQUARE,300396918,Human Services,4190 N PECOS RD,LAS VEGAS,NV,89115-0187,,"Human Services organization in LAS VEGAS, NV with annual revenue of approximately $97M",
FAIRVIEW HOSPITAL,042133860,Health,725 NORTH ST,PITTSFIELD,MA,01201-4109,,"Health organization in PITTSFIELD, MA with annual revenue of approximately $97M",
DEFENDER ASSOCIATION OF PHILADELPHIA,231445669,Human Services,1441 SANSOM STREET,PHILADELPHIA,PA,19102-3016,,"Human Services organization in PHILADELPHIA, PA with annual revenue of approximately $97M",
KINGS DAUGHTERS MEDICAL SPECIALTIES INC,264183569,Health,2201 LEXINGTON AVE,ASHLAND,KY,41101-2843,,"Health organization in ASHLAND, KY with annual revenue of approximately $97M",
MT GRAHAM REGIONAL MEDICAL CENTER INC,237094247,Health,1600 S 20TH AVE,SAFFORD,AZ,85546-4011,,"Health organization in SAFFORD, AZ with annual revenue of approximately $97M",
LABETTE COUNTY MEDICAL CENTER,486099245,Health,1902 S US HIGHWAY 59,PARSONS,KS,67357-4948,,"Health organization in PARSONS, KS with annual revenue of approximately $97M",
ST LUKES COMMUNITY DEVELOPMENT CORPORATION-SUGAR LAND,261947374,Health,1317 LAKE POINTE PKWY,SUGAR LAND,TX,77478-3997,,"Health organization in SUGAR LAND, TX with annual revenue of approximately $97M",
LUNDQUIST INSTITUTE FOR BIOMEDICAL INNOVATION AT HARBOR-UCLA MEDICAL,952138184,Health,1124 W CARSON ST BLDG N-14,TORRANCE,CA,90502-2006,,"Health organization in TORRANCE, CA with annual revenue of approximately $97M",
METHODIST HOSPITAL,760094743,Health,6565 FANNIN GB240,HOUSTON,TX,77030-2703,,"Health organization in HOUSTON, TX with annual revenue of approximately $97M",
VICTOR COMMUNITY SUPPORT SERVICES INC,431959837,Health,1360 E LASSEN AVE,CHICO,CA,95973-7823,,"Health organization in CHICO, CA with annual revenue of approximately $97M",
ADVENTHEALTH POLK SOUTH INC,834672945,Other,410 S 11TH ST,LAKE WALES,FL,33853-4203,,"Other organization in LAKE WALES, FL with annual revenue of approximately $97M",
CARILION FRANKLIN MEMORIAL HOSPITAL,540480606,Health,PO BOX 12385,ROANOKE,VA,24025-2385,,"Health organization in ROANOKE, VA with annual revenue of approximately $97M",
LAWRENCE MEDICAL ASSOCIATES PC,264076297,Health,670 WHITE PLAINS ROAD,SCARSDALE,NY,10583-5025,,"Health organization in SCARSDALE, NY with annual revenue of approximately $96M",
THE TASK FORCE FOR GLOBAL HEALTH INC,581698648,Human Services,330 W PONCE DE LEON AVE,DECATUR,GA,30030-2439,,"Human Services organization in DECATUR, GA with annual revenue of approximately $96M",
COLORADO STATE UNIVERSITY FOUNDATION,237098397,Education,300 UNIV SERVICES CTR,FORT COLLINS,CO,80523-0001,,"Education organization in FORT COLLINS, CO with annual revenue of approximately $96M",
TRINITY HEALTH MID-ATLANTIC MEDICAL GROUP F-K-A LANGHORNE PHYSICIAN SE,232571699,Health,1201 LANGHORN NEWTOWN ROAD,LANGHORN,PA,19047-1201,,"Health organization in LANGHORN, PA with annual revenue of approximately $96M",
CARES COMMUNITY HEALTH,680162903,Health,1500 21ST ST,SACRAMENTO,CA,95811-5216,,"Health organization in SACRAMENTO, CA with annual revenue of approximately $96M",
TRIUMPH GULF COAST INC,821840264,Human Services,PO BOX 12007,TALLAHASSEE,FL,32317-2007,,"Human Services organization in TALLAHASSEE, FL with annual revenue of approximately $96M",
EDUCATION SERVICE CENTER REGION XIII,741590220,Education,5701 SPRINGDALE RD,AUSTIN,TX,78723-3646,,"Education organization in AUSTIN, TX with annual revenue of approximately $96M",
JEFFERSON MEMORIAL HOSPITAL,550359755,Health,300 S PRESTON ST,RANSON,WV,25438-1631,,"Health organization in RANSON, WV with annual revenue of approximately $96M",
MINNESOTA HISTORICAL SOCIETY,410713907,Arts & Culture,345 KELLOGG BLVD W,SAINT PAUL,MN,55102-1903,,"Arts & Culture organization in SAINT PAUL, MN with annual revenue of approximately $96M",
DAMAR SERVICES INC,351168048,Human Services,6067 DECATUR BLVD,INDIANAPOLIS,IN,46241-9606,,"Human Services organization in INDIANAPOLIS, IN with annual revenue of approximately $96M",
LIFETIME ASSISTANCE INCORPORATED,222221158,Human Services,425 PAUL RD,ROCHESTER,NY,14624-4721,,"Human Services organization in ROCHESTER, NY with annual revenue of approximately $96M",
WILLITS HOSPITAL INC,680108919,Human Services,1 ADVENTIST HEALTH WAY,ROSEVILLE,CA,95661-3266,,"Human Services organization in ROSEVILLE, CA with annual revenue of approximately $96M",
SAFE HORIZON INC,132946970,Human Services,2 LAFAYETTE STREET 3RD FL,NEW YORK,NY,10007-1327,,"Human Services organization in NEW YORK, NY with annual revenue of approximately $96M",
OKLAHOMA BAPTIST UNIVERSITY,730579264,Education,500 W UNIVERSITY ST,SHAWNEE,OK,74804-2522,,"Education organization in SHAWNEE, OK with annual revenue of approximately $96M",
DORAL ACADEMY INC,650944569,Education,6340 SUNSET DR,MIAMI,FL,33143-4836,,"Education organization in MIAMI, FL with annual revenue of approximately $96M",
MISERICORDIA UNIVERSITY,240795406,Education,301 LAKE ST,DALLAS,PA,18612-7752,,"Education organization in DALLAS, PA with annual revenue of approximately $96M",
SAN DIEGO SYMPHONY ORCHESTRA ASSOCIATION,952040874,Arts & Culture,1245 7TH AVE,SAN DIEGO,CA,92101-4302,,"Arts & Culture organization in SAN DIEGO, CA with annual revenue of approximately $96M",
HOLY FAMILY UNIVERSITY,231501197,Education,9801 FRANKFORD AVE,PHILADELPHIA,PA,19114-2009,,"Education organization in PHILADELPHIA, PA with annual revenue of approximately $96M",
DES MOINES UNIVERSITY OSTEOPATHIC MEDICAL CENTER,420730347,Education,3200 GRAND AVE,DES MOINES,IA,50312-4198,,"Education organization in DES MOINES, IA with annual revenue of approximately $96M",
EVMS ACADEMIC PHYSICIANS AND SURGEONS HEALTH SERVICES FOUNDATIO,521576648,Other,4111 MONARCH WAY STE 500,NORFOLK,VA,23508-2563,,"Other organization in NORFOLK, VA with annual revenue of approximately $96M",
TRINITY BASIN PREPARATORY INC,311614490,Education,2730 N STATE HIGHWAY 360,GRAND PRAIRIE,TX,75050-6409,,"Education organization in GRAND PRAIRIE, TX with annual revenue of approximately $96M",
FUND FOR PUBLIC HEALTH IN NEW YORK INC,050539199,Health,22 CORTLANDT ST RM 802,NEW YORK,NY,10007-3160,,"Health organization in NEW YORK, NY with annual revenue of approximately $96M",
AMERICAN NATIONAL STANDARDS INSTITUTE,131635253,Community,1180 6TH AVE 10TH FL,NEW YORK,NY,10036-0026,,"Community organization in NEW YORK, NY with annual revenue of approximately $96M",
ABLELIGHT INC,390806446,Human Services,600 HOFFMANN DR,WATERTOWN,WI,53094-6223,,"Human Services organization in WATERTOWN, WI with annual revenue of approximately $96M",
AURELIA OSBORN FOX MEMORIAL HOSPITAL SOCIETY,150539039,Health,1 NORTON AVE,ONEONTA,NY,13820-2629,,"Health organization in ONEONTA, NY with annual revenue of approximately $96M",
WIND CREST INC,510549976,Human Services,813 MAIDEN CHOICE LN,CATONSVILLE,MD,21228-3679,,"Human Services organization in CATONSVILLE, MD with annual revenue of approximately $96M",
NEW ENGLAND INSTITUTE OF TECHNOLOGY,050312747,Education,1 NEW ENGLAND TECH BLVD,E GREENWICH,RI,02818-1258,,"Education organization in E GREENWICH, RI with annual revenue of approximately $96M",
AIRPORT RESEARCH AND DEVELOPMENT FOUNDATION,521594261,Other,601 MADISON STREET,ALEXANDRIA,VA,22314-1761,,"Other organization in ALEXANDRIA, VA with annual revenue of approximately $96M",
CASA COLINA HOSPITAL AND CENTERS FOR HEALTHCARE,951643989,Health,PO BOX 6001,POMONA,CA,91769-6001,,"Health organization in POMONA, CA with annual revenue of approximately $96M",
THE WESTCHESTER MEDICAL PRACTICE PC,562662502,Health,2649 STRANG BLVD-SUITE,YORKTOWN HEIGHTS,NY,10598-2939,,"Health organization in YORKTOWN HEIGHTS, NY with annual revenue of approximately $96M",
FLAGLER COLLEGE INC,591157081,Education,74 KING ST,ST AUGUSTINE,FL,32084-4342,,"Education organization in ST AUGUSTINE, FL with annual revenue of approximately $96M",
NATIONAL FIRE PROTECTION ASSOCIATION,041653090,Human Services,1 BATTERYMARCH PARK,QUINCY,MA,02169-7454,,"Human Services organization in QUINCY, MA with annual revenue of approximately $96M",
UNITED NETWORK FOR ORGAN SHARING,541327878,Other,700 N 4TH ST,RICHMOND,VA,23219-1414,,"Other organization in RICHMOND, VA with annual revenue of approximately $95M",
UNITED STATES VETERANS INITIATIVE,954382752,Human Services,800 W 6TH ST STE 1505,LOS ANGELES,CA,90017-2742,,"Human Services organization in LOS ANGELES, CA with annual revenue of approximately $95M",
MARYS CENTER FOR MATERNAL AND CHILD CARE INC,521594116,Other,2333 ONTARIO RD NW,WASHINGTON,DC,20009-2627,,"Other organization in WASHINGTON, DC with annual revenue of approximately $95M",
HEXAGON FOUNDATION,920520319,Religion,10807 NEW ALLEGIANCE DR STE 240,COLORADO SPGS,CO,80921-3803,,"Religion organization in COLORADO SPGS, CO with annual revenue of approximately $95M",
ASPIRANET,942442955,Human Services,400 OYSTER POINT BLVD STE 501,S SAN FRAN,CA,94080-7600,,"Human Services organization in S SAN FRAN, CA with annual revenue of approximately $95M",
ACCESSLEX INSTITUTE,232719985,Community,10 N HIGH STREET FOURTH,WEST CHESTER,PA,19380-3014,,"Community organization in WEST CHESTER, PA with annual revenue of approximately $95M",
OTTAWA UNIVERSITY,480543772,Education,1001 S CEDAR ST 1020,OTTAWA,KS,66067-3341,,"Education organization in OTTAWA, KS with annual revenue of approximately $95M",
LONGMONT UNITED HOSPITAL,840460697,Health,1950 MOUNTAIN VIEW AVE,LONGMONT,CO,80501-3129,,"Health organization in LONGMONT, CO with annual revenue of approximately $95M",
TEXAS A & M UNIVERSITY 12TH MAN FOUNDATION,741185725,Education,PO BOX 2800,COLLEGE STA,TX,77841-2800,,"Education organization in COLLEGE STA, TX with annual revenue of approximately $95M",
KIMMEL CENTER INC,232865855,Arts & Culture,300 S BROAD ST,PHILADELPHIA,PA,19102-4901,,"Arts & Culture organization in PHILADELPHIA, PA with annual revenue of approximately $95M",
C I S DEVELOPMENT FOUNDATION INC,223304404,International,C/O PROTAX 17 STATE ST SUITE 320,NEW YORK,NY,10004-0000,,"International organization in NEW YORK, NY with annual revenue of approximately $95M",
MJHS HOSPICE AND PALLIATIVE CARE INC,133438643,Human Services,55 WATER ST 46TH FLOOR,NEW YORK,NY,10041-3211,,"Human Services organization in NEW YORK, NY with annual revenue of approximately $95M",
HOSPARUS INC,610921718,Human Services,6200 DUTCHMANS LN,LOUISVILLE,KY,40205-3269,,"Human Services organization in LOUISVILLE, KY with annual revenue of approximately $95M",
DONOR NETWORK OF ARIZONA,860707697,Health,2010 W RIO SALADO PKWY,TEMPE,AZ,85281-3819,,"Health organization in TEMPE, AZ with annual revenue of approximately $95M",
SELF HELP ENTERPRISES,941592676,Human Services,PO BOX 6520,VISALIA,CA,93290-6520,,"Human Services organization in VISALIA, CA with annual revenue of approximately $95M",
WEEKS MEDICAL CENTER,020222242,Health,173 MIDDLE ST,LANCASTER,NH,03584-3508,,"Health organization in LANCASTER, NH with annual revenue of approximately $95M",
MID-AMERICA TRANSPLANT SERVICES,237426306,Health,1110 HIGHLANDS PLAZA DR EAST SUITE,ST LOUIS,MO,63110-1392,,"Health organization in ST LOUIS, MO with annual revenue of approximately $95M",
PRESBYTERIAN HOMES HOUSING AND ASSISTED LIVING INC,411463801,Human Services,2845 HAMLINE AVE N,ROSEVILLE,MN,55113-1888,,"Human Services organization in ROSEVILLE, MN with annual revenue of approximately $95M",
CHRISTIAN HEALTH CARE CENTER,221546163,Health,301 SICOMAC AVENUE BLDG 1,WYCKOFF,NJ,07481-2159,,"Health organization in WYCKOFF, NJ with annual revenue of approximately $95M",
BALTIMORE REGIONAL HOUSING PARTNERSHIP INC,461215609,Human Services,100 N CHARLES ST 2ND FL,BALTIMORE,MD,21201-3805,,"Human Services organization in BALTIMORE, MD with annual revenue of approximately $95M",
BALTIMORE MEDICAL SYSTEM INC,521358241,Other,5525 EASTERN AVE SUITE 301,BALTIMORE,MD,21224-2796,,"Other organization in BALTIMORE, MD with annual revenue of approximately $95M",
DORDT UNIVERSITY INCORPORATED,420772559,Education,700 7TH ST NE,SIOUX CENTER,IA,51250-1671,,"Education organization in SIOUX CENTER, IA with annual revenue of approximately $95M",
TRINITY SERVICES INC,362194838,Human Services,301 VETERANS PKWY,NEW LENOX,IL,60451-2899,,"Human Services organization in NEW LENOX, IL with annual revenue of approximately $95M",
CATHOLIC GUARDIAN SERVICES,135562186,Other,1990 WESTCHESTER AVE,BRONX,NY,10462-4553,,"Other organization in BRONX, NY with annual revenue of approximately $95M",
WESTFIELDS HOSPITAL INC,390808442,Health,535 HOSPITAL RD,NEW RICHMOND,WI,54017-1449,,"Health organization in NEW RICHMOND, WI with annual revenue of approximately $95M",
ARIZONA COMMUNITY FOUNDATION,860348306,Community,2201 E CAMELBACK RD NO 405B,PHOENIX,AZ,85016-3431,,"Community organization in PHOENIX, AZ with annual revenue of approximately $95M",
AUGUSTA UNIVERSITY RESEARCH INSTITUTE INC,581418202,Education,1120 15TH ST,AUGUSTA,GA,30912-0004,,"Education organization in AUGUSTA, GA with annual revenue of approximately $95M",
GO KIDS INC,942535812,Human Services,885 MORO DR,GILROY,CA,95020-3260,,"Human Services organization in GILROY, CA with annual revenue of approximately $95M",
UNLV MEDICINE,813419791,Health,3016 W CHARLESTON BLVD STE 100,LAS VEGAS,NV,89102-1973,,"Health organization in LAS VEGAS, NV with annual revenue of approximately $95M",
NORTH PARK UNIVERSITY,361557840,Education,3225 W FOSTER AVE,CHICAGO,IL,60625-4823,,"Education organization in CHICAGO, IL with annual revenue of approximately $95M",
W I COOK FOUNDATION INC,752051649,Health,801 7TH AVE,FORT WORTH,TX,76104-2733,,"Health organization in FORT WORTH, TX with annual revenue of approximately $95M",
BROOKSBY VILLAGE INC,522126755,Human Services,813 MAIDEN CHOICE LN,CATONSVILLE,MD,21228-3679,,"Human Services organization in CATONSVILLE, MD with annual revenue of approximately $95M",
UNION HEALTH SERVICE INC,362302593,Health,1634 W POLK ST,CHICAGO,IL,60612-4352,,"Health organization in CHICAGO, IL with annual revenue of approximately $95M",
AMERICAN INSTITUTE FOR CHARTERED PROPERTY CASUALTY UNDERWRITERS,231352012,Other,720 PROVIDENCE RD STE 100,MALVERN,PA,19355-3449,,"Other organization in MALVERN, PA with annual revenue of approximately $95M",
CHARITY GLOBAL INC,223936753,Human Services,230 FRANKLIN RD 11-II,FRANKLIN,TN,37064-2284,,"Human Services organization in FRANKLIN, TN with annual revenue of approximately $95M",
PORTABLE PRACTICAL EDUCATIONAL PREPARATION INC,237232227,Human Services,802 E 46TH ST,TUCSON,AZ,85713-5006,,"Human Services organization in TUCSON, AZ with annual revenue of approximately $94M",
VERNON MEMORIAL HEALTHCARE INC,390806404,Health,507 S MAIN ST,VIROQUA,WI,54665-2059,,"Health organization in VIROQUA, WI with annual revenue of approximately $94M",
GARDNER FAMILY HEALTH NETWORK INC,941743078,Health,1621 GOLD ST,ALVISO,CA,95002-3530,,"Health organization in ALVISO, CA with annual revenue of approximately $94M",
ARKANSAS COMMUNITY FOUNDATION INC,521055743,Community,5 ALLIED DRIVE STE 51110,LITTLE ROCK,AR,72202-2013,,"Community organization in LITTLE ROCK, AR with annual revenue of approximately $94M",
FLORIDA HOSPITAL DADE CITY INC,822567308,Other,13100 FORT KING RD,DADE CITY,FL,33525-5294,,"Other organization in DADE CITY, FL with annual revenue of approximately $94M",
MARANA HEALTH CENTER INC,866053462,Health,13395 N MARANA MAIN ST,MARANA,AZ,85653-7008,,"Health organization in MARANA, AZ with annual revenue of approximately $94M",
AVITA HEALTH SYSTEM,274385692,Health,269 PORTLAND WAY S,GALION,OH,44833-2312,,"Health organization in GALION, OH with annual revenue of approximately $94M",
GOODWILL INDUSTRIES MANASOTA INC,592074391,Human Services,2705 51ST AVE E,BRADENTON,FL,34203-3937,,"Human Services organization in BRADENTON, FL with annual revenue of approximately $94M",
FRANCISCAN HOSPITAL FOR CHILDREN INC,042156082,Health,30 WARREN ST,BRIGHTON,MA,02135-3602,,"Health organization in BRIGHTON, MA with annual revenue of approximately $94M",
FRANKLIN UNIVERSITY,310707369,Other,201 S GRANT AVE,COLUMBUS,OH,43215-5301,,"Other organization in COLUMBUS, OH with annual revenue of approximately $94M",
READING & MATH INC,472306902,Education,1200 WASHINGTON AVE S STE 310,MINNEAPOLIS,MN,55415-5500,,"Education organization in MINNEAPOLIS, MN with annual revenue of approximately $94M",
MOTION PICTURE AND TELEVISION FUND,951652916,Human Services,23388 MULHOLLAND DR,WOODLAND HLS,CA,91364-2792,,"Human Services organization in WOODLAND HLS, CA with annual revenue of approximately $94M",
TAOS HEALTH SYSTEMS INC HOLY CROSS HOSPITAL,850289839,Health,1397 WEIMER RD,TAOS,NM,87571-6253,,"Health organization in TAOS, NM with annual revenue of approximately $94M",
SAMARITAN NORTH LINCOLN HOSPITAL,931305493,Health,PO BOX 3000,CORVALLIS,OR,97339-3000,,"Health organization in CORVALLIS, OR with annual revenue of approximately $94M",
BLUE RIDGE ACADEMY,821850228,Education,955 STANISLAUS ST,MARICOPA,CA,93252-9779,,"Education organization in MARICOPA, CA with annual revenue of approximately $94M",
MILTON ACADEMY,042103603,Education,170 CENTRE ST,MILTON,MA,02186-3338,,"Education organization in MILTON, MA with annual revenue of approximately $94M",
RISE AGAINST HUNGER,161541024,International,4801 GLENWOOD AVE STE 200,RALEIGH,NC,27612-3857,,"International organization in RALEIGH, NC with annual revenue of approximately $94M",
UTICA UNIVERSITY,161476258,Education,1600 BURRSTONE RD,UTICA,NY,13502-4857,,"Education organization in UTICA, NY with annual revenue of approximately $94M",
SAN GORGONIO MEMORIAL HOSPITAL,330420041,Health,600 N HIGHLAND SPRINGS AVE,BANNING,CA,92220-3046,,"Health organization in BANNING, CA with annual revenue of approximately $94M",
DOMINICAN UNIVERSITY OF CALIFORNIA,941156525,Education,50 ACACIA AVE BERTRAND HALL103,SAN RAFAEL,CA,94901-2230,,"Education organization in SAN RAFAEL, CA with annual revenue of approximately $94M",
GSL HOSPITAL,824432109,Health,1110 ST LUKES WAY,ALLENTOWN,PA,18109-9153,,"Health organization in ALLENTOWN, PA with annual revenue of approximately $94M",
CUMBERLAND MEDICAL CENTER INC,620790132,Health,1420 CENTERPOINT BLVD BLDG C,KNOXVILLE,TN,37932-1960,,"Health organization in KNOXVILLE, TN with annual revenue of approximately $94M",
DIETRICH FOUNDATION,364711746,Community,USX TOWER 600 GRANT ST RM 5360,PITTSBURGH,PA,15219-2703,,"Community organization in PITTSBURGH, PA with annual revenue of approximately $94M",
NEW ENGLAND ORGAN BANK INC,237024479,Other,60 1ST AVE,WALTHAM,MA,02451-1106,,"Other organization in WALTHAM, MA with annual revenue of approximately $94M",
JANE TODD CRAWFORD MEMORIALHOSPITAL INC,204474637,Health,290 INDUSTRIAL PARK RD,GREENSBURG,KY,42743-1400,,"Health organization in GREENSBURG, KY with annual revenue of approximately $94M",
HIGH POINT TREATMENT CENTER,043357938,Health,72 KILBURN ST,NEW BEDFORD,MA,02740-7321,,"Health organization in NEW BEDFORD, MA with annual revenue of approximately $94M",
ST LUKES HEALTH SYSTEM CORPORATION,760536232,Health,17200 ST LUKES WAY,THE WOODLANDS,TX,77384-8007,,"Health organization in THE WOODLANDS, TX with annual revenue of approximately $94M",
FREESTORE-FOODBANK INC,237122205,Human Services,3401 ROSENTHAL WAY,CINCINNATI,OH,45204-3500,,"Human Services organization in CINCINNATI, OH with annual revenue of approximately $94M",
HEALTH SERVICES OF CENTRAL GEORGIA INC,582307485,Health,777 HEMLOCK ST,MACON,GA,31201-2102,,"Health organization in MACON, GA with annual revenue of approximately $94M",
JEWISH CHILD CARE ASSOCIATION OF NEW YORK,131624060,Human Services,57 WILLOUGHBY ST,BROOKLYN,NY,11201-5257,,"Human Services organization in BROOKLYN, NY with annual revenue of approximately $94M",
VETERANS OF FOREIGN WARS OF THE UNITED STATES,440474290,Other,406 W 34TH ST,KANSAS CITY,MO,64111-2721,,"Other organization in KANSAS CITY, MO with annual revenue of approximately $94M",
HELPING HAND FOR RELIEF & DEVELOPMENT INC,311628040,Human Services,21199 HILLTOP ST,SOUTHFIELD,MI,48033-4912,,"Human Services organization in SOUTHFIELD, MI with annual revenue of approximately $94M",
VISITING NURSE SERVICE OF NEW YORK HOSPICE,300006817,Human Services,220 EAST 42ND ST,NEW YORK,NY,10017-5835,,"Human Services organization in NEW YORK, NY with annual revenue of approximately $94M",
ANDROSCOGGIN VALLEY HOSPITAL INC,020280367,Health,59 PAGE HILL RD,BERLIN,NH,03570-3531,,"Health organization in BERLIN, NH with annual revenue of approximately $94M",
JUBILEE ACADEMIC CENTER INC,742939346,Education,4434 ROLAND RD,SAN ANTONIO,TX,78222-2830,,"Education organization in SAN ANTONIO, TX with annual revenue of approximately $93M",
GLENCOE REGIONAL HEALTH SERVICES,411949230,Health,1805 HENNEPIN AVE N,GLENCOE,MN,55336-1416,,"Health organization in GLENCOE, MN with annual revenue of approximately $93M",
INSPIRENOLA CHARTER SCHOOLS,460675150,Education,2401 WESTBEND PARKWAY,NEW ORLEANS,LA,70114-2458,,"Education organization in NEW ORLEANS, LA with annual revenue of approximately $93M",
MEMORIAL HOSPITAL,344430849,Health,100 MADISON AVE,TOLEDO,OH,43604-1516,,"Health organization in TOLEDO, OH with annual revenue of approximately $93M",
COVENANT HOUSE,132725416,Human Services,5 PENN PLAZA 19TH FLOOR,NEW YORK,NY,10001-1738,,"Human Services organization in NEW YORK, NY with annual revenue of approximately $93M",
PHELPS MEDICAL SERVICES PC,274416017,Health,701 N BROADWAY,SLEEPY HOLLOW,NY,10591-1020,,"Health organization in SLEEPY HOLLOW, NY with annual revenue of approximately $93M",
HUNTSVILLE COMMUNITY HOSPITAL INC,843654542,Health,110 MEMORIAL HOSPITAL DR,HUNTSVILLE,TX,77340-4940,,"Health organization in HUNTSVILLE, TX with annual revenue of approximately $93M",
HILLSDALE COMMUNITY HEALTH CENTER,386005550,Health,168 S HOWELL ST,HILLSDALE,MI,49242-2040,,"Health organization in HILLSDALE, MI with annual revenue of approximately $93M",
JOBS FOR THE FUTURE INC,061164568,Human Services,50 MILK ST 17TH FLOOR,BOSTON,MA,02109-5002,,"Human Services organization in BOSTON, MA with annual revenue of approximately $93M",
HOSPICE OF PALM BEACH COUNTY INC,591825937,Human Services,5300 EAST AVE,WEST PALM BCH,FL,33407-2387,,"Human Services organization in WEST PALM BCH, FL with annual revenue of approximately $93M",
NEW HAMPSHIRE CHARITABLE FOUNDATION,026005625,Community,37 PLEASANT ST,CONCORD,NH,03301-4005,,"Community organization in CONCORD, NH with annual revenue of approximately $93M",
ZION HEALTH,832537408,Health,1506 S SILICON WAY STE 2B,ST GEORGE,UT,84770-7153,,"Health organization in ST GEORGE, UT with annual revenue of approximately $93M",
SAE INTERNATIONAL,251494402,Research,400 COMMONWEALTH DR,WARRENDALE,PA,15096-1200,,"Research organization in WARRENDALE, PA with annual revenue of approximately $93M",
THE CHILD CENTER OF NY INC,111733454,Other,118 35 QUEENS BLVD 6TH FLOOR,FOREST HILLS,NY,11375-7211,,"Other organization in FOREST HILLS, NY with annual revenue of approximately $93M",
PALMER COLLEGE FOUNDATION,426081293,Education,1000 BRADY ST,DAVENPORT,IA,52803-5214,,"Education organization in DAVENPORT, IA with annual revenue of approximately $93M",
SMA HEALTHCARE INC,590976866,Health,150 MAGNOLIA AVE,DAYTONA BEACH,FL,32114-4304,,"Health organization in DAYTONA BEACH, FL with annual revenue of approximately $93M",
MULTIPURPOSE ARENA FORT WORTH,812774292,Human Services,1911 MONTGOMERY ST,FORT WORTH,TX,76107-4010,,"Human Services organization in FORT WORTH, TX with annual revenue of approximately $93M",
ADVOCATE AURORA HEALTH INC,824184596,Health,3075 HIGHLAND PKWY FL 6,DOWNERS GROVE,IL,60515-5563,,"Health organization in DOWNERS GROVE, IL with annual revenue of approximately $93M",
GREASWOOD SPRINGS COMMUNITY SCHOOL INC,860823088,Education,HC 58 BOX 60,GANADO,AZ,86505-9706,,"Education organization in GANADO, AZ with annual revenue of approximately $93M",
BENAROYA RESEARCH INSTITUTE AT VIRGINIA MASON,910653422,Health,1901 NINTH AVE,SEATTLE,WA,98119-0000,,"Health organization in SEATTLE, WA with annual revenue of approximately $93M",
MOUNTAIN COMPREHENSIVE HEALTH CORPORATION,610712406,Health,PO BOX 40,WHITESBURG,KY,41858-0040,,"Health organization in WHITESBURG, KY with annual revenue of approximately $93M",
ONEOHIO RECOVERY FOUNDATION,880647873,Health,670 MERIDIAN WAY STE 231,WESTERVILLE,OH,43082-2305,,"Health organization in WESTERVILLE, OH with annual revenue of approximately $93M",
NATIONAL SEPTEMBER 11 MEMORIAL AND MUSEUM AT THE WORLD TRADE CENTER,611745872,Arts & Culture,200 LIBERTY STREET 16TH FLOOR,NEW YORK,NY,10281-1116,,"Arts & Culture organization in NEW YORK, NY with annual revenue of approximately $93M",
GEISINGER HEALTH,231995911,Health,100 N ACADEMY AVE MC 49-70,DANVILLE,PA,17822-9800,,"Health organization in DANVILLE, PA with annual revenue of approximately $93M",
COMPASS HEALTH,911180810,Other,4526 FEDERAL AVE BLDG 4E,EVERETT,WA,98203-2132,,"Other organization in EVERETT, WA with annual revenue of approximately $93M",
WESTCHESTER HEALTH MEDICAL PC,474539584,Health,972 BRUSH HOLLOW RD,WESTBURY,NY,11590-1740,,"Health organization in WESTBURY, NY with annual revenue of approximately $93M",
DIDI HIRSCH PSYCHIATRIC SERVICE,951816023,Health,4760 SEPULVEDA BLVD,CULVER CITY,CA,90230-4820,,"Health organization in CULVER CITY, CA with annual revenue of approximately $93M",
ST LUKES MEDICAL GROUP,431349332,Other,232 S WOODS MILL RD,CHESTERFIELD,MO,63017-3417,,"Other organization in CHESTERFIELD, MO with annual revenue of approximately $93M",
BUTLER MEDICAL PROVIDERS,251441961,Health,1 HOSPITAL WAY,BUTLER,PA,16001-4670,,"Health organization in BUTLER, PA with annual revenue of approximately $93M",
ANTELOPE VALLEY LEARNING ACADEMY INC,205291618,Education,177 HOLSTON DR,LANCASTER,CA,93535-4570,,"Education organization in LANCASTER, CA with annual revenue of approximately $93M",
INSTITUTE ON AGING,942978977,Human Services,3575 GEARY BLVD,SAN FRANCISCO,CA,94118-3212,,"Human Services organization in SAN FRANCISCO, CA with annual revenue of approximately $93M",
UT REGIONAL ONE PHYSICIANS INC,471157530,Health,877 JEFFERSON AVE,MEMPHIS,TN,38103-2807,,"Health organization in MEMPHIS, TN with annual revenue of approximately $93M",
OCONTO HOSPITAL & MEDICAL CENTER INC,061745397,Health,820 ARBUTUS AVE,OCONTO,WI,54153-2004,,"Health organization in OCONTO, WI with annual revenue of approximately $93M",
THE WISTAR INSTITUTE OF ANATOMY AND BIOLOGY,236434390,Health,3601 SPRUCE ST,PHILADELPHIA,PA,19104-4205,,"Health organization in PHILADELPHIA, PA with annual revenue of approximately $93M",
UNITED WAY FOR SOUTHEASTERN MICHIGAN,203099071,Human Services,3011 W GRAND BLVD STE 500,DETROIT,MI,48202-3012,,"Human Services organization in DETROIT, MI with annual revenue of approximately $93M",
DAEMEN UNIVERSITY,160759798,Education,4380 MAIN ST,AMHERST,NY,14226-3544,,"Education organization in AMHERST, NY with annual revenue of approximately $93M",
URBAN LAND INSTITUTE,530159845,Environment,2001 L ST NW STE 200,WASHINGTON,DC,20036-4948,,"Environment organization in WASHINGTON, DC with annual revenue of approximately $93M",
COOPERATIVE EDUCATIONAL SERVICE AGENCY 6,391045907,Education,2300 STATE ROAD 44,OSHKOSH,WI,54904-9137,,"Education organization in OSHKOSH, WI with annual revenue of approximately $93M",
NICHOLAS H NOYES MEMORIAL HOSPITAL,160743979,Health,111 CLARA BARTON ST,DANSVILLE,NY,14437-9503,,"Health organization in DANSVILLE, NY with annual revenue of approximately $93M",
MACOMB OAKLAND REGIONAL CENTER INC,383273888,Human Services,15600 19 MILE RD,CLINTON TWP,MI,48038-3502,,"Human Services organization in CLINTON TWP, MI with annual revenue of approximately $93M",
SHEDD AQUARIUM SOCIETY,362167918,Health,1200 S LAKE SHORE DR,CHICAGO,IL,60605-2402,,"Health organization in CHICAGO, IL with annual revenue of approximately $92M",
RPCI ONCOLOGY PC,461355351,Health,199 PARK CLUB LANE,WILLIAMSVILLE,NY,14221-5269,,"Health organization in WILLIAMSVILLE, NY with annual revenue of approximately $92M",
TOMAH MEMORIAL HOSPITAL INC,390799566,Health,501 GOPHER DR,TOMAH,WI,54660-4513,,"Health organization in TOMAH, WI with annual revenue of approximately $92M",
NEW YORK GENOME CENTER INC,800631734,Health,101 AVENUE OF AMERICAS 7TH FLOOR,NEW YORK,NY,10013-0000,,"Health organization in NEW YORK, NY with annual revenue of approximately $92M",
HEARTHSTONE SENIOR COMMUNITIES INC,232856813,Health,TWO BALA CYNWYD PLAZA 300,BALA CYNWYD,PA,19004-1512,,"Health organization in BALA CYNWYD, PA with annual revenue of approximately $92M",
CONFERENCE OF STATE BANK SUPERVISORS INC,522080072,Community,1300 I ST NW STE 700,WASHINGTON,DC,20005-4980,,"Community organization in WASHINGTON, DC with annual revenue of approximately $92M",
MOUNTAIN WEST CONFERENCE,841472434,Human Services,10807 NEW ALLEGIANCE DRIVE SUITE 25,COLORADO SPRINGS,CO,80921-3796,,"Human Services organization in COLORADO SPRINGS, CO with annual revenue of approximately $92M",
OUACHITA BAPTIST UNIVERSITY,710239383,Education,OBU BOX 3772,ARKADELPHIA,AR,71998-0001,,"Education organization in ARKADELPHIA, AR with annual revenue of approximately $92M",
RIVERBEND MEDICAL GROUP INC,811807730,Health,114 WOODLAND ST MS 105-103-58,HARTFORD,CT,06105-1208,,"Health organization in HARTFORD, CT with annual revenue of approximately $92M",
INDIANA ORGAN PROCUREMENT ORGANIZATION INC,351746358,Health,3750 GUION RD,INDIANAPOLIS,IN,46222-1618,,"Health organization in INDIANAPOLIS, IN with annual revenue of approximately $92M",
CORPORATION FOR THE PROMOTION OF RIFLE PRACTICE AND FIREARMS SAFETY,341839195,Human Services,1401 COMMERCE BLVD,ANNISTON,AL,36207-9407,,"Human Services organization in ANNISTON, AL with annual revenue of approximately $92M",
DIOCESAN COUNCIL FOR THE SOCIETY OF ST VINCENT DE PAUL DIOCESE PHOENIX,860096789,Religion,PO BOX 13600,PHOENIX,AZ,85002-3600,,"Religion organization in PHOENIX, AZ with annual revenue of approximately $92M",
TEXAS TECH FOUNDATION INC,756043842,Education,PO BOX 45025,LUBBOCK,TX,79409-5025,,"Education organization in LUBBOCK, TX with annual revenue of approximately $92M",
EVANS SCHOLARS FOUNDATION,362518129,Education,2501 PATRIOT BLVD,GLENVIEW,IL,60026-8022,,"Education organization in GLENVIEW, IL with annual revenue of approximately $92M",
STRIVE PREPARATORY SCHOOLS,202562193,Education,2480 W 26TH AVE STE 360B,DENVER,CO,80211-5325,,"Education organization in DENVER, CO with annual revenue of approximately $92M",
COLUMBIA GRAMMAR & PREPARATORY SCHOOL,130590970,Education,5 W 93RD ST,NEW YORK,NY,10025-7602,,"Education organization in NEW YORK, NY with annual revenue of approximately $92M",
CENTRAL OKLAHOMA AMERICAN INDIAN HEALTH COUNCIL INC,730955756,Health,4913 W RENO AVE,OKLAHOMA CITY,OK,73127-6339,,"Health organization in OKLAHOMA CITY, OK with annual revenue of approximately $92M",
KINGS COLLEGE,240804602,Education,133 N RIVER ST,WILKES BARRE,PA,18711-0800,,"Education organization in WILKES BARRE, PA with annual revenue of approximately $92M",
GOOD SHEPHERD REHABILITATION HOSP,231371947,Health,850 S 5TH ST,ALLENTOWN,PA,18103-3308,,"Health organization in ALLENTOWN, PA with annual revenue of approximately $92M",
FRONTIER BEHAVIORAL HEALTH SPOKANE MENTAL HEALTH,910853801,Health,107 S DIVISION ST,SPOKANE,WA,99202-1510,,"Health organization in SPOKANE, WA with annual revenue of approximately $92M",
VANGUARD UNIVERSITY OF SO CA,956002998,Education,55 FAIR DR,COSTA MESA,CA,92626-6520,,"Education organization in COSTA MESA, CA with annual revenue of approximately $92M",
GOODWILL INDUSTRIES INTERNATIONAL INC,530196517,Human Services,15810 INDIANOLA DR,ROCKVILLE,MD,20855-2674,,"Human Services organization in ROCKVILLE, MD with annual revenue of approximately $92M",
COLORADO GIVES FOUNDATION,510157964,Community,5855 WADSWORTH BYP STE A,ARVADA,CO,80003-5462,,"Community organization in ARVADA, CO with annual revenue of approximately $92M",
BOSTON HEALTH CARE FOR THE HOMELESS PROGRAM INC,043160480,Human Services,780 ALBANY ST,BOSTON,MA,02118-2755,,"Human Services organization in BOSTON, MA with annual revenue of approximately $92M",
RESIDENTIAL ALTERNATIVES OF ILLINOIS INC,371223846,Human Services,285 S FARNHAM ST,GALESBURG,IL,61401-5323,,"Human Services organization in GALESBURG, IL with annual revenue of approximately $92M",
CENTERSTONE OF INDIANA INC,351147323,Health,1921 RANSOM PL,NASHVILLE,TN,37217-3841,,"Health organization in NASHVILLE, TN with annual revenue of approximately $92M",
WESTMINSTER-CANTERBURY CORPORATION,237162493,Human Services,1600 WESTBROOK AVENUE,RICHMOND,VA,23227-3337,,"Human Services organization in RICHMOND, VA with annual revenue of approximately $92M",
SAINT ALPHONSUS HEALTH SYSTEM INC,271929502,Other,1055 N CURTIS RD,BOISE,ID,83706-1309,,"Other organization in BOISE, ID with annual revenue of approximately $92M",
SOUTHERN ILLINOIS HEALTHCARE FOUNDATION INC,371158318,Health,2041 GOOSE LAKE RD,SAUGET,IL,62206-2822,,"Health organization in SAUGET, IL with annual revenue of approximately $92M",
COMMUNITY HOSPITAL OF ANACONDA,810303913,Health,401 W PENNSYLVANIA AVE,ANACONDA,MT,59711-1931,,"Health organization in ANACONDA, MT with annual revenue of approximately $92M",
VANGUARD ACADEMY,742971562,Education,2510 S VETERANS BLVD,EDINBURG,TX,78539-7016,,"Education organization in EDINBURG, TX with annual revenue of approximately $92M",
CENT FOR URBAN COMMUNITY SVCS,133687891,Community,198 EAST 121 ST -6TH FL,NEW YORK,NY,10035-3523,,"Community organization in NEW YORK, NY with annual revenue of approximately $92M",
PALESTINE CHILDRENS RELIEF FUND,931057665,International,2600 W OLIVE AVE SUITE 543,BURBANK,CA,91505-4549,,"International organization in BURBANK, CA with annual revenue of approximately $92M",
DOWNTOWN EMERGENCY SERVICE CENTER,911275815,Health,515 3RD AVE,SEATTLE,WA,98104-2304,,"Health organization in SEATTLE, WA with annual revenue of approximately $92M",
LAWRENCE TECHNOLOGICAL UNIVERSITY,381369604,Education,21000 W 10 MILE RD,SOUTHFIELD,MI,48075-1058,,"Education organization in SOUTHFIELD, MI with annual revenue of approximately $92M",
LIFEGIFT ORGAN DONATION CENTER,760231238,Health,2510 WESTRIDGE ST,HOUSTON,TX,77054-1508,,"Health organization in HOUSTON, TX with annual revenue of approximately $92M",
NORTHERN MONTANA HOSPITAL,810231787,Health,PO BOX 1231,HAVRE,MT,59501-1231,,"Health organization in HAVRE, MT with annual revenue of approximately $92M",
FAMILY RESOURCE & REFERRAL CENTER OF SAN JOAQUIN,941691503,Other,3127 TRANSWORLD DRIVESUITE 100,STOCKTON,CA,95206-0000,,"Other organization in STOCKTON, CA with annual revenue of approximately $92M",
ST JOHN BROKEN ARROW INC,383833117,Health,PO BOX 45998,SAINT LOUIS,MO,63145-5998,,"Health organization in SAINT LOUIS, MO with annual revenue of approximately $92M",
LIFE UNIVERSITY INC,581216007,Education,1269 BARCLAY CIR SE,MARIETTA,GA,30060-2903,,"Education organization in MARIETTA, GA with annual revenue of approximately $91M",
ELMHURST MEMORIAL HEALTHCARE,364037473,Health,155 E BRUSH HILL RD,ELMHURST,IL,60126-5658,,"Health organization in ELMHURST, IL with annual revenue of approximately $91M",
CAPITAL HOSPICE,541920770,Human Services,12470 TELECOM DR STE 301,TEMPLE TERR,FL,33637-0904,,"Human Services organization in TEMPLE TERR, FL with annual revenue of approximately $91M",
THE ANIMAL MEDICAL CENTER,135505367,Health,510 EAST 62ND ST 2ND FL,NEW YORK,NY,10065-8314,,"Health organization in NEW YORK, NY with annual revenue of approximately $91M",
CENTER FOR ORGAN RECOVERY AND EDUCATION,251332885,Health,204 SIGMA DR,PITTSBURGH,PA,15238-2825,,"Health organization in PITTSBURGH, PA with annual revenue of approximately $91M",
MENTAL HEALTH COOPERATIVE INC,582018687,Health,275 CUMBERLAND BND,NASHVILLE,TN,37228-1803,,"Health organization in NASHVILLE, TN with annual revenue of approximately $91M",
ARISA HEALTH INC,844286440,Health,2400 S 48TH ST,SPRINGDALE,AR,72762-6683,,"Health organization in SPRINGDALE, AR with annual revenue of approximately $91M",
HOLY ROSARY HEALTHCARE,810231792,Health,36 S STATE ST STE 2200,SALT LAKE CTY,UT,84111-1470,,"Health organization in SALT LAKE CTY, UT with annual revenue of approximately $91M",
INTERNATIONAL COMMUNITY HEALTH SERVICES,910947084,Health,720 8TH AVE S STE 100,SEATTLE,WA,98104-3033,,"Health organization in SEATTLE, WA with annual revenue of approximately $91M",
TEXAS MEDICAL CENTER CENTRAL HEAT AND COOLING SERVICES CORP,943425643,Health,1615 BRAESWOOD BLVD,HOUSTON,TX,77030-3903,,"Health organization in HOUSTON, TX with annual revenue of approximately $91M",
REFUAH HEALTH CENTER INC,133652555,Health,728 N MAIN ST,SPRING VALLEY,NY,10977-8916,,"Health organization in SPRING VALLEY, NY with annual revenue of approximately $91M",
TEXAS ACCESS TO JUSTICE FOUNDATION,742354575,Other,PO BOX 12886,AUSTIN,TX,78711-2886,,"Other organization in AUSTIN, TX with annual revenue of approximately $91M",
JEWISH FEDERATION OF METROPOLITAN DETROIT,381359214,Community,6735 TELEGRAPH RD,BLOOMFIELD HILLS,MI,48301-3141,,"Community organization in BLOOMFIELD HILLS, MI with annual revenue of approximately $91M",
MCLEOD HEALTH CLARENDON,812772554,Health,555 E CHEVES ST,FLORENCE,SC,29506-2617,,"Health organization in FLORENCE, SC with annual revenue of approximately $91M",
LIVINGSTON HEALTHCARE,810378200,Health,320 ALPENGLOW LN,LIVINGSTON,MT,59047-8506,,"Health organization in LIVINGSTON, MT with annual revenue of approximately $91M",
BRONSON LAKEVIEW HOSPITAL,381359218,Health,601 JOHN STREET BOX 26,KALAMAZOO,MI,49007-5341,,"Health organization in KALAMAZOO, MI with annual revenue of approximately $91M",
LEE UNIVERSITY,620502739,Other,1120 N OCOEE ST,CLEVELAND,TN,37311-4458,,"Other organization in CLEVELAND, TN with annual revenue of approximately $91M",
OHIOGUIDESTONE,340720558,Health,343 WEST BAGLEY ROAD,BEREA,OH,44017-1370,,"Health organization in BEREA, OH with annual revenue of approximately $91M",
IMPACTLIFE,420859501,Other,5500 LAKEVIEW PKWY,DAVENPORT,IA,52807-3481,,"Other organization in DAVENPORT, IA with annual revenue of approximately $91M",
INDIANA ASSOCIATION OF UNITED WAYS INCORPORATED,351441961,Community,2955 N MERIDIAN ST,INDIANAPOLIS,IN,46208-4798,,"Community organization in INDIANAPOLIS, IN with annual revenue of approximately $91M",
MERCY MEDICAL CENTER,450231183,Other,1301 15TH AVE W,WILLISTON,ND,58801-3821,,"Other organization in WILLISTON, ND with annual revenue of approximately $91M",
AMERICAN BIBLE SOCIETY,131623885,Religion,101 N INDEPENDENCEMALL E,PHILADELPHIA,PA,19106-2112,,"Religion organization in PHILADELPHIA, PA with annual revenue of approximately $91M",
STRADA EDUCATION FOUNDATION INC,473044430,Community,10 W MARKET ST STE 1100,INDIANAPOLIS,IN,46204-0074,,"Community organization in INDIANAPOLIS, IN with annual revenue of approximately $91M",
COLLEGE FOR CREATIVE STUDIES,381550064,Education,201 E KIRBY,DETROIT,MI,48202-4048,,"Education organization in DETROIT, MI with annual revenue of approximately $91M",
LOVELACE BIOMEDICAL RESEARCH INSTITUTE,850110669,Health,2425 RIDGECREST DR SE,ALBUQUERQUE,NM,87108-5129,,"Health organization in ALBUQUERQUE, NM with annual revenue of approximately $91M",
CHATHAM UNIVERSITY,250717890,Education,WOODLAND RD,PITTSBURGH,PA,15232-0000,,"Education organization in PITTSBURGH, PA with annual revenue of approximately $90M",
SERVICE COORDINATION INC,521651219,Other,5283 CORPORATE DR STE 103,FREDERICK,MD,21703-2878,,"Other organization in FREDERICK, MD with annual revenue of approximately $90M",
SOUTHWEST TRANSPLANT ALLIANCE INC,751469319,Health,8190 MANDERVILLE LN,DALLAS,TX,75231-1105,,"Health organization in DALLAS, TX with annual revenue of approximately $90M",
BIG EAST CONFERENCE INC,900955035,Community,655 THIRD AVENUE STE 711,NEW YORK,NY,10017-5621,,"Community organization in NEW YORK, NY with annual revenue of approximately $90M",
BRADLEY IMPACT FUND INC,454678325,Community,1400 N WATER ST STE 300,MILWAUKEE,WI,53202-4129,,"Community organization in MILWAUKEE, WI with annual revenue of approximately $90M",
TREVECCA NAZARENE UNIVERSITY,620497990,Education,333 MURFREESBORO PIKE,NASHVILLE,TN,37210-2834,,"Education organization in NASHVILLE, TN with annual revenue of approximately $90M",
GOODWILL OF THE OLYMPICS AND RAINIER REGION,910573106,Human Services,714 S 27TH ST,TACOMA,WA,98409-8130,,"Human Services organization in TACOMA, WA with annual revenue of approximately $90M",
FOUNDATION FOR INNOVATIVE NEW DIAGNOSTICS FIND,980407553,Health,GRANDSACONNEX,SWITZERLAND,,00000-0000,,"Health organization in SWITZERLAND,  with annual revenue of approximately $90M",
ANN S CHOICE INC,522324152,Human Services,813 MAIDEN CHOICE LN,CATONSVILLE,MD,21228-3679,,"Human Services organization in CATONSVILLE, MD with annual revenue of approximately $90M",
BENEVOLENT HEALTHCARE FOUNDATION,841568566,Health,10377 E GEDDES AVE,CENTENNIAL,CO,80112-3740,,"Health organization in CENTENNIAL, CO with annual revenue of approximately $90M",
WAKE FOREST EMERGENCY PROVIDERS,561903275,Health,MEDICAL CENTER BOULEVARD,WINSTONSALEM,NC,27157-0001,,"Health organization in WINSTONSALEM, NC with annual revenue of approximately $90M",
CONSUMER DIRECTED CHOICES,161516618,Human Services,7 WASHINGTON SQUARE,ALBANY,NY,12205-5507,,"Human Services organization in ALBANY, NY with annual revenue of approximately $90M",
CALIFORNIA ACADEMY OF SCIENCES,941156258,Arts & Culture,55 MUSIC CONCOURSE DR,SAN FRANCISCO,CA,94118-4503,,"Arts & Culture organization in SAN FRANCISCO, CA with annual revenue of approximately $90M",
CLAFLIN UNIVERSITY,570314374,Education,400 MAGNOLIA ST,ORANGEBURG,SC,29115-6815,,"Education organization in ORANGEBURG, SC with annual revenue of approximately $90M",
THE CARNEGIE HALL CORPORATION,131923626,Arts & Culture,881 SEVENTH AVENUE,NEW YORK,NY,10019-3210,,"Arts & Culture organization in NEW YORK, NY with annual revenue of approximately $90M",
BROOKLYN LAW SCHOOL,237227990,Education,250 JORALEMON ST,BROOKLYN,NY,11201-3700,,"Education organization in BROOKLYN, NY with annual revenue of approximately $90M",
FEEDING AMERICA EASTERN WISCONSIN INC,391384593,Human Services,1700 W FOND DU LAC AVE,MILWAUKEE,WI,53205-1261,,"Human Services organization in MILWAUKEE, WI with annual revenue of approximately $90M",
ALMA COLLEGE,381359083,Education,614 W SUPERIOR ST,ALMA,MI,48801-1504,,"Education organization in ALMA, MI with annual revenue of approximately $90M",
MERCY LIFE,232840137,Health,1930 SOUTH BROAD STREET,PHILADELPHIA,PA,19145-2328,,"Health organization in PHILADELPHIA, PA with annual revenue of approximately $90M",
FREEDOM HOUSE INC,131656647,International,1850 M STREET NW 11TH FLOOR,WASHINGTON,DC,20036-5803,,"International organization in WASHINGTON, DC with annual revenue of approximately $90M",
UNCOMMON SCHOOLS INC,311488698,Education,100 CHURCH STREET 9TH FLOOR,NEW YORK,NY,10007-2650,,"Education organization in NEW YORK, NY with annual revenue of approximately $90M",
ST LOUIS COMMUNITY FOUNDATION INCORPORATED,431758789,Community,2 OAK KNOLL PARK,SAINT LOUIS,MO,63105-3008,,"Community organization in SAINT LOUIS, MO with annual revenue of approximately $90M",
HOPELINK,910982116,Human Services,PO BOX 3577,REDMOND,WA,98073-3577,,"Human Services organization in REDMOND, WA with annual revenue of approximately $90M",
NEW YORK EHEALTH COLLABORATIVE INC,208022336,Health,99 WASHINGTON AVE,ALBANY,NY,12210-2822,,"Health organization in ALBANY, NY with annual revenue of approximately $90M",
MEMORIAL HOSPITAL INC,610594620,Health,210 MARIE LANGDON DR,MANCHESTER,KY,40962-6388,,"Health organization in MANCHESTER, KY with annual revenue of approximately $90M",
ARKANSAS CHILDRENS FOUNDATION,710568795,Health,1 CHILDRENS WAY,LITTLE ROCK,AR,72202-3500,,"Health organization in LITTLE ROCK, AR with annual revenue of approximately $90M",
BRUNSWICK SCHOOL INC,060646562,Education,100 MAHER AVE,GREENWICH,CT,06830-5618,,"Education organization in GREENWICH, CT with annual revenue of approximately $90M",
THE COMMUNITY FOUNDATION OF LOUISVILLE INC,310997017,Community,325 W MAIN ST STE 1110,LOUISVILLE,KY,40202-4251,,"Community organization in LOUISVILLE, KY with annual revenue of approximately $90M",
NATIONAL CAMPUS AND COMMUNITY DEVELOPMENT CORPORATION INC,204398263,Human Services,2630 EXPOSITION BLVD,AUSTIN,TX,78703-1700,,"Human Services organization in AUSTIN, TX with annual revenue of approximately $90M",
VALLEY CHRISTIAN SCHOOLS,941495182,Education,100 SKYWAY DRIVE,SAN JOSE,CA,95111-3639,,"Education organization in SAN JOSE, CA with annual revenue of approximately $90M",
JEWISH FEDERATION OF GREATER ATLANTA INC,581021791,Community,1440 SPRING ST NW,ATLANTA,GA,30309-2832,,"Community organization in ATLANTA, GA with annual revenue of approximately $90M",
ORTHOPAEDIC HOSPITAL,951644604,Health,403 W ADAMS BLVD,LOS ANGELES,CA,90007-2664,,"Health organization in LOS ANGELES, CA with annual revenue of approximately $90M",
THE U C DAVIS FOUNDATION,946081352,Education,202 COUSTEAU PL STE 185,DAVIS,CA,95618-7761,,"Education organization in DAVIS, CA with annual revenue of approximately $90M",
CROSLAND FOUNDATION,566557259,Community,220 N TRYON ST,CHARLOTTE,NC,28202-2137,,"Community organization in CHARLOTTE, NC with annual revenue of approximately $90M",
SPURWINK SERVICES INCORPORATED,010319802,Other,901 WASHINGTON AVE,PORTLAND,ME,04103-2737,,"Other organization in PORTLAND, ME with annual revenue of approximately $89M",
GOODWILL INDUSTRIES OF NW NORTH CAROLINA INC,560588474,Human Services,2701 UNIVERSITY PKWY,WINSTON SALEM,NC,27105-4223,,"Human Services organization in WINSTON SALEM, NC with annual revenue of approximately $89M",
LUBBOCK HERITAGE HOSPITAL LLC,264021016,Health,2412 50TH ST,LUBBOCK,TX,79412-2504,,"Health organization in LUBBOCK, TX with annual revenue of approximately $89M",
BALTIMORE WASHINGTON HEALTHCARE SERVICES INC,521830243,Other,900 ELKRIDGE LANDING RD 3W,LINTHICUM HEIGHTS,MD,21090-2924,,"Other organization in LINTHICUM HEIGHTS, MD with annual revenue of approximately $89M",
OTTERBEIN HOMES,310549058,Human Services,3855 LOWER MARKET ST STE 300,LEBANON,OH,45036-7654,,"Human Services organization in LEBANON, OH with annual revenue of approximately $89M",
THE PITTSBURGH CULTURAL TRUST,251469002,Arts & Culture,803 LIBERTY AVE,PITTSBURGH,PA,15222-3703,,"Arts & Culture organization in PITTSBURGH, PA with annual revenue of approximately $89M",
SELBY GENERAL HOSPITAL,314413259,Health,1106 COLEGATE DR,MARIETTA,OH,45750-1323,,"Health organization in MARIETTA, OH with annual revenue of approximately $89M",
OLIVE CREST,952877102,Health,2130 E 4TH ST STE 200,SANTA ANA,CA,92705-3818,,"Health organization in SANTA ANA, CA with annual revenue of approximately $89M",
PIONEER HUMAN SERVICES,910791552,Human Services,7440 W MARGINAL WAY S,SEATTLE,WA,98108-4141,,"Human Services organization in SEATTLE, WA with annual revenue of approximately $89M",
