name,ein,category,address,city,state,zip_code,website,description,phone
ELIZABETH GLASER PEDIATRIC AIDS FOUNDATION,954191698,Health,1350 I ST NW STE 400,WASHINGTON,DC,20005-7201,,"Health organization in WASHINGTON, DC with annual revenue of approximately $162M",
VALLEY CHILDRENS MEDICAL GROUP,464150987,Health,9300 VALLEY CHILDRENS PL,MADERA,CA,93636-8762,,"Health organization in MADERA, CA with annual revenue of approximately $162M",
THE MOORINGS INCORPORATED,591834357,Human Services,120 MOORINGS PARK DR,NAPLES,FL,34105-2122,,"Human Services organization in NAPLES, FL with annual revenue of approximately $162M",
PRAIRIE LAKES HEALTH CARE SYSTEM INC,460391067,Health,401 9TH AVE NW,WATERTOWN,SD,57201-1548,,"Health organization in WATERTOWN, SD with annual revenue of approximately $161M",
TRUSTED FRATERNAL LIFE,390201015,Other,1100 W WELLS ST,MILWAUKEE,WI,53233-2332,,"Other organization in MILWAUKEE, WI with annual revenue of approximately $161M",
BRISTOL HOSPITAL INCORPORATED,060646559,Health,PO BOX 977,BRISTOL,CT,06011-0977,,"Health organization in BRISTOL, CT with annual revenue of approximately $161M",
OPTIONS FOR LEARNING,953602641,Other,2934 E GARVEY AVE S STE 301,WEST COVINA,CA,91791-2192,,"Other organization in WEST COVINA, CA with annual revenue of approximately $161M",
NORTH CENTRAL COLLEGE,362169157,Education,451 S BRAINARD ST,NAPERVILLE,IL,60540-5461,,"Education organization in NAPERVILLE, IL with annual revenue of approximately $161M",
NIAGARA UNIVERSITY,160755807,Education,LEWISTON RD,NIAGARA UNIVERSITY,NY,14109-0000,,"Education organization in NIAGARA UNIVERSITY, NY with annual revenue of approximately $161M",
UNIONTOWN HOSPITAL,250965588,Health,500 W BERKELEY ST,UNIONTOWN,PA,15401-5514,,"Health organization in UNIONTOWN, PA with annual revenue of approximately $161M",
WILLIAM & MARY FOUNDATION,540734117,Education,5300 DISCOVERY PARK BLVD 3RD FLOOR,WILLIAMSBURG,VA,23188-2695,,"Education organization in WILLIAMSBURG, VA with annual revenue of approximately $161M",
JACK JOSEPH AND MORTON MANDEL SUPPORTING FOUNDATION,341350566,Community,25701 SCIENCE PARK DR,CLEVELAND,OH,44122-7302,,"Community organization in CLEVELAND, OH with annual revenue of approximately $161M",
IVINSON MEMORIAL HOSPITAL,300975387,Health,255 N 30TH ST,LARAMIE,WY,82072-5140,,"Health organization in LARAMIE, WY with annual revenue of approximately $161M",
QUEENS BOROUGH PUBLIC LIBRARY,111904262,Education,8911 MERRICK BLVD,JAMAICA,NY,11432-5242,,"Education organization in JAMAICA, NY with annual revenue of approximately $161M",
ST FRANCIS HOSPITAL INC,510064326,Health,701 N CLAYTON ST,WILMINGTON,DE,19805-3165,,"Health organization in WILMINGTON, DE with annual revenue of approximately $161M",
COLUMBUS REGIONAL HEALTHCARE SYSTEM,560538020,Health,500 JEFFERSON ST,WHITEVILLE,NC,28472-3634,,"Health organization in WHITEVILLE, NC with annual revenue of approximately $161M",
LOUISIANA STATE UNIVERSITY OF MEDICINE IN NEW ORLEANS,721304948,Health,2025 GRAVIER ST 6TH FL,NEW ORLEANS,LA,70112-2269,,"Health organization in NEW ORLEANS, LA with annual revenue of approximately $161M",
BETH ISRAEL DEACONESS HOSPITAL - NEEDHAM INC,043229679,Health,CO BILH TAX 529 MAIN ST 4TH FL,CHARLESTOWN,MA,02129-0000,,"Health organization in CHARLESTOWN, MA with annual revenue of approximately $161M",
NAZARETH HOSPITAL,232794121,Health,3805 WEST CHESTER PIKE STE 100,NEWTOWN SQ,PA,19073-2329,,"Health organization in NEWTOWN SQ, PA with annual revenue of approximately $161M",
SALK INSTITUTE FOR BIOLOGICAL STUDIES,952160097,Research,10010 N TORREY PINES RD,LA JOLLA,CA,92037-1002,,"Research organization in LA JOLLA, CA with annual revenue of approximately $161M",
CHILDNET INC,651149351,Human Services,1100 W MCNAB RD,FT LAUDERDALE,FL,33309-1116,,"Human Services organization in FT LAUDERDALE, FL with annual revenue of approximately $161M",
THE GUTHRIE CLINIC,233055017,Health,1 GUTHRIE SQUARE,SYRE,PA,18840-1625,,"Health organization in SYRE, PA with annual revenue of approximately $161M",
LEHIGH VALLEY HOSPITAL - SCHUYKILL,231352202,Health,PO BOX 4000,ALLENTOWN,PA,18105-4000,,"Health organization in ALLENTOWN, PA with annual revenue of approximately $160M",
FORT HEALTHCARE INC,390286215,Health,611 SHERMAN AVE E,FORT ATKINSON,WI,53538-1960,,"Health organization in FORT ATKINSON, WI with annual revenue of approximately $160M",
GENESIS HEALTH SYSTEM,363616314,Health,801 ILLINI DR,SILVIS,IL,61282-1804,,"Health organization in SILVIS, IL with annual revenue of approximately $160M",
MISSOURI DELTA MEDICAL CENTER,430633449,Health,1008 N MAIN ST,SIKESTON,MO,63801-5044,,"Health organization in SIKESTON, MO with annual revenue of approximately $160M",
ADVOCATES INC,237451423,Health,1881 WORCESTER ROAD,FRAMINGHAM,MA,01701-5410,,"Health organization in FRAMINGHAM, MA with annual revenue of approximately $160M",
INTERNATIONAL GENEROSITY FOUNDATION TRUST,843754469,Religion,1901 ULMERTON RD STE 400,CLEARWATER,FL,33762-2311,,"Religion organization in CLEARWATER, FL with annual revenue of approximately $160M",
PENN STATE HEALTH HAMPDEN MEDICAL CENTER,851608328,Health,PO BOX 804,HERSHEY,PA,17033-0804,,"Health organization in HERSHEY, PA with annual revenue of approximately $160M",
ST JOHN FISHER UNIVERSITY,160746864,Education,3690 EAST AVE,ROCHESTER,NY,14618-3537,,"Education organization in ROCHESTER, NY with annual revenue of approximately $160M",
FRIENDSHIP PUBLIC CHARTER SCHOOL,582398964,Education,111 O ST NW,WASHINGTON,DC,20001-1144,,"Education organization in WASHINGTON, DC with annual revenue of approximately $160M",
PIEDMONT WALTON HOSPITAL INC,824194264,Health,1800 HOWELL MILL RD,ATLANTA,GA,30318-2538,,"Health organization in ATLANTA, GA with annual revenue of approximately $160M",
BELLEVUE UNIVERSITY,470491571,Education,1000 GALVIN RD S,BELLEVUE,NE,68005-3058,,"Education organization in BELLEVUE, NE with annual revenue of approximately $160M",
GREATER WASHINGTON URBAN LEAGUE INC,530208981,Human Services,2901 14TH ST NW,WASHINGTON,DC,20009-6839,,"Human Services organization in WASHINGTON, DC with annual revenue of approximately $159M",
BLOODWORKS,911019655,Health,921 TERRY AVE,SEATTLE,WA,98104-1239,,"Health organization in SEATTLE, WA with annual revenue of approximately $159M",
C H M C ANESTHESIA FOUNDATION INC,042702169,Health,300 LONGWOOD AVENUE BADER3,BOSTON,MA,02115-5724,,"Health organization in BOSTON, MA with annual revenue of approximately $159M",
CHASE BREXTON HEALTH SERVICES INC,521638592,Health,1111 N CHARLES ST,BALTIMORE,MD,21201-5505,,"Health organization in BALTIMORE, MD with annual revenue of approximately $159M",
ENTERPRISE COMMUNITY PARTNERS INC,521231931,Community,11000 BROKEN LAND PKWY,COLUMBIA,MD,21044-3541,,"Community organization in COLUMBIA, MD with annual revenue of approximately $159M",
BAYLOR SCOTT & WHITE MEDICAL CENTER - CENTENNIAL,824052186,Health,301 N WASHINGTON AVE,DALLAS,TX,75246-1754,,"Health organization in DALLAS, TX with annual revenue of approximately $159M",
GRANDE RONDE HOSPITAL INC,930505325,Health,900 SUNSET DR,LA GRANDE,OR,97850-1362,,"Health organization in LA GRANDE, OR with annual revenue of approximately $159M",
WESTERN REGIONAL MEDICAL CENTER LLC,320197974,Health,1500 DUARTE RD,DUARTE,CA,91010-3012,,"Health organization in DUARTE, CA with annual revenue of approximately $159M",
MONTAGE HEALTH,942789696,Health,PO BOX HH,MONTEREY,CA,93942-6032,,"Health organization in MONTEREY, CA with annual revenue of approximately $159M",
MANA NUTRITIVE AID PRODUCTS INC,270165743,International,130 LIBRARY LANE,MATTHEWS,NC,28105-5413,,"International organization in MATTHEWS, NC with annual revenue of approximately $159M",
SERVICESOURCE INC,540901256,Human Services,10467 WHITE GRANITE DR,OAKTON,VA,22124-2763,,"Human Services organization in OAKTON, VA with annual revenue of approximately $159M",
FAYETTE PHYSICIAN NETWORK INC,455440305,Health,1 MEDICAL CENTER DR BOX 8034,MORGANTOWN,WV,26506-1200,,"Health organization in MORGANTOWN, WV with annual revenue of approximately $158M",
REDINGTON-FAIRVIEW GENERAL HOSPITAL,010284446,Health,PO BOX 468,SKOWHEGAN,ME,04976-0468,,"Health organization in SKOWHEGAN, ME with annual revenue of approximately $158M",
ECKERD COLLEGE,590859121,Education,4200 54TH AVE S,ST PETERSBURG,FL,33711-4744,,"Education organization in ST PETERSBURG, FL with annual revenue of approximately $158M",
SAMARITAN PACIFIC HEALTH SERVICES INC,931329784,Health,PO BOX 3000,CORVALLIS,OR,97339-3000,,"Health organization in CORVALLIS, OR with annual revenue of approximately $158M",
XAVIER UNIVERSITY OF LOUISIANA,720635884,Education,1 DREXEL DR,NEW ORLEANS,LA,70125-1056,,"Education organization in NEW ORLEANS, LA with annual revenue of approximately $158M",
UTAH FOOD BANK,870212453,Other,3150 S 900 W,S SALT LAKE,UT,84119-2471,,"Other organization in S SALT LAKE, UT with annual revenue of approximately $158M",
HEALTHEAST MEDICAL RESEARCH INSTITUTE,411765832,Health,2450 RIVERSIDE AVE,MINNEAPOLIS,MN,55454-1450,,"Health organization in MINNEAPOLIS, MN with annual revenue of approximately $158M",
SOLUTIONHEALTH,830741190,Health,360 ROUTE 101 STE 8,BEDFORD,NH,03110-5045,,"Health organization in BEDFORD, NH with annual revenue of approximately $158M",
DONORS TRUST INC,522166327,Community,1800 DIAGONAL RD STE 280,ALEXANDRIA,VA,22314-2840,,"Community organization in ALEXANDRIA, VA with annual revenue of approximately $158M",
URBAN HEALTH PLAN INC,237360305,Health,1065 SOUTHERN BLVD,BRONX,NY,10459-2417,,"Health organization in BRONX, NY with annual revenue of approximately $158M",
MOUNT SAINT MARYS UNIVERSITY,951641455,Education,12001 CHALON RD,LOS ANGELES,CA,90049-1526,,"Education organization in LOS ANGELES, CA with annual revenue of approximately $158M",
SPRINGFIELD COLLEGE,042104329,Education,263 ALDEN ST,SPRINGFIELD,MA,01109-3707,,"Education organization in SPRINGFIELD, MA with annual revenue of approximately $158M",
HOUSTON CHRISTIAN UNIVERSITY,741400699,Other,7502 FONDREN RD,HOUSTON,TX,77074-3204,,"Other organization in HOUSTON, TX with annual revenue of approximately $158M",
WOODS SERVICES INC,231322002,Human Services,PO BOX 36,LANGHORNE,PA,19047-0036,,"Human Services organization in LANGHORNE, PA with annual revenue of approximately $158M",
MIGRANT HEALTH CENTER,660427801,Other,PO BOX 190,MAYAGUEZ,PR,00681-0190,,"Other organization in MAYAGUEZ, PR with annual revenue of approximately $158M",
AMERICAN LEADERSHIP ACADEMY INC,270333296,Education,6913 E REMBRANDT AVE STE 2,MESA,AZ,85212-3641,,"Education organization in MESA, AZ with annual revenue of approximately $157M",
ALEXIAN BROTHERS HEALTH SYSTEM,363260495,Health,PO BOX 45998,SAINT LOUIS,MO,63145-5998,,"Health organization in SAINT LOUIS, MO with annual revenue of approximately $157M",
HOPEWELL FUND,473681860,Community,1828 L STREET NW SUITE 300-D,WASHINGTON,DC,20036-5109,,"Community organization in WASHINGTON, DC with annual revenue of approximately $157M",
MISSION HOSPITAL INC,742206635,Health,900 S BRYAN RD,MISSION,TX,78572-6613,,"Health organization in MISSION, TX with annual revenue of approximately $157M",
MUSEUM OF FINE ARTS,042103607,Arts & Culture,465 HUNTINGTON AVE,BOSTON,MA,02115-5523,,"Arts & Culture organization in BOSTON, MA with annual revenue of approximately $157M",
GEORGE FOX UNIVERSITY,930386839,Education,414 N MERIDIAN ST,NEWBERG,OR,97132-2697,,"Education organization in NEWBERG, OR with annual revenue of approximately $157M",
PUNAHOU SCHOOL,990073523,Education,1601 PUNAHOU ST,HONOLULU,HI,96822-3336,,"Education organization in HONOLULU, HI with annual revenue of approximately $157M",
KATHERINE SHAW BETHEA HOSPITAL,361000540,Health,403 E 1ST ST,DIXON,IL,61021-3116,,"Health organization in DIXON, IL with annual revenue of approximately $157M",
STOWERS RESOURCE MANAGEMENT INC,412186719,Health,1000 E 50TH ST,KANSAS CITY,MO,64110-2262,,"Health organization in KANSAS CITY, MO with annual revenue of approximately $157M",
FAMILY RESIDENCES AND ESSENTIAL ENTERPRISES INC,112420547,Health,191 BETHPAGE SWEET HOLLOW RD,OLD BETHPAGE,NY,11804-1342,,"Health organization in OLD BETHPAGE, NY with annual revenue of approximately $157M",
CITY YEAR INC,222882549,Other,287 COLUMBUS AVE,BOSTON,MA,02116-5334,,"Other organization in BOSTON, MA with annual revenue of approximately $157M",
HUGHSTON HOSPITAL INC,331216751,Health,100 FRIST CT,COLUMBUS,GA,31909-3578,,"Health organization in COLUMBUS, GA with annual revenue of approximately $156M",
FOOD BANK CONTRA COSTA AND SOLANO,942418054,Human Services,4010 NELSON AVE,CONCORD,CA,94520-1200,,"Human Services organization in CONCORD, CA with annual revenue of approximately $156M",
KIPP BAY AREA SCHOOLS,205010766,Education,1000 BROADWAY STE 460,OAKLAND,CA,94607-4033,,"Education organization in OAKLAND, CA with annual revenue of approximately $156M",
SACRED HEART HEALTH SERVICES,460225483,Health,501 SUMMIT ST,YANKTON,SD,57078-3855,,"Health organization in YANKTON, SD with annual revenue of approximately $156M",
MELMARK INC,236399542,Human Services,2600 WAYLAND RD,BERWYN,PA,19312-2307,,"Human Services organization in BERWYN, PA with annual revenue of approximately $156M",
COLORADO CHRISTIAN UNIVERSITY,840442429,Education,8787 W ALAMEDA AVE,LAKEWOOD,CO,80226-2824,,"Education organization in LAKEWOOD, CO with annual revenue of approximately $156M",
WILMINGTON UNIVERSITY INC,510107088,Education,320 N DUPONT HWY,NEW CASTLE,DE,19720-6434,,"Education organization in NEW CASTLE, DE with annual revenue of approximately $156M",
RFE-RL INC,521068522,Arts & Culture,1250 CONNECTICUT AVE NW STE 450,WASHINGTON,DC,20036-2666,,"Arts & Culture organization in WASHINGTON, DC with annual revenue of approximately $156M",
WINSLOW INDIAN HEALTH CARE CENTER INC,810549382,Health,500 INDIANA AVE,WINSLOW,AZ,86047-2169,,"Health organization in WINSLOW, AZ with annual revenue of approximately $156M",
METHODIST FREMONT HEALTH,831362276,Health,825 S 169TH ST,OMAHA,NE,68118-9300,,"Health organization in OMAHA, NE with annual revenue of approximately $156M",
NATIONAL WILDLIFE FEDERATION,530204616,Health,11100 WILDLIFE CENTER DR,RESTON,VA,20190-5361,,"Health organization in RESTON, VA with annual revenue of approximately $156M",
ST VINCENT MEDICAL GROUP,710830696,Health,2ST VINCENT CIRCLE,LITTLE ROCK,AR,72205-0000,,"Health organization in LITTLE ROCK, AR with annual revenue of approximately $156M",
MUSEUM ASSOCIATES,952264067,Arts & Culture,5905 WILSHIRE BLVD,LOS ANGELES,CA,90036-4504,,"Arts & Culture organization in LOS ANGELES, CA with annual revenue of approximately $156M",
SPARROW HEALTH SYSTEM,382542859,Health,1215 E MICHIGAN AVE,LANSING,MI,48912-1811,,"Health organization in LANSING, MI with annual revenue of approximately $156M",
MONTEREY BAY AQUARIUM FOUNDATION,942487469,Health,886 CANNERY ROW,MONTEREY,CA,93940-1023,,"Health organization in MONTEREY, CA with annual revenue of approximately $155M",
AMERICAN GIFT FUND,516506426,Community,PO BOX 15627,WILMINGTON,DE,19850-5627,,"Community organization in WILMINGTON, DE with annual revenue of approximately $155M",
NORTHWELL HEALTH FOUNDATION,112965575,Health,972 BRUSH HOLLOW RD 5TH FL,WESTBURY,NY,11590-1740,,"Health organization in WESTBURY, NY with annual revenue of approximately $155M",
CHILDRENS VILLAGE INC,131739945,Human Services,1 ECHO HL,DOBBS FERRY,NY,10522-3600,,"Human Services organization in DOBBS FERRY, NY with annual revenue of approximately $155M",
FRESNO COUNTY ECONOMIC OPPORTUNITIES COMMISSION,941606519,Human Services,1920 MARIPOSA MALL,FRESNO,CA,93721-2504,,"Human Services organization in FRESNO, CA with annual revenue of approximately $155M",
EDUCATION LOAN FINANCE INC,621586836,Education,12700 KINGSTON PIKE,KNOXVILLE,TN,37934-0917,,"Education organization in KNOXVILLE, TN with annual revenue of approximately $155M",
FRANCISCAN UNIVERSITY OF STEUBENVILLE,340714818,Education,1235 UNIVERSITY BLVD,STEUBENVILLE,OH,43952-1792,,"Education organization in STEUBENVILLE, OH with annual revenue of approximately $155M",
GEORGIA TECH ATHLETIC ASSOCIATION,580622514,Education,177 NORTH AVENUE NW,ATLANTA,GA,30332-0103,,"Education organization in ATLANTA, GA with annual revenue of approximately $155M",
UNIVERSITY PHYSICIAN GROUP,383474766,Health,400 MACK AVE,DETROIT,MI,48201-2136,,"Health organization in DETROIT, MI with annual revenue of approximately $155M",
DONOR NETWORK WEST,943062436,Other,12667 ALCOSTA BLVD STE 500,SAN RAMON,CA,94583-4427,,"Other organization in SAN RAMON, CA with annual revenue of approximately $155M",
ACENSION ST VINCENT SOUTH SIDE,461523194,Other,PO BOX 45998,SAINT LOUIS,MO,63145-5998,,"Other organization in SAINT LOUIS, MO with annual revenue of approximately $154M",
HARVARD-WESTLAKE SCHOOL,951644019,Education,3700 COLDWATER CANYON AVE,STUDIO CITY,CA,91604-2301,,"Education organization in STUDIO CITY, CA with annual revenue of approximately $154M",
LA CLINICA DE LA RAZA INC,941744108,Health,PO BOX 22210,OAKLAND,CA,94623-2210,,"Health organization in OAKLAND, CA with annual revenue of approximately $154M",
LAWRENCE UNIVERSITY OF WISCONSIN,390806297,Education,711 E BOLDT WAY,APPLETON,WI,54911-5690,,"Education organization in APPLETON, WI with annual revenue of approximately $154M",
WASHINGTON COLLEGE,520591691,Education,300 WASHINGTON AVE,CHESTERTOWN,MD,21620-1438,,"Education organization in CHESTERTOWN, MD with annual revenue of approximately $154M",
OHIO NORTHERN UNIVERSITY,344429091,Education,525 SOUTH MAIN STREET,ADA,OH,45810-6000,,"Education organization in ADA, OH with annual revenue of approximately $154M",
GEORGIA AQUARIUM INC,582574918,Health,225 BAKER ST NW,ATLANTA,GA,30313-1809,,"Health organization in ATLANTA, GA with annual revenue of approximately $154M",
ST VINCENTS HEALTH SYSTEM INC,593650609,Health,PO BOX 45998,SAINT LOUIS,MO,63145-5998,,"Health organization in SAINT LOUIS, MO with annual revenue of approximately $153M",
MEDHEALTH,752896138,Health,1441 N BECKLEY AVE,DALLAS,TX,75203-1201,,"Health organization in DALLAS, TX with annual revenue of approximately $153M",
DAMERON HOSPITAL ASSOCIATION,941201197,Health,525 W ACACIA ST,STOCKTON,CA,95203-2405,,"Health organization in STOCKTON, CA with annual revenue of approximately $153M",
HILLSBOROUGH COUNTY SCHOOL READINESS COALITION INC,593626765,Education,6302 E DR MARTIN LUTHER KING J STE,TAMPA,FL,33619-0000,,"Education organization in TAMPA, FL with annual revenue of approximately $153M",
MYMICHIGAN MEDICAL CENTER ALMA,381437919,Health,300 E WARWICK DR,ALMA,MI,48801-1096,,"Health organization in ALMA, MI with annual revenue of approximately $153M",
ICIRCLE SERVICES OF THE FINGER LAKES INC,462602391,Human Services,860 HARD RD,WEBSTER,NY,14580-8825,,"Human Services organization in WEBSTER, NY with annual revenue of approximately $153M",
INTERNATIONAL RESEARCH AND EXCHANGES BOARD INC,223087809,International,1275 K ST NW STE 600,WASHINGTON,DC,20005-4064,,"International organization in WASHINGTON, DC with annual revenue of approximately $153M",
LEXINGTON MEDICAL CENTER,560543238,Health,PO BOX 74277,LOS ANGELES,CA,90004-0277,,"Health organization in LOS ANGELES, CA with annual revenue of approximately $153M",
MERIT NETWORK INC,382210903,Community,880 TECHNOLOGY DR STE B,ANN ARBOR,MI,48108-8963,,"Community organization in ANN ARBOR, MI with annual revenue of approximately $153M",
NATIONAL COUNCIL OF YOUNG MENS CHRISTIAN ASSNS OF THE USA,363258696,Human Services,101 NORTH WACKER DRIVE,CHICAGO,IL,60606-1784,,"Human Services organization in CHICAGO, IL with annual revenue of approximately $152M",
CATHOLIC LIFE INSURANCE,740548665,Other,1635 NE LOOP 410,SAN ANTONIO,TX,78209-1625,,"Other organization in SAN ANTONIO, TX with annual revenue of approximately $152M",
THE FEINSTEIN INSTITUTE FOR MEDICAL RESEARCH,112673595,Health,972 BRUSH HOLLOW RD 5TH FL,WESTBURY,NY,11590-1740,,"Health organization in WESTBURY, NY with annual revenue of approximately $152M",
LAKEVIEW MEDICAL CENTER INC OF RICE LAKE,390837206,Health,1000 N OAK AVE,MARSHFIELD,WI,54449-5703,,"Health organization in MARSHFIELD, WI with annual revenue of approximately $152M",
METROPOLITAN FAMILY SERVICES,362167940,Human Services,11560 S KEDZIE AVE 2ND FLOOR,MERRIONETTE PARK,IL,60803-4517,,"Human Services organization in MERRIONETTE PARK, IL with annual revenue of approximately $152M",
GLOBAL IMPACT,521273585,International,2300 N ST NW SUITE 501A,WASHINGTON,DC,20037-1122,,"International organization in WASHINGTON, DC with annual revenue of approximately $152M",
SPECIAL OLYMPICS INC,520889518,Human Services,2600 VIRGINIA AVE NW 11TH FLOOR,WASHINGTON,DC,20037-1905,,"Human Services organization in WASHINGTON, DC with annual revenue of approximately $152M",
CHILD ACTION INCORPORATED,942364946,Human Services,10540 WHITE ROCK RD STE 180,RNCHO CORDOVA,CA,95670-6012,,"Human Services organization in RNCHO CORDOVA, CA with annual revenue of approximately $152M",
CRYSTAL BRIDGES MUSEUM OF AMERICAN ART INC,201359710,Arts & Culture,600 MUSEUM WAY,BENTONVILLE,AR,72712-4947,,"Arts & Culture organization in BENTONVILLE, AR with annual revenue of approximately $152M",
GEORGIA STATE UNIVERSITY RESEARCH FOUNDATION INC,581845423,Education,58 EDGEWOOD AVE 3RD FLOOR,ATLANTA,GA,30303-2921,,"Education organization in ATLANTA, GA with annual revenue of approximately $152M",
COORDINATED TRANSPORTATION SOLUTIONS INC,061496806,Human Services,35 NUTMEG DR STE 120,TRUMBULL,CT,06611-5448,,"Human Services organization in TRUMBULL, CT with annual revenue of approximately $151M",
YEAR UP INC,043534407,Education,45 MILK STREET 9TH FLOOR,BOSTON,MA,02109-5165,,"Education organization in BOSTON, MA with annual revenue of approximately $151M",
CHH COMMUNITY HEALTH,883577015,Health,3509 N BROAD ST 2 FL PAYROLL,PHILADELPHIA,PA,19140-4105,,"Health organization in PHILADELPHIA, PA with annual revenue of approximately $151M",
WILKES UNIVERSITY,240795506,Education,84 W SOUTH ST,WILKES BARRE,PA,18766-0997,,"Education organization in WILKES BARRE, PA with annual revenue of approximately $151M",
CNA CORPORATION,541558882,Other,3003 WASHINGTON BOULEVARD,ARLINGTON,VA,22201-2194,,"Other organization in ARLINGTON, VA with annual revenue of approximately $151M",
MOUNTAIN PARK HEALTH CENTER,860498020,Health,3003 N CENTRAL AVE STE 1600,PHOENIX,AZ,85012-2908,,"Health organization in PHOENIX, AZ with annual revenue of approximately $151M",
MANKATO REHABILITATION CENTER INC,410736870,Human Services,1750 ENERGY DR,MANKATO,MN,56001-3383,,"Human Services organization in MANKATO, MN with annual revenue of approximately $151M",
HUMBOLDT PARK HEALTH,361564290,Health,1044 N FRANCISCO AVE,CHICAGO,IL,60622-2743,,"Health organization in CHICAGO, IL with annual revenue of approximately $151M",
UNIVERSITY OF PUGET SOUND,910564961,Education,1500 N WARNER ST STOP 1075,TACOMA,WA,98416-1075,,"Education organization in TACOMA, WA with annual revenue of approximately $151M",
SECOND HARVEST INLAND NORTHWEST,237173826,Human Services,1234 E FRONT AVE,SPOKANE,WA,99202-2148,,"Human Services organization in SPOKANE, WA with annual revenue of approximately $151M",
AVERA MARSHALL,410919153,Health,300 S BRUCE ST,MARSHALL,MN,56258-1934,,"Health organization in MARSHALL, MN with annual revenue of approximately $151M",
WESTHAB INC,061064281,Human Services,8 BASHFORD ST,YONKERS,NY,10701-2743,,"Human Services organization in YONKERS, NY with annual revenue of approximately $151M",
ST JOHNS COMMUNITY HEALTH,954067758,Community,808 W 58TH ST,LOS ANGELES,CA,90037-3632,,"Community organization in LOS ANGELES, CA with annual revenue of approximately $151M",
RAYIM OF HUDSON VALLEY INC,562331735,Human Services,2 VAN BUREN DR UNIT 101,MONROE,NY,10950-5839,,"Human Services organization in MONROE, NY with annual revenue of approximately $150M",
THEDACARE REGIONAL MEDICAL CENTER - NEENAH INC,390830664,Health,PO BOX 8025,APPLETON,WI,54912-8025,,"Health organization in APPLETON, WI with annual revenue of approximately $150M",
LUMINIS HEALTH INC,521622253,Health,2000 MEDICAL PKWY STE 606,ANNAPOLIS,MD,21401-3748,,"Health organization in ANNAPOLIS, MD with annual revenue of approximately $150M",
RUTGERS UNIVERSITY FOUNDATION,237318742,Education,335 GEORGE ST STE 4000,NEW BRUNSWICK,NJ,08901-4013,,"Education organization in NEW BRUNSWICK, NJ with annual revenue of approximately $150M",
COMMUNITY PARTNERSHIP FOR THE PREVENTION OF HOMELESSNESS,521681401,Other,14 KENNEDY ST NW,WASHINGTON,DC,20011-5225,,"Other organization in WASHINGTON, DC with annual revenue of approximately $150M",
YOUNG MENS CHRISTIAN ASSOCIATION OF THE NORTH,452563299,Human Services,651 NICOLLET MALL STE 500,MINNEAPOLIS,MN,55402-1609,,"Human Services organization in MINNEAPOLIS, MN with annual revenue of approximately $150M",
LESLEY UNIVERSITY,042103589,Other,29 EVERETT ST,CAMBRIDGE,MA,02138-2702,,"Other organization in CAMBRIDGE, MA with annual revenue of approximately $150M",
FOOD LIFELINE,911090450,Human Services,815 S 96TH ST,SEATTLE,WA,98108-4934,,"Human Services organization in SEATTLE, WA with annual revenue of approximately $150M",
REYNOLDS MEMORIAL HOSPITAL INC,550357045,Health,800 WHEELING AVE,GLEN DALE,WV,26038-1660,,"Health organization in GLEN DALE, WV with annual revenue of approximately $150M",
LYNN UNIVERSITY INC,591023117,Education,3601 N MILITARY TRL,BOCA RATON,FL,33431-5507,,"Education organization in BOCA RATON, FL with annual revenue of approximately $150M",
WHEATON COLLEGE,042103638,Education,26 E MAIN ST,NORTON,MA,02766-2311,,"Education organization in NORTON, MA with annual revenue of approximately $150M",
JENNIE EDMUNDSON MEMORIAL HOSPITAL,420680355,Health,933 E PIERCE ST,COUNCIL BLFS,IA,51503-4626,,"Health organization in COUNCIL BLFS, IA with annual revenue of approximately $150M",
NAVICENT HEALTH INC,582149127,Health,777 HEMLOCK ST,MACON,GA,31201-2102,,"Health organization in MACON, GA with annual revenue of approximately $150M",
ART CENTER COLLEGE OF DESIGN,951921340,Education,1700 LIDA ST,PASADENA,CA,91103-1924,,"Education organization in PASADENA, CA with annual revenue of approximately $150M",
SECOND HARVEST FOOD BANK OF MIDDLE TENNESSEE INC,621049447,Human Services,331 GREAT CIRCLE ROAD,NASHVILLE,TN,37228-0000,,"Human Services organization in NASHVILLE, TN with annual revenue of approximately $150M",
PLANNED PARENTHOOD MAR MONTE INC,941583439,Health,1691 THE ALAMEDA,SAN JOSE,CA,95126-2203,,"Health organization in SAN JOSE, CA with annual revenue of approximately $150M",
DALLAS BAPTIST UNIVERSITY,756001300,Education,3000 MOUNTAIN CREEK PKWY,DALLAS,TX,75211-6700,,"Education organization in DALLAS, TX with annual revenue of approximately $149M",
DELIVERING GOOD INC,133300271,Human Services,266 W 37TH STREET 22ND FLOOR,NEW YORK,NY,10018-6638,,"Human Services organization in NEW YORK, NY with annual revenue of approximately $149M",
UNITED MISSION FOR RELIEF AND DEVELOPMENT UMR,273175543,Human Services,1990 K STREET NW,WASHINGTON,DC,20006-1103,,"Human Services organization in WASHINGTON, DC with annual revenue of approximately $149M",
NATIONAL AUDUBON SOCIETY INC,131624102,Environment,225 VARICK STREET 7TH FLOOR,NEW YORK,NY,10014-4396,,"Environment organization in NEW YORK, NY with annual revenue of approximately $149M",
LECONTE MEDICAL CENTER,621114867,Health,1420 CENTERPOINT BLVD BLDG C,KNOXVILLE,TN,37932-1960,,"Health organization in KNOXVILLE, TN with annual revenue of approximately $149M",
JEWISH COMMUNITY FDN OF THE JEWISH FEDERATION COUNCIL OF GREATER LA,956111928,Community,6505 WILSHIRE BLVD STE 1200,LOS ANGELES,CA,90048-4960,,"Community organization in LOS ANGELES, CA with annual revenue of approximately $149M",
EVERGREEN GOODWILL OF NORTHWEST WASHINGTON,910568708,Other,700 DEARBORN PL S,SEATTLE,WA,98144-2736,,"Other organization in SEATTLE, WA with annual revenue of approximately $149M",
CENTERSTONE OF TENNESSEE INC,621674308,Health,1921 RANSOM PL,NASHVILLE,TN,37217-3841,,"Health organization in NASHVILLE, TN with annual revenue of approximately $149M",
HEIFER PROJECT INTERNATIONAL,351019477,International,1 WORLD AVE,LITTLE ROCK,AR,72202-2863,,"International organization in LITTLE ROCK, AR with annual revenue of approximately $149M",
THE MAY INSTITUTE INC,042197449,Health,41 PACELLA PARK DR,RANDOLPH,MA,02368-1755,,"Health organization in RANDOLPH, MA with annual revenue of approximately $149M",
MESSIAH UNIVERSITY,231352661,Education,1 UNIVERSITY AVE,MECHANICSBURG,PA,17055-6713,,"Education organization in MECHANICSBURG, PA with annual revenue of approximately $149M",
MUHLENBERG COLLEGE,231352664,Education,2400 CHEW ST,ALLENTOWN,PA,18104-5564,,"Education organization in ALLENTOWN, PA with annual revenue of approximately $149M",
MOUNT ST MARYS HOSPITAL OF NIAGARA FALLS,161523353,Health,144 GENESEE ST,BUFFALO,NY,14203-1560,,"Health organization in BUFFALO, NY with annual revenue of approximately $149M",
WESTERN HEALTHCONNECT,454171900,Health,1801 LIND AVE SW ATTN TAX DEPT,RENTON,WA,98057-3368,,"Health organization in RENTON, WA with annual revenue of approximately $149M",
PACKARD CHILDRENS HEALTH ALLIANCE,320359189,Health,700 WELCH ROAD,PALO ALTO,CA,94304-1502,,"Health organization in PALO ALTO, CA with annual revenue of approximately $149M",
NORTHEAST VALLEY HEALTH CORPORATION,237120632,Health,1172 N MACLAY AVE,SAN FERNANDO,CA,91340-1328,,"Health organization in SAN FERNANDO, CA with annual revenue of approximately $149M",
ST JOSEPHS COMMUNITY HOSPITAL OF WEST BEND INC,390806302,Health,3200 PLEASANT VALLEY RD,WEST BEND,WI,53095-9274,,"Health organization in WEST BEND, WI with annual revenue of approximately $149M",
EPIDAURUS,770418201,Health,721 N 4TH AVE,TUCSON,AZ,85705-8446,,"Health organization in TUCSON, AZ with annual revenue of approximately $149M",
WILLOW VALLEY COMMUNITIES,232226098,Human Services,600 WILLOW VALLEY SQ,LANCASTER,PA,17602-4866,,"Human Services organization in LANCASTER, PA with annual revenue of approximately $148M",
COMMUNITY MEMORIAL HOSPITAL,540551711,Health,PO BOX 90,SOUTH HILL,VA,23970-0090,,"Health organization in SOUTH HILL, VA with annual revenue of approximately $148M",
CENTER FOR ELDERS INDEPENDENCE,943123446,Human Services,510 17TH ST STE 300,OAKLAND,CA,94612-1569,,"Human Services organization in OAKLAND, CA with annual revenue of approximately $148M",
PASADENA TOURNAMENT OF ROSES ASSN,951725190,Human Services,391 S ORANGE GROVE BLVD,PASADENA,CA,91105-1762,,"Human Services organization in PASADENA, CA with annual revenue of approximately $148M",
AREA RESOURCE FOR INDIVIDUALIZED SERVICES INC,043342213,Health,PO BOX 4409,WHITE RIV JCT,VT,05001-4409,,"Health organization in WHITE RIV JCT, VT with annual revenue of approximately $148M",
PELLA REGIONAL HEALTH CENTER,420842204,Health,404 JEFFERSON ST,PELLA,IA,50219-1257,,"Health organization in PELLA, IA with annual revenue of approximately $148M",
NOLAND HEALTH SERVICES INC,630308739,Human Services,600 CORPORATE PKWY STE 100,HOOVER,AL,35242-5451,,"Human Services organization in HOOVER, AL with annual revenue of approximately $148M",
ANDERSON UNIVERSITY,570324906,Education,316 BOULEVARD,ANDERSON,SC,29621-4002,,"Education organization in ANDERSON, SC with annual revenue of approximately $148M",
BEST FRIENDS ANIMAL SOCIETY,237147797,Health,5001 ANGEL CANYON RD,KANAB,UT,84741-5000,,"Health organization in KANAB, UT with annual revenue of approximately $148M",
QUEENS UNIVERSITY MEDICAL GROUP,880820406,Health,1301 PUNCHBOWL ST,HONOLULU,HI,96813-2413,,"Health organization in HONOLULU, HI with annual revenue of approximately $148M",
JEWISH COMMUNITY FEDERATION OF S F MARIN PENINSULA & SONOMA COUNTIES,941156533,Community,121 STEUART ST,SAN FRANCISCO,CA,94105-1236,,"Community organization in SAN FRANCISCO, CA with annual revenue of approximately $148M",
FAIRVIEW HEIGHTS MEDICAL GROUP SC,364147189,Health,2 MEMORIAL DR STE 220,ALTON,IL,62002-6723,,"Health organization in ALTON, IL with annual revenue of approximately $148M",
MERCY HEALTH CORPORATION,472158680,Community,8201 E RIVERSIDE BLVD,ROCKFORD,IL,61114-2300,,"Community organization in ROCKFORD, IL with annual revenue of approximately $148M",
BAYLOR SCOTT & WHITE MEDICAL CENTERS-CAPITOL AREA,813040663,Health,301 N WASHINGTON AVE,DALLAS,TX,75246-1754,,"Health organization in DALLAS, TX with annual revenue of approximately $148M",
LAKEWOOD HEALTH SYSTEM,411842965,Health,49725 COUNTY ROAD 83,STAPLES,MN,56479-0000,,"Health organization in STAPLES, MN with annual revenue of approximately $148M",
HERITAGE CHRISTIAN SERVICES INC,222334190,Human Services,275 KENNETH DR SUITE 100,ROCHESTER,NY,14623-4277,,"Human Services organization in ROCHESTER, NY with annual revenue of approximately $147M",
BELLARMINE UNIVERSITY,610482955,Education,2001 NEWBURG RD,LOUISVILLE,KY,40205-1863,,"Education organization in LOUISVILLE, KY with annual revenue of approximately $147M",
NC STATE INVESTMENT FUND INC,311607634,Education,NCSU BOX 7207,RALEIGH,NC,27695-0001,,"Education organization in RALEIGH, NC with annual revenue of approximately $147M",
ORANGE COUNTY SCHOOL READINESS COALITION,311759186,Education,7700 SOUTHLAND BLVD STE 100,ORLANDO,FL,32809-9611,,"Education organization in ORLANDO, FL with annual revenue of approximately $147M",
RIDGECREST REGIONAL HOSPITAL,952082686,Health,1081 N CHINA LAKE BLVD,RIDGECREST,CA,93555-3130,,"Health organization in RIDGECREST, CA with annual revenue of approximately $147M",
AMERICAN ATHLETIC CONFERENCE,510244593,Other,545 E JOHN CARPENTER FWY 3RD FLOOR,IRVING,TX,75062-3931,,"Other organization in IRVING, TX with annual revenue of approximately $147M",
CHILD CARE ASSOCIATES,840587601,Other,3000 E BELKNAP ST,FORT WORTH,TX,76111-4142,,"Other organization in FORT WORTH, TX with annual revenue of approximately $147M",
UNITED STATES ASSOCIATION FOR UNHCR,521662800,International,1310 L ST NW STE 450,WASHINGTON,DC,20005-4862,,"International organization in WASHINGTON, DC with annual revenue of approximately $147M",
COOPER UNIVERSITY HOSPITAL CAPE REGIONAL INC,210662542,Health,2 STONE HARBOR BLVD,CAPE MAY CH,NJ,08210-2138,,"Health organization in CAPE MAY CH, NJ with annual revenue of approximately $147M",
BON SECOURS MEDICAL GROUP GREENVILLE SPECIALTY CARE LLC,850988160,Health,1 ST FRANCIS DRIVE,GREENVILLE,SC,29601-3955,,"Health organization in GREENVILLE, SC with annual revenue of approximately $147M",
CAPE COD HEALTHCARE INC,222600704,Health,297 NORTH ST BLDG 3,HYANNIS,MA,02601-5108,,"Health organization in HYANNIS, MA with annual revenue of approximately $147M",
ST CATHERINE UNIVERSITY,410695509,Education,2004 RANDOLPH AVE,SAINT PAUL,MN,55105-1750,,"Education organization in SAINT PAUL, MN with annual revenue of approximately $147M",
CARE RESOURCE COMMUNITY HEALTH CENTERS INC,592564198,Health,3510 BISCAYNE BLVD,MIAMI,FL,33137-3859,,"Health organization in MIAMI, FL with annual revenue of approximately $147M",
HARTFORD HEALTHCARE AT HOME INC,060646938,Health,1290 SILAS DEANE HWY STE 4B,WETHERSFIELD,CT,06109-4337,,"Health organization in WETHERSFIELD, CT with annual revenue of approximately $147M",
DEVELOPMENTAL DISABILITIES INSTITUTE INC,116077347,Human Services,99 HOLLYWOOD DR,SMITHTOWN,NY,11787-3135,,"Human Services organization in SMITHTOWN, NY with annual revenue of approximately $147M",
YAMPA VALLEY MEDICAL CENTER,840398876,Health,1024 CENTRAL PARK DR,STEAMBOAT SPR,CO,80487-8813,,"Health organization in STEAMBOAT SPR, CO with annual revenue of approximately $147M",
CARTER BLOODCARE,751035606,Health,2205 HIGHWAY 121,BEDFORD,TX,76021-5950,,"Health organization in BEDFORD, TX with annual revenue of approximately $147M",
PRESENCE HEALTHCARE SERVICES,363330928,Health,PO BOX 45998,SAINT LOUIS,MO,63145-5998,,"Health organization in SAINT LOUIS, MO with annual revenue of approximately $147M",
VALLEY PHYSICIAN SERVCIES INC,320041186,Health,15 ESSEX RD STE 506,PARAMUS,NJ,07652-1458,,"Health organization in PARAMUS, NJ with annual revenue of approximately $147M",
ST LOUIS MUNICIPAL FINANCE CORPORATION,431609815,Community,1520 MARKET ST RM 3005,SAINT LOUIS,MO,63103-2630,,"Community organization in SAINT LOUIS, MO with annual revenue of approximately $147M",
MINNEAPOLIS FOUNDATION,416029402,Community,80 SOUTH EIGHT STREET,MINNEAPOLIS,MN,55402-2100,,"Community organization in MINNEAPOLIS, MN with annual revenue of approximately $146M",
MERCYHURST UNIVERSITY,250965430,Education,501 E 38TH ST,ERIE,PA,16546-0002,,"Education organization in ERIE, PA with annual revenue of approximately $146M",
HAWAII PACIFIC UNIVERSITY,990113930,Education,1 ALOHA TOWER DR,HONOLULU,HI,96813-4800,,"Education organization in HONOLULU, HI with annual revenue of approximately $146M",
WHITWORTH UNIVERSITY,910473310,Education,300 W HAWTHORNE RD,SPOKANE,WA,99251-2515,,"Education organization in SPOKANE, WA with annual revenue of approximately $146M",
THE FINLEY HOSPITAL,420680354,Health,350 N GRANDVIEW AVE,DUBUQUE,IA,52001-6388,,"Health organization in DUBUQUE, IA with annual revenue of approximately $146M",
THE OUTER BANK HOSPITAL INC,562112733,Health,2100 STANTONSBURG RD,GREENVILLE,NC,27834-2818,,"Health organization in GREENVILLE, NC with annual revenue of approximately $146M",
CHINESE HOSPITAL ASSOCIATION,940382780,Health,845 JACKSON ST,SAN FRANCISCO,CA,94133-4851,,"Health organization in SAN FRANCISCO, CA with annual revenue of approximately $146M",
NATIONAL-LOUIS UNIVERSITY,362167804,Education,1000 CAPITOL DR,WHEELING,IL,60090-7201,,"Education organization in WHEELING, IL with annual revenue of approximately $146M",
GOTTLIEB MEMORIAL HOSPITAL,362379649,Health,701 W NORTH AVE,MELROSE PARK,IL,60160-1612,,"Health organization in MELROSE PARK, IL with annual revenue of approximately $146M",
JWCH INSTITUTE INC,952289916,Health,5650 JILLSON ST,COMMERCE,CA,90040-1482,,"Health organization in COMMERCE, CA with annual revenue of approximately $146M",
OKLAHOMA BLOOD INSTITUTE,731008735,Health,1001 N LINCOLN BLVD,OKLAHOMA CITY,OK,73104-3251,,"Health organization in OKLAHOMA CITY, OK with annual revenue of approximately $146M",
COMMONWEALTH HEALTH CORPORATION INC,311118087,Health,800 PARK ST,BOWLING GREEN,KY,42101-2347,,"Health organization in BOWLING GREEN, KY with annual revenue of approximately $146M",
WOOD COUNTY HOSPITAL ASSN,344440884,Health,950 W WOOSTER ST,BOWLING GREEN,OH,43402-2603,,"Health organization in BOWLING GREEN, OH with annual revenue of approximately $146M",
GUSTAVUS ADOLPHUS COLLEGE,410695524,Education,800 W COLLEGE AVE,SAINT PETER,MN,56082-1485,,"Education organization in SAINT PETER, MN with annual revenue of approximately $145M",
COMMUNITY FOUNDATION OF NEW JERSEY,222281783,Community,PO BOX 33835 KNOX HILL RD,MORRISTOWN,NJ,07963-0000,,"Community organization in MORRISTOWN, NJ with annual revenue of approximately $145M",
CHRISTUS HOPKINS HEALTH ALLIANCE,811708177,Other,115 AIRPORT RD,SULPHUR SPGS,TX,75482-2105,,"Other organization in SULPHUR SPGS, TX with annual revenue of approximately $145M",
BROWARD REGIONAL HEALTH PLANNING COUNCIL INC,592274772,Health,200 OAKWOOD LN SUITE 100,HOLLYWOOD,FL,33020-1929,,"Health organization in HOLLYWOOD, FL with annual revenue of approximately $145M",
NYSARC INC,111720254,Human Services,189 WHEATLEY RD,BROOKVILLE,NY,11545-2641,,"Human Services organization in BROOKVILLE, NY with annual revenue of approximately $145M",
ANNA JAQUES HOSPITAL,042104338,Health,CO BILH TAX 529 MAIN ST 4TH FL,CHARLESTOWN,MA,02129-0000,,"Health organization in CHARLESTOWN, MA with annual revenue of approximately $145M",
GEORGE MASON UNIVERSITY FOUNDATION INC,541603842,Education,4400 UNIVERSITY DRIVE MSN 1A3,FAIRFAX,VA,22030-4444,,"Education organization in FAIRFAX, VA with annual revenue of approximately $145M",
H LEE MOFFITT CANCER CTR & RES INST LIFE TIME CANCER SCRN CTR INC,593238640,Health,12902 MAGNOLIA DRIVE,TAMPA,FL,33612-9416,,"Health organization in TAMPA, FL with annual revenue of approximately $145M",
CHILDRENS HEALTHCARE OF ATLANTA INC,582367819,Health,1575 NORTHEAST EXPY NE,BROOKHAVEN,GA,30329-2401,,"Health organization in BROOKHAVEN, GA with annual revenue of approximately $145M",
MENTAL HEALTH CENTER OF DENVER,742499946,Health,4141 E DICKENSON PL,DENVER,CO,80222-6012,,"Health organization in DENVER, CO with annual revenue of approximately $145M",
CLINICAS DEL CAMINO REAL INC,952977147,Health,PO BOX 4566,VENTURA,CA,93007-4566,,"Health organization in VENTURA, CA with annual revenue of approximately $145M",
PRESERVATION OF AFFORDABLE HOUSING INC,311616634,Human Services,2 OLIVER ST FL 500,BOSTON,MA,02109-4937,,"Human Services organization in BOSTON, MA with annual revenue of approximately $145M",
SCOTT & WHITE HOSPITAL,464007700,Health,301 N WASHINGTON AVE,DALLAS,TX,75246-1754,,"Health organization in DALLAS, TX with annual revenue of approximately $145M",
SIGNATRY CHARITABLE TRUST,825070897,Community,315 N MAIN AVE STE 305,SIOUX FALLS,SD,57104-6007,,"Community organization in SIOUX FALLS, SD with annual revenue of approximately $145M",
THE BESSEMER GIVING FUND,137111099,Community,100 WOODBRIDGE CENTER DRIVE,WOODBRIDGE,NJ,07095-1162,,"Community organization in WOODBRIDGE, NJ with annual revenue of approximately $145M",
ADIRONDACK MEDICAL CENTER,141731786,Health,2233 STATE ROUTE 86,SARANAC LAKE,NY,12983-5644,,"Health organization in SARANAC LAKE, NY with annual revenue of approximately $144M",
ARCTIC SLOPE NATIVE ASSOCIATION LTD,910873623,Other,PO BOX 1232,BARROW,AK,99723-1232,,"Other organization in BARROW, AK with annual revenue of approximately $144M",
FRIENDS OF UNITED HATZALAH INC,113533002,Arts & Culture,442 FIFTH AVENUE 1866,NEW YORK,NY,10018-2794,,"Arts & Culture organization in NEW YORK, NY with annual revenue of approximately $144M",
HORACE MANN SCHOOL,131740455,Education,231 W 246TH ST,BRONX,NY,10471-3430,,"Education organization in BRONX, NY with annual revenue of approximately $144M",
MASSACHUSETTS SOCIETY FOR THE PREVENTION OF CRUELTY TO ANIMALS,042103597,Health,350 S HUNTINGTON AVE,BOSTON,MA,02130-4803,,"Health organization in BOSTON, MA with annual revenue of approximately $144M",
COOPER UNION FOR THE ADVANCEMENT OF SCIENCE AND ART,135562985,Education,30 COOPER SQUARE 2ND FL,NEW YORK,NY,10003-7120,,"Education organization in NEW YORK, NY with annual revenue of approximately $144M",
ST PAUL PLACE SPECIALISTS INC,521495113,Other,301 ST PAUL PLACE,BALTIMORE,MD,21202-0000,,"Other organization in BALTIMORE, MD with annual revenue of approximately $144M",
CAYUGA HOME FOR CHILDREN,150532087,Human Services,101 HAMILTON AVE,AUBURN,NY,13021-5028,,"Human Services organization in AUBURN, NY with annual revenue of approximately $144M",
THE BLOOD CONNECTION INCORPORATED,570660489,Health,1099 BRACKEN RD,PIEDMONT,SC,29673-9644,,"Health organization in PIEDMONT, SC with annual revenue of approximately $144M",
WELLSPACE HEALTH,941713704,Health,1500 EXPO PKWY,SACRAMENTO,CA,95815-4227,,"Health organization in SACRAMENTO, CA with annual revenue of approximately $144M",
CHILDRENS NATIONAL MEDICAL CENTER,521640403,Health,111 MICHIGAN AVE NW,WASHINGTON,DC,20010-2916,,"Health organization in WASHINGTON, DC with annual revenue of approximately $144M",
CAMPBELLSVILLE UNIVERSITY INC,610469267,Education,1 UNIVERSITY DR,CAMPBELLSVLLE,KY,42718-2190,,"Education organization in CAMPBELLSVLLE, KY with annual revenue of approximately $144M",
WELLMONT MEDICAL ASSOCIATES INC,270898372,Health,311 PRINCETON RD STE 1,JOHNSON CITY,TN,37601-2080,,"Health organization in JOHNSON CITY, TN with annual revenue of approximately $144M",
HOSPITAL MENONITA CAGUAS INC,660776102,Health,PO BOX 6660,CAGUAS,PR,00726-6660,,"Health organization in CAGUAS, PR with annual revenue of approximately $144M",
NORTON - KINGS DAUGHTERS HEALTH INC,350895832,Health,PO BOX 447,MADISON,IN,47250-0447,,"Health organization in MADISON, IN with annual revenue of approximately $144M",
SOCIAL VOCATIONAL SERVICES INC,953284250,Human Services,3555 TORRANCE BLVD,TORRANCE,CA,90503-4802,,"Human Services organization in TORRANCE, CA with annual revenue of approximately $144M",
COMMUNITY ELDERCARE OF SAN DIEGO,330853316,Human Services,328 MAPLE ST,SAN DIEGO,CA,92103-6522,,"Human Services organization in SAN DIEGO, CA with annual revenue of approximately $143M",
RONALD MCDONALD HOUSE CHARITIES INC,362934689,Health,110 N CARPENTER ST,CHICAGO,IL,60607-4106,,"Health organization in CHICAGO, IL with annual revenue of approximately $143M",
UINTAH BASIN MEDICAL CENTER,870276435,Health,250 W 300 N,ROOSEVELT,UT,84066-2336,,"Health organization in ROOSEVELT, UT with annual revenue of approximately $143M",
WRMC HOSPITAL OPERATING CORPORATION,830343789,Health,PO BOX 609,N WILKESBORO,NC,28659-0609,,"Health organization in N WILKESBORO, NC with annual revenue of approximately $143M",
MARSHALL AREA ECONOMIC DEVELOPMENT ALLIANCE,461516144,Environment,323 W MICHIGAN AVE,MARSHALL,MI,49068-1547,,"Environment organization in MARSHALL, MI with annual revenue of approximately $143M",
ADVANTAGE HEALTH-SAINT MARYS MEDICAL GROUP,272491974,Health,200 JEFFERSON AVE SE,GRAND RAPIDS,MI,49503-4502,,"Health organization in GRAND RAPIDS, MI with annual revenue of approximately $143M",
ASSOCIATED UNIVERSITIES INC,111630900,Research,2650 PARK TOWER DR STE 700,VIENNA,VA,22180-7397,,"Research organization in VIENNA, VA with annual revenue of approximately $143M",
BAY COVE HUMAN SERVICES INC,042518575,Other,66 CANAL ST,BOSTON,MA,02114-2002,,"Other organization in BOSTON, MA with annual revenue of approximately $143M",
UNITED MEDICAL ASSOCIATES PC,161395906,Health,4401 VESTAL PARKWAY EAST,VESTAL,NY,13850-3514,,"Health organization in VESTAL, NY with annual revenue of approximately $143M",
GUTHRIE CORTLAND MEDICAL CENTER,150532079,Health,134 HOMER AVENUE,CORTLAND,NY,13045-1206,,"Health organization in CORTLAND, NY with annual revenue of approximately $143M",
ST JOSEPHS MEDICAL PC,273899821,Health,1300 MASSACHUSETTS AVENUE 6TH,TROY,NY,12180-1628,,"Health organization in TROY, NY with annual revenue of approximately $143M",
PEDIATRIC PHYSICIANS SERVICES INC,593425191,Other,3910 KESWICK RD,BALTIMORE,MD,21211-2226,,"Other organization in BALTIMORE, MD with annual revenue of approximately $143M",
IOWA STATE UNIVERSITY FOUNDATION,421143702,Education,2505 UNIVERSITY BLVD,AMES,IA,50010-8622,,"Education organization in AMES, IA with annual revenue of approximately $143M",
CLIFTON SPRINGS SANITARIUM CO,160743966,Health,100 KINGS HIGHWAY S,ROCHESTER,NY,14617-5504,,"Health organization in ROCHESTER, NY with annual revenue of approximately $143M",
KALAMAZOO COLLEGE,381358014,Education,1200 ACADEMY ST,KALAMAZOO,MI,49006-3268,,"Education organization in KALAMAZOO, MI with annual revenue of approximately $143M",
CLAXTON-HEPBURN MEDICAL CENTER,150559686,Health,214 KING ST,OGDENSBURG,NY,13669-1142,,"Health organization in OGDENSBURG, NY with annual revenue of approximately $143M",
THE 85 FUND,202466871,Human Services,201 MAIN STREET,FORT WORTH,TX,76102-3105,,"Human Services organization in FORT WORTH, TX with annual revenue of approximately $143M",
HADASSAH THE WOMENS ZIONIST ORGANIZATION OF AMERICA INC,131656651,Community,40 WALL STREET 8TH FLOOR,NEW YORK,NY,10005-1471,,"Community organization in NEW YORK, NY with annual revenue of approximately $142M",
COMMUNITY HEALTH AIDE SERVICES INC,141694451,Health,49 N AIRMONT RD,MONTEBELLO,NY,10901-3962,,"Health organization in MONTEBELLO, NY with annual revenue of approximately $142M",
ORLANDO PHYSICIANS NETWORK INC,593110868,Other,1414 KUHL AVENUE MP8,ORLANDO,FL,32806-2008,,"Other organization in ORLANDO, FL with annual revenue of approximately $142M",
MCLAREN CENTRAL MICHIGAN,381420304,Health,1221 SOUTH DRIVE,MT PLEASANT,MI,48858-3257,,"Health organization in MT PLEASANT, MI with annual revenue of approximately $142M",
YORK COLLEGE OF PENNSYLVANIA,231352698,Education,441 COUNTRY CLUB RD,YORK,PA,17403-3614,,"Education organization in YORK, PA with annual revenue of approximately $142M",
HILLSIDE CHILDRENS CENTER,160743039,Human Services,1183 MONROE AVE,ROCHESTER,NY,14620-1662,,"Human Services organization in ROCHESTER, NY with annual revenue of approximately $142M",
AVERA QUEEN OF PEACE,460224604,Health,525 N FOSTER ST,MITCHELL,SD,57301-2966,,"Health organization in MITCHELL, SD with annual revenue of approximately $142M",
DESALES UNIVERSITY,231653718,Education,2755 STATION AVE,CENTER VALLEY,PA,18034-9565,,"Education organization in CENTER VALLEY, PA with annual revenue of approximately $142M",
BAPTIST HEALTH SOUTH FLORIDA FOUNDATION INC,591923401,Health,6855 RED ROAD STE 600,CORAL GABLES,FL,33143-3518,,"Health organization in CORAL GABLES, FL with annual revenue of approximately $142M",
FLORIDA CHARTER EDUCATIONAL FOUNDATION INC,311748540,Education,800 CORPORATE DR STE 700,FT LAUDERDALE,FL,33334-3621,,"Education organization in FT LAUDERDALE, FL with annual revenue of approximately $142M",
VERA INSTITUTE OF JUSTICE INC,131941627,Human Services,34 35TH ST UNIT 4 # 2A,BROOKLYN,NY,11232-2212,,"Human Services organization in BROOKLYN, NY with annual revenue of approximately $142M",
SSM REGIONAL HEALTH SERVICES,440579850,Health,12800 CORPORATE HILL DR,SAINT LOUIS,MO,63131-1833,,"Health organization in SAINT LOUIS, MO with annual revenue of approximately $142M",
ST JAMES HEALTHCARE,810231785,Health,36 S STATE ST STE 2200,SALT LAKE CTY,UT,84111-1470,,"Health organization in SALT LAKE CTY, UT with annual revenue of approximately $142M",
KEN-CREST SERVICES,251439925,Human Services,960A HARVEST DRIVE SUITE 200,BLUE BELL,PA,19422-1991,,"Human Services organization in BLUE BELL, PA with annual revenue of approximately $142M",
IMPACT INVESTING CHARITABLE FOUNDATION INC,473574130,Community,8208 MELROSE DR,LENEXA,KS,66214-1626,,"Community organization in LENEXA, KS with annual revenue of approximately $142M",
DICKINSON COUNTY HEALTHCARE SYSTEM,382780429,Health,1721 S STEPHENSON AVE,IRON MOUNTAIN,MI,49801-3637,,"Health organization in IRON MOUNTAIN, MI with annual revenue of approximately $142M",
HARVESTERS-THE COMMUNITY FOOD NETWORK,431208665,Human Services,3801 TOPPING AVE,KANSAS CITY,MO,64129-1744,,"Human Services organization in KANSAS CITY, MO with annual revenue of approximately $142M",
SAINT FRANCIS MEDICAL CENTER,470376601,Health,2620 W FAIDLEY AVE,GRAND ISLAND,NE,68803-4205,,"Health organization in GRAND ISLAND, NE with annual revenue of approximately $141M",
RIVERWALK EDUCATION FOUNDATION INC,010758906,Education,1450 NE LOOP 410,SAN ANTONIO,TX,78209-1513,,"Education organization in SAN ANTONIO, TX with annual revenue of approximately $141M",
R W J BARNABAS HEALTH INC,221487148,Health,150 NEW PROVIDENCE ROAD,MOUNTAINSIDE,NJ,07092-2590,,"Health organization in MOUNTAINSIDE, NJ with annual revenue of approximately $141M",
BETHANY CHRISTIAN SERVICES INC,382822017,Other,PO BOX 294,GRAND RAPIDS,MI,49501-0294,,"Other organization in GRAND RAPIDS, MI with annual revenue of approximately $141M",
THE CENTER FOR DISCOVERY INC,141395426,Health,PO BOX 840,HARRIS,NY,12742-0840,,"Health organization in HARRIS, NY with annual revenue of approximately $141M",
AMERICAN COLLEGE OF SURGEONS,362192800,Education,633 N SAINT CLAIR STREET,CHICAGO,IL,60611-3234,,"Education organization in CHICAGO, IL with annual revenue of approximately $141M",
SAINT LEO UNIVERSITY INC,591237047,Education,PO BOX 6665,SAINT LEO,FL,33574-6665,,"Education organization in SAINT LEO, FL with annual revenue of approximately $141M",
NORTHWEST KIDNEY CENTERS,916057438,Health,12901 20TH AVE S,SEATAC,WA,98168-5159,,"Health organization in SEATAC, WA with annual revenue of approximately $141M",
MARCUS DALY MEMORIAL HOSPITAL CORPORATION,810240726,Health,1200 WESTWOOD DR,HAMILTON,MT,59840-2345,,"Health organization in HAMILTON, MT with annual revenue of approximately $141M",
LAKE FOREST COLLEGE,362167770,Education,555 N SHERIDAN RD,LAKE FOREST,IL,60045-2338,,"Education organization in LAKE FOREST, IL with annual revenue of approximately $141M",
NEBRASKA MEDICINE,813158267,Health,987400 NEBRASKA MEDICAL CTR,OMAHA,NE,68198-7400,,"Health organization in OMAHA, NE with annual revenue of approximately $141M",
MOUNT SAINT MARYS UNIVERSITY,520591672,Education,16300 OLD EMMITSBURG RD,EMMITSBURG,MD,21727-7700,,"Education organization in EMMITSBURG, MD with annual revenue of approximately $141M",
CENTRAL TEXAS FOOD BANK INC,742217350,Human Services,6500 METROPOLIS DR,AUSTIN,TX,78744-3123,,"Human Services organization in AUSTIN, TX with annual revenue of approximately $141M",
ST MARYS HOSPITAL MEDICAL CENTER OF GREEN BAY INC,390818682,Health,4936 LAVERNA RD,SPRINGFIELD,IL,62707-9797,,"Health organization in SPRINGFIELD, IL with annual revenue of approximately $141M",
EDUCATIONAL CORPORATION MUKOGAWA GAKUIN,943120807,Education,601 W RIVERSIDE AVE STE 1800,SPOKANE,WA,99201-0629,,"Education organization in SPOKANE, WA with annual revenue of approximately $141M",
VNA HEALTH GROUP OF NEW JERSEY LLC,474841103,Health,3600 STATE ROUTE 66,NEPTUNE,NJ,07753-2645,,"Health organization in NEPTUNE, NJ with annual revenue of approximately $141M",
AUSTIN-TRAVIS COUNTY MENTAL HEALTH AND MENTAL RETARDATION CENTER,741547909,Health,PO BOX 3548,AUSTIN,TX,78764-3548,,"Health organization in AUSTIN, TX with annual revenue of approximately $141M",
DAVIE MEDICAL CENTER,562276994,Health,329 NC HIGHWAY 801 N,BERMUDA RUN,NC,27006-7905,,"Health organization in BERMUDA RUN, NC with annual revenue of approximately $141M",
ALLEGHENY COLLEGE,250965212,Education,520 N MAIN ST,MEADVILLE,PA,16335-3903,,"Education organization in MEADVILLE, PA with annual revenue of approximately $141M",
BAYSTATE FRANKLIN MEDICAL CENTER,042103575,Health,164 HIGH ST,GREENFIELD,MA,01301-2613,,"Health organization in GREENFIELD, MA with annual revenue of approximately $141M",
USTA NATIONAL TENNIS CENTER INC,132946690,Human Services,2500 WESTCHESTER AVE STE 411,PURCHASE,NY,10577-2587,,"Human Services organization in PURCHASE, NY with annual revenue of approximately $140M",
WISCONSIN ALUMNI RESEARCH FOUNDATION,390833612,Education,614 WALNUT STREET 13TH FLOOR,MADISON,WI,53726-2336,,"Education organization in MADISON, WI with annual revenue of approximately $140M",
UNIVERSITY OF LOUISVILLE ATHLETIC,311106941,Human Services,2215 S BROOK ST,LOUISVILLE,KY,40208-1874,,"Human Services organization in LOUISVILLE, KY with annual revenue of approximately $140M",
MUNSON HEALTHCARE CADILLAC,471156297,Health,1105 SIXTH ST,TRAVERSE CITY,MI,49684-2345,,"Health organization in TRAVERSE CITY, MI with annual revenue of approximately $140M",
MORAVIAN UNIVERSITY,240795460,Other,1200 MAIN ST,BETHLEHEM,PA,18018-6614,,"Other organization in BETHLEHEM, PA with annual revenue of approximately $140M",
OREGON HEALTH AND SCIENCE UNIVERSITY FOUNDATION,237083114,Education,2020 SW 4TH AVE STE 900,PORTLAND,OR,97201-4978,,"Education organization in PORTLAND, OR with annual revenue of approximately $140M",
THE BARACK OBAMA FOUNDATION,464950751,Arts & Culture,5235 S HARPER CT STE 1140,CHICAGO,IL,60615-4281,,"Arts & Culture organization in CHICAGO, IL with annual revenue of approximately $140M",
GREATER WASHINGTON EDUCATIONAL TELECOMMUNICATIONS ASSOCIATION INC,530242992,Arts & Culture,3939 CAMPBELL AVE,ARLINGTON,VA,22206-3440,,"Arts & Culture organization in ARLINGTON, VA with annual revenue of approximately $140M",
HIAS INC,135633307,International,1300 SPRING ST STE 500,SILVER SPRING,MD,20910-3634,,"International organization in SILVER SPRING, MD with annual revenue of approximately $140M",
NEIGHBORHOOD ASSOCIATION FOR INTER CULTURAL AFFAIRS INC,132995128,Other,3339 PARK AVE,BRONX,NY,10456-6129,,"Other organization in BRONX, NY with annual revenue of approximately $140M",
AMERICAN ACADEMY OF PEDIATRICS INC,362275597,Health,345 PARK BLVD,ITASCA,IL,60143-2644,,"Health organization in ITASCA, IL with annual revenue of approximately $140M",
CONCORD HOSPITAL - LACONIA,851443782,Health,250 PLEASANT ST,CONCORD,NH,03301-7559,,"Health organization in CONCORD, NH with annual revenue of approximately $140M",
MY CHOICE WISCONSIN HEALTH PLAN INC,270093404,Health,PO BOX 131,GREENDALE,WI,53129-0131,,"Health organization in GREENDALE, WI with annual revenue of approximately $140M",
GIVEDIRECTLY INC,271661997,Human Services,PO BOX 3221,NEW YORK,NY,10008-3221,,"Human Services organization in NEW YORK, NY with annual revenue of approximately $140M",
ROCKFORD HEALTH PHYSICIANS,363907436,Health,2400 N ROCKTON AVE,ROCKFORD,IL,61103-3655,,"Health organization in ROCKFORD, IL with annual revenue of approximately $140M",
LEGACY HEALTHCARE SERVICES INC,311679605,Health,110 HORIZON DRIVE SUITE 310,RALEIGH,NC,27615-4926,,"Health organization in RALEIGH, NC with annual revenue of approximately $140M",
HSHS MEDICAL GROUP INC,263956318,Other,4936 LAVERNA RD,SPRINGFIELD,IL,62707-9797,,"Other organization in SPRINGFIELD, IL with annual revenue of approximately $140M",
OHBA OHIO VIRTUAL ACADEMY,270010544,Education,1690 WOODLANDS DR STE 100,MAUMEE,OH,43537-4045,,"Education organization in MAUMEE, OH with annual revenue of approximately $140M",
MORRISTOWN HAMBLEN HOSP,620545814,Health,1420 CENTERPOINT BLVD BLDG C,KNOXVILLE,TN,37932-1960,,"Health organization in KNOXVILLE, TN with annual revenue of approximately $140M",
JOHNS HOPKINS PHARMAQUIP INC,521450994,Health,600 N WOLFE ST STE 5400,BALTIMORE,MD,21287-0005,,"Health organization in BALTIMORE, MD with annual revenue of approximately $140M",
LIFESOUTH COMMUNITY BLOOD CENTERS INC,591545914,Health,4039 NEWBERRY RD,GAINESVILLE,FL,32607-2342,,"Health organization in GAINESVILLE, FL with annual revenue of approximately $139M",
CARTHAGE COLLEGE,370661496,Education,2001 ALFORD PARK DR,KENOSHA,WI,53140-1929,,"Education organization in KENOSHA, WI with annual revenue of approximately $139M",
EARTHJUSTICE,941730465,Environment,50 CALIFORNIA ST STE 500,SAN FRANCISCO,CA,94111-4608,,"Environment organization in SAN FRANCISCO, CA with annual revenue of approximately $139M",
MARY RUTAN HOSPITAL,341407259,Health,205 E PALMER RD,BELLEFONTAINE,OH,43311-2281,,"Health organization in BELLEFONTAINE, OH with annual revenue of approximately $139M",
AMERICAN ARBITRATION ASSOCIATION INC,130429745,Human Services,120 BROADWAY 21ST FL,NEW YORK,NY,10271-2700,,"Human Services organization in NEW YORK, NY with annual revenue of approximately $139M",
GOUCHER COLLEGE,520591613,Education,1021 DULANEY VALLEY RD,BALTIMORE,MD,21204-2753,,"Education organization in BALTIMORE, MD with annual revenue of approximately $139M",
HUGH CHATHAM MEMORIAL HOSPITAL INC,560642846,Health,180 PARKWOOD DR,ELKIN,NC,28621-2430,,"Health organization in ELKIN, NC with annual revenue of approximately $139M",
BENEDICTINE COLLEGE,480777079,Education,1020 N 2ND ST,ATCHISON,KS,66002-1402,,"Education organization in ATCHISON, KS with annual revenue of approximately $139M",
OHIO LIVING COMMUNITIES,344429863,Human Services,9200 WORTHINGTON RD STE 300,WESTERVILLE,OH,43082-7240,,"Human Services organization in WESTERVILLE, OH with annual revenue of approximately $139M",
EMMA PENDLETON BRADLEY HOSPITAL,050258806,Health,1011 VETERANS MEMORIAL PKWY,RIVERSIDE,RI,02915-5061,,"Health organization in RIVERSIDE, RI with annual revenue of approximately $139M",
ASCEND CHARTER SCHOOLS,453957158,Education,205 ROCKAWAY PARKWAY 6TH FLOOR,BROOKLYN,NY,11212-3444,,"Education organization in BROOKLYN, NY with annual revenue of approximately $139M",
BEREA COLLEGE,610444650,Education,CPO 2214,BEREA,KY,40404-0001,,"Education organization in BEREA, KY with annual revenue of approximately $139M",
JANE PHILLIPS MEMORIAL MEDICAL CENTER INC,730606129,Health,PO BOX 45998,SAINT LOUIS,MO,63145-5998,,"Health organization in SAINT LOUIS, MO with annual revenue of approximately $139M",
AUBURN UNIVERSITY FOUNDATION,636022422,Education,PO BOX 3140,AUBURN,AL,36831-3140,,"Education organization in AUBURN, AL with annual revenue of approximately $139M",
LAS VEGAS-CLARK COUNTY URBAN LEAGUE CAA,200873314,Human Services,2470 N DECATUR BLVD STE 150,LAS VEGAS,NV,89108-2987,,"Human Services organization in LAS VEGAS, NV with annual revenue of approximately $139M",
OMNI FAMILY HEALTH,953218000,Health,4900 CALIFORNIA AVE STE 400B,BAKERSFIELD,CA,93309-7081,,"Health organization in BAKERSFIELD, CA with annual revenue of approximately $139M",
SILVERTON HEALTH,930281321,Health,342 FAIRVIEW ST,SILVERTON,OR,97381-1917,,"Health organization in SILVERTON, OR with annual revenue of approximately $138M",
AUGSBURG UNIVERSITY,410694721,Education,2211 RIVERSIDE AVE CB 79,MINNEAPOLIS,MN,55454-1350,,"Education organization in MINNEAPOLIS, MN with annual revenue of approximately $138M",
THE YOUNG MENS CHRISTIAN ASSOCIATION OF THE TRIANGLE AREA I,560591307,Human Services,801 CORPORATE CENTER DR STE 200,RALEIGH,NC,27607-5243,,"Human Services organization in RALEIGH, NC with annual revenue of approximately $138M",
INTEGRIS HEALTH EDMOND INC,451027361,Health,3001 QUAIL SPRINGS PKWY,OKLAHOMA CITY,OK,73134-2640,,"Health organization in OKLAHOMA CITY, OK with annual revenue of approximately $138M",
PURDUE UNIVERSITY GLOBAL INC,821319401,Education,2550 NORTHWESTERN AVE STE 1100,WEST LAFAYETTE,IN,47906-1332,,"Education organization in WEST LAFAYETTE, IN with annual revenue of approximately $138M",
PROHEALTH OCONOMOWOC MEMORIAL HOSPITAL INC,390794174,Health,791 SUMMIT AVE,OCONOMOWOC,WI,53066-3844,,"Health organization in OCONOMOWOC, WI with annual revenue of approximately $138M",
JEWISH FEDERATION OF CLEVELAND,340714445,Community,25701 SCIENCE PARK DR,CLEVELAND,OH,44122-7302,,"Community organization in CLEVELAND, OH with annual revenue of approximately $138M",
ST BONAVENTURE UNIVERSITY BUSINESS OFFICE - HOPKINS HALL,160743150,Other,3261 W STATE RD,ST BONAS,NY,14778-9800,,"Other organization in ST BONAS, NY with annual revenue of approximately $138M",
ANALYTIC SERVICES INC,540695125,Research,4040 WILSON BLVD STE 500,ARLINGTON,VA,22203-4491,,"Research organization in ARLINGTON, VA with annual revenue of approximately $138M",
TNTP INC,133850158,Education,500 7TH AVENUE 8TH FLOOR,NEW YORK,NY,10018-4502,,"Education organization in NEW YORK, NY with annual revenue of approximately $138M",
MERCY CLINIC FORT SMITH COMMUNITIES,261318597,Health,14528 S OUTER FORTY,CHESTERFIELD,MO,63017-5785,,"Health organization in CHESTERFIELD, MO with annual revenue of approximately $138M",
UNIVERSITY OF MARY HARDIN-BAYLOR,741161940,Education,900 COLLEGE STREET BOX 8003,BELTON,TX,76513-2578,,"Education organization in BELTON, TX with annual revenue of approximately $138M",
HUMANGOOD SOCAL,951894293,Human Services,1900 HUNTINGTON DR,DUARTE,CA,91010-2694,,"Human Services organization in DUARTE, CA with annual revenue of approximately $138M",
PALM BEACH ATLANTIC UNIVERSITY INC,591092732,Education,PO BOX 24708,WEST PALM BCH,FL,33416-4708,,"Education organization in WEST PALM BCH, FL with annual revenue of approximately $138M",
SARAH LAWRENCE COLLEGE,237223216,Education,1 MEAD WAY,BRONXVILLE,NY,10708-5931,,"Education organization in BRONXVILLE, NY with annual revenue of approximately $138M",
WNET,262810489,Arts & Culture,825 EIGHTH AVENUE 14TH FL,NEW YORK,NY,10019-7416,,"Arts & Culture organization in NEW YORK, NY with annual revenue of approximately $138M",
PROCTOR HOSPITAL,370681540,Health,611 W PARK ST,URBANA,IL,61801-2529,,"Health organization in URBANA, IL with annual revenue of approximately $138M",
MERCY HOSPITAL ADA INC,462288155,Other,430 N MONTE VISTA ST,ADA,OK,74820-4610,,"Other organization in ADA, OK with annual revenue of approximately $138M",
GOODWILL INDUSTRIES OF KENTUCKY INC,610475284,Human Services,2820 W BROADWAY,LOUISVILLE,KY,40211-1219,,"Human Services organization in LOUISVILLE, KY with annual revenue of approximately $138M",
THE FOUNDATION,920742101,Education,PO BOX 341886,AUSTIN,TX,78734-0032,,"Education organization in AUSTIN, TX with annual revenue of approximately $138M",
GENERAL HEALTH SYSTEM,720475545,Health,8490 PICARDY AVENUE 300,BATON ROUGE,LA,70809-3731,,"Health organization in BATON ROUGE, LA with annual revenue of approximately $138M",
MARY WASHINGTON HEALTHCARE,541240646,Health,2300 FALL HILL AVE STE 416,FREDERICKSBRG,VA,22401-3362,,"Health organization in FREDERICKSBRG, VA with annual revenue of approximately $138M",
ARMSTRONG COUNTY MEMORIAL HOSPITAL,250965237,Health,1 NOLTE DR,KITTANNING,PA,16201-7111,,"Health organization in KITTANNING, PA with annual revenue of approximately $138M",
SAINT JOSEPH REGIONAL MEDICAL CENTER INC,351568821,Health,5215 HOLY CROSS PKWY,MISHAWAKA,IN,46545-1469,,"Health organization in MISHAWAKA, IN with annual revenue of approximately $138M",
ST JOSEPHS UNIVERSITY,111733439,Education,245 CLINTON AVE,BROOKLYN,NY,11205-3602,,"Education organization in BROOKLYN, NY with annual revenue of approximately $138M",
IMPACT INVESTING CHARITABLE TRUST,812375745,Community,8208 MELROSE DR,LENEXA,KS,66214-1626,,"Community organization in LENEXA, KS with annual revenue of approximately $137M",
ROSALIND FRANKLIN UNIVERSITY OF MEDICINE & SCIENCE,362181973,Other,3333 GREEN BAY RD,NORTH CHICAGO,IL,60064-3037,,"Other organization in NORTH CHICAGO, IL with annual revenue of approximately $137M",
LOOMIS INSTITUTE,060653119,Education,BATCHELDER RD,WINDSOR,CT,06095-0000,,"Education organization in WINDSOR, CT with annual revenue of approximately $137M",
THE YOUNG MENS CHRISTIAN ASSOCIATION OF GREATER SEATTLE,910482710,Human Services,909 4TH AVE,SEATTLE,WA,98104-1108,,"Human Services organization in SEATTLE, WA with annual revenue of approximately $137M",
DANA FARBER MASS GENERAL BRIGHAM CANCER CARE INC,043320640,Health,450 BROOKLINE AVE BP418,BOSTON,MA,02215-5418,,"Health organization in BOSTON, MA with annual revenue of approximately $137M",
ARC THRIFT STORES,840515942,Human Services,12345 W ALAMEDA PKWY STE 111,LAKEWOOD,CO,80228-2827,,"Human Services organization in LAKEWOOD, CO with annual revenue of approximately $137M",
RINGLING COLLEGE OF ART AND DESIGN INC,590637903,Education,2700 N TAMIAMI TRL,SARASOTA,FL,34234-5812,,"Education organization in SARASOTA, FL with annual revenue of approximately $137M",
CARROLL UNIVERSITY INC,390806325,Education,100 N EAST AVE,WAUKESHA,WI,53186-3103,,"Education organization in WAUKESHA, WI with annual revenue of approximately $137M",
GREAT HEARTS AMERICA-TEXAS,431973126,Environment,12500 SAN PEDROSTE 500,SAN ANTONIO,TX,78216-0000,,"Environment organization in SAN ANTONIO, TX with annual revenue of approximately $137M",
MYMICHIGAN MEDICAL CENTER SAULT,382602147,Health,500 OSBORN BLVD,SAULT S MARIE,MI,49783-1822,,"Health organization in SAULT S MARIE, MI with annual revenue of approximately $137M",
WELLLIFE NETWORK INC,112542430,Human Services,1985 MARCUS AVE STE 100,NEW HYDE PARK,NY,11042-2025,,"Human Services organization in NEW HYDE PARK, NY with annual revenue of approximately $136M",
KANSAS CITY UNIVERSITY,440545280,Education,1750 INDEPENDENCE AVE,KANSAS CITY,MO,64106-1453,,"Education organization in KANSAS CITY, MO with annual revenue of approximately $136M",
CALIFORNIA INSTITUTE OF THE ARTS,956102146,Arts & Culture,24700 MCBEAN PKWY,VALENCIA,CA,91355-2340,,"Arts & Culture organization in VALENCIA, CA with annual revenue of approximately $136M",
CENTER FOR CREATIVE LEADERSHIP,237079591,Education,1 LEADERSHIP PL,GREENSBORO,NC,27410-9427,,"Education organization in GREENSBORO, NC with annual revenue of approximately $136M",
RIDERWOOD VILLAGE INC,522126753,Human Services,813 MAIDEN CHOICE LN,CATONSVILLE,MD,21228-3679,,"Human Services organization in CATONSVILLE, MD with annual revenue of approximately $136M",
AMERICAN COLLEGE OF RADIOLOGY,362261602,Health,1892 PRESTON WHITE DRIVE,RESTON,VA,20191-5497,,"Health organization in RESTON, VA with annual revenue of approximately $136M",
SALVE REGINA UNIVERSITY,050259080,Education,100 OCHRE POINT AVE,NEWPORT,RI,02840-4149,,"Education organization in NEWPORT, RI with annual revenue of approximately $136M",
AMERICAN DIABETES ASSOCIATION INC,131623888,Health,2451 CRYSTAL DR STE 900,ARLINGTON,VA,22202-4804,,"Health organization in ARLINGTON, VA with annual revenue of approximately $136M",
AMERICAN SOCIETY OF MECHANICAL ENGINEERS,131623899,Research,TWO PARK AVE,NEW YORK,NY,10016-5675,,"Research organization in NEW YORK, NY with annual revenue of approximately $136M",
DEACONESS WOMENS HOSPITAL OF SOUTHERN INDIANA LLC,352062016,Other,4199 GATEWAY BLVD,NEWBURGH,IN,47630-8954,,"Other organization in NEWBURGH, IN with annual revenue of approximately $136M",
TRINITY HEALTH,450226558,Health,PO BOX 5020,MINOT,ND,58702-5020,,"Health organization in MINOT, ND with annual revenue of approximately $136M",
PRISMA HEALTH,822595551,Health,300 EAST MCBEE AVENUE SUITE 500,GREENVILLE,SC,29601-2842,,"Health organization in GREENVILLE, SC with annual revenue of approximately $136M",
ASSOCIATED CATHOLIC CHARITIES INC,520591538,Human Services,2300 DULANEY VALLEY RD,TIMONIUM,MD,21093-2700,,"Human Services organization in TIMONIUM, MD with annual revenue of approximately $136M",
CARE DESIGN NEW YORK LLC,364875879,Health,8 SOUTHWOODS BLVD STE 110,ALBANY,NY,12211-2508,,"Health organization in ALBANY, NY with annual revenue of approximately $136M",
UNBOUND,431243999,Human Services,1 ELMWOOD AVE,KANSAS CITY,KS,66103-2118,,"Human Services organization in KANSAS CITY, KS with annual revenue of approximately $136M",
SOUTH FLORIDA BEHAVIORAL HEALTH NETWORK INCORPORATED,593380599,Health,7205 NW 19 STREET,MIAMI,FL,33126-1216,,"Health organization in MIAMI, FL with annual revenue of approximately $136M",
WESTERN NEW YORK MEDICAL PRACTICE PC,611654232,Health,1425 PORTLAND AVENUE,ROCHESTER,NY,14621-3011,,"Health organization in ROCHESTER, NY with annual revenue of approximately $136M",
SAINT JOHNS UNIVERSITY,453656162,Other,PO BOX 2222,COLLEGEVILLE,MN,56321-2222,,"Other organization in COLLEGEVILLE, MN with annual revenue of approximately $136M",
ALLIANCE PHYSICIANS INC,311175717,Health,1 PRESTIGE PLACE,MIAMISBURG,OH,45342-3794,,"Health organization in MIAMISBURG, OH with annual revenue of approximately $136M",
AMPLA HEALTH,942210447,Health,935 MARKET STREET,YUBA CITY,CA,95991-4217,,"Health organization in YUBA CITY, CA with annual revenue of approximately $136M",
UNIVERSITY ENTERPRISES INC,941337638,Education,6000 J ST,SACRAMENTO,CA,95819-2605,,"Education organization in SACRAMENTO, CA with annual revenue of approximately $136M",
ALFRED UNIVERSITY,160743900,Education,1 SAXON DR,ALFRED,NY,14802-1205,,"Education organization in ALFRED, NY with annual revenue of approximately $136M",
MARGARET MARY COMMUNITY HOSPITAL INC,356067049,Health,321 MITCHELL AVE,BATESVILLE,IN,47006-8909,,"Health organization in BATESVILLE, IN with annual revenue of approximately $136M",
CHAMPLAIN COLLEGE INC,030220266,Education,PO BOX 670,BURLINGTON,VT,05402-0670,,"Education organization in BURLINGTON, VT with annual revenue of approximately $136M",
THOREK MEMORIAL HOSPITAL,366000085,Health,850 W IRVING PARK ROAD,CHICAGO,IL,60613-3077,,"Health organization in CHICAGO, IL with annual revenue of approximately $136M",
HUDSON EAST RIVER SYSTEMS LLC,822253311,Health,525 EAST 68TH STREET BOX 156,NEW YORK,NY,10065-4870,,"Health organization in NEW YORK, NY with annual revenue of approximately $136M",
UNION COUNTY HOSPITAL AUTHORITY,586025393,Health,35 HOSPITAL RD,BLAIRSVILLE,GA,30512-3139,,"Health organization in BLAIRSVILLE, GA with annual revenue of approximately $136M",
HAYWARD SISTERS HOSPITAL,941668344,Health,27200 CALAROGA AVE,HAYWARD,CA,94545-4339,,"Health organization in HAYWARD, CA with annual revenue of approximately $136M",
NATIONAL COUNCIL OF STATE BOARDS OF NURSING INC,363481016,Health,111 E WACKER DR STE 2900,CHICAGO,IL,60601-4277,,"Health organization in CHICAGO, IL with annual revenue of approximately $136M",
