name,ein,category,address,city,state,zip_code,website,description,phone
CONWAY HOSPITAL INC,570314381,Health,300 SINGLETON RIDGE RD,CONWAY,SC,29526-9142,,"Health organization in CONWAY, SC with annual revenue of approximately $358M",
CARILION NEW RIVER VALLEY MEDICAL CENTER,540553805,Health,PO BOX 12385,ROANOKE,VA,24025-2385,,"Health organization in ROANOKE, VA with annual revenue of approximately $358M",
PIEDMONT HEALTHCARE INC,581503902,Health,2727 PACES FERRY RD SE STE 1-1100,ATLANTA,GA,30339-6151,,"Health organization in ATLANTA, GA with annual revenue of approximately $358M",
ST JOSEPH REGIONAL HEALTH NETWORK,231352211,Health,100 CRYSTAL A DRIVE MC CA210,HERSHEY,PA,17033-9524,,"Health organization in HERSHEY, PA with annual revenue of approximately $357M",
FOUNDATION HEALTH LLC,813021580,Health,1650 COWLES ST,FAIRBANKS,AK,99701-5998,,"Health organization in FAIRBANKS, AK with annual revenue of approximately $357M",
BAPTIST MEMORIAL HOSPITAL-DESOTO INC,640682111,Health,7601 SOUTHCREST PKWY,SOUTHAVEN,MS,38671-4739,,"Health organization in SOUTHAVEN, MS with annual revenue of approximately $356M",
MARSHFIELD CLINIC HEALTH SYSTEM INC,461495343,Health,1000 N OAK AVE,MARSHFIELD,WI,54449-5703,,"Health organization in MARSHFIELD, WI with annual revenue of approximately $356M",
PHYSICIANS OF UNIVERSITY HOSPITAL PC,200096809,Health,972 BRUSH HOLLOW RD 5TH FL,WESTBURY,NY,11590-1740,,"Health organization in WESTBURY, NY with annual revenue of approximately $356M",
NATIONAL ENDOWMENT FOR DEMOCRACY,521344831,Community,1201 PENNSYLVANIA AVE NW STE 1100,WASHINGTON,DC,20004-2468,,"Community organization in WASHINGTON, DC with annual revenue of approximately $356M",
HUNTERDON MEDICAL CENTER,221537688,Health,2100 WESCOTT DR,FLEMINGTON,NJ,08822-4603,,"Health organization in FLEMINGTON, NJ with annual revenue of approximately $355M",
SAINT MARYS HOSPITAL INC,060646844,Health,114 WOODLAND STREET MS-510358,HARTFORD,CT,06105-1208,,"Health organization in HARTFORD, CT with annual revenue of approximately $355M",
AMERICAN INSTITUTES FOR RESEARCH IN THE BEHAVIORAL SCIENCES,250965219,Research,1400 CRYSTAL DR 10TH FLR,ARLINGTON,VA,22202-3289,,"Research organization in ARLINGTON, VA with annual revenue of approximately $355M",
BAYLOR SCOTT & WHITE MEDICAL CENTERS - GREATER NORTH TEXAS,751037591,Health,301 N WASHINGTON AVE,DALLAS,TX,75246-1754,,"Health organization in DALLAS, TX with annual revenue of approximately $354M",
SAINT JOSEPHS HOSPITAL INC,580568702,Health,11705 MERCY BLVD,SAVANNAH,GA,31419-1711,,"Health organization in SAVANNAH, GA with annual revenue of approximately $354M",
KAPIOLANI MEDICAL SPECIALISTS,990322406,Health,55 MERCHANT STREET 24TH FLOOR,HONOLULU,HI,96813-4333,,"Health organization in HONOLULU, HI with annual revenue of approximately $354M",
UNITED STATES PHARMACOPEIAL CONVENTION INC,131656692,Health,12601 TWINBROOK PKWY,ROCKVILLE,MD,20852-1717,,"Health organization in ROCKVILLE, MD with annual revenue of approximately $353M",
GULF HEALTH HOSPITALS INC,630891904,Health,PO BOX 2226,MOBILE,AL,36652-2226,,"Health organization in MOBILE, AL with annual revenue of approximately $353M",
HOLY REDEEMER HEALTH SYSTEM,231534300,Health,1648 HUNTINGDON PIKE,MEADOWBROOK,PA,19046-8001,,"Health organization in MEADOWBROOK, PA with annual revenue of approximately $353M",
MEDICAL ASSOCIATES OF ENGLEWOOD PC,452548322,Health,350 ENGLE ST,ENGLEWOOD,NJ,07631-1808,,"Health organization in ENGLEWOOD, NJ with annual revenue of approximately $353M",
NUVANCE HEALTH,834214573,Health,45 READE PL,POUGHKEEPSIE,NY,12601-3947,,"Health organization in POUGHKEEPSIE, NY with annual revenue of approximately $352M",
LIFESPAN CORPORATION,222861978,Health,167 POINT STREET,PROVIDENCE,RI,02903-4771,,"Health organization in PROVIDENCE, RI with annual revenue of approximately $352M",
UNIVERSITY OF NEBRASKA FOUNDATION,470379839,Education,1010 LINCOLN MALL STE 300,LINCOLN,NE,68508-2886,,"Education organization in LINCOLN, NE with annual revenue of approximately $352M",
INTERMEDIARYED,420841485,Education,PO BOX 28,MOUNT VERNON,IA,52314-0028,,"Education organization in MOUNT VERNON, IA with annual revenue of approximately $352M",
TARZANA MEDICAL CENTER LLC,833972614,Health,1801 LIND AVE SW ATTN TAX DEPT,RENTON,WA,98057-3368,,"Health organization in RENTON, WA with annual revenue of approximately $352M",
SWEDISH COVENANT HEALTH,362179813,Other,4901 SEARLE PKWY,SKOKIE,IL,60077-5313,,"Other organization in SKOKIE, IL with annual revenue of approximately $352M",
SUFFOLK UNIVERSITY,042133255,Education,8 ASHBURTON PL,BOSTON,MA,02108-2701,,"Education organization in BOSTON, MA with annual revenue of approximately $352M",
CARING PEOPLE ALLIANCE,231352104,Human Services,123 S BROAD ST STE 2220,PHILADELPHIA,PA,19109-1034,,"Human Services organization in PHILADELPHIA, PA with annual revenue of approximately $351M",
MCPHS UNIVERSITY,042104700,Education,179 LONGWOOD AVE,BOSTON,MA,02115-5804,,"Education organization in BOSTON, MA with annual revenue of approximately $351M",
BARNARD COLLEGE,131628149,Education,3009 BROADWAY,NEW YORK,NY,10027-6598,,"Education organization in NEW YORK, NY with annual revenue of approximately $351M",
BAPTIST MEMORIAL HEALTH CARE CORPORATION,581521475,Health,350 N HUMPHREYS BLVD,MEMPHIS,TN,38120-2177,,"Health organization in MEMPHIS, TN with annual revenue of approximately $351M",
TRUSTEES OF THE COLLEGE OF THE HOLY CROSS,042103558,Education,1 COLLEGE ST,WORCESTER,MA,01610-2322,,"Education organization in WORCESTER, MA with annual revenue of approximately $350M",
INSTITUTE FOR DEFENSE ANALYSES,530233247,Research,730 E GLEBE RD,ALEXANDRIA,VA,22305-3086,,"Research organization in ALEXANDRIA, VA with annual revenue of approximately $350M",
TIDES FOUNDATION,510198509,Community,1012 TORNEY AVE,SAN FRANCISCO,CA,94129-1704,,"Community organization in SAN FRANCISCO, CA with annual revenue of approximately $350M",
JOHNS HOPKINS UNIVERSITY,237424444,Other,3910 KESWICK ROAD N4327B,BALTIMORE,MD,21211-2226,,"Other organization in BALTIMORE, MD with annual revenue of approximately $349M",
POPULATION SERVICES INTERNATIONAL,560942853,Other,1120 19TH ST NW STE 600,WASHINGTON,DC,20036-3605,,"Other organization in WASHINGTON, DC with annual revenue of approximately $349M",
YAKIMA VALLEY FARM WORKERS CLINIC,911019392,Health,PO BOX 190,TOPPENISH,WA,98948-0190,,"Health organization in TOPPENISH, WA with annual revenue of approximately $349M",
AHS MIDWEST MANAGEMENT INC,363354567,Other,5101 WILLOW SPRINGS RD,LA GRANGE,IL,60525-2600,,"Other organization in LA GRANGE, IL with annual revenue of approximately $349M",
TUFTS MEDICAL CENTER PHYSICIANS ORGANIZATION INC,900113440,Other,800 WASHINGTON ST TMCPO 1013,BOSTON,MA,02111-1552,,"Other organization in BOSTON, MA with annual revenue of approximately $349M",
SAMARITAN MEDICAL CENTER,150533577,Health,830 WASHINGTON ST,WATERTOWN,NY,13601-4034,,"Health organization in WATERTOWN, NY with annual revenue of approximately $349M",
NORTHEAST PENNSYLVANIA CENTER FOR INDEPENDENT LIVING,232525528,Human Services,1142 SANDERSON AVENUE,SCRANTON,PA,18509-2623,,"Human Services organization in SCRANTON, PA with annual revenue of approximately $349M",
NATIONAL OPINION RESEARCH CENTER,362167808,Research,55 EAST MONROE STREET,CHICAGO,IL,60603-5713,,"Research organization in CHICAGO, IL with annual revenue of approximately $348M",
MONTEFIORE NYACK HOSPITAL,131740119,Health,160 N MIDLAND AVE,NYACK,NY,10960-1912,,"Health organization in NYACK, NY with annual revenue of approximately $348M",
PIH HEALTH PHYSICIANS,953942828,Health,6557 GREENLEAF AVE,WHITTIER,CA,90601-4108,,"Health organization in WHITTIER, CA with annual revenue of approximately $348M",
TEXAS HEALTH ARLINGTON MEMORIAL HOSPITAL,750972805,Health,800 W RANDOL MILL RD,ARLINGTON,TX,76012-2504,,"Health organization in ARLINGTON, TX with annual revenue of approximately $348M",
OHIO STATE UNIVERSITY FOUNDATION,311145986,Education,14 E 15TH AVE 4TH FL,COLUMBUS,OH,43201-4487,,"Education organization in COLUMBUS, OH with annual revenue of approximately $348M",
THIBODAUX REGIONAL HEALTH SYSTEM INC,842046902,Health,602 N ACADIA RD,THIBODAUX,LA,70301-4847,,"Health organization in THIBODAUX, LA with annual revenue of approximately $348M",
THE AMERICAN ONCOLOGIC HOSPITAL,231352156,Health,3509 N BROAD ST BOYER PAV 225,PHILADELPHIA,PA,19140-4105,,"Health organization in PHILADELPHIA, PA with annual revenue of approximately $348M",
UNIVERSITY HEALTHCARE ALLIANCE,943192446,Other,7999 GATEWAY BLVD STE 200,NEWARK,CA,94560-1197,,"Other organization in NEWARK, CA with annual revenue of approximately $348M",
INCLUSA INC,813565570,Health,2801 HOOVER RD UNIT 1J,STEVENS POINT,WI,54481-7102,,"Health organization in STEVENS POINT, WI with annual revenue of approximately $348M",
PIEDMONT EASTSIDE HOSPITAL INC,870982886,Health,1700 MEDICAL WAY,SNELLVILLE,GA,30078-2195,,"Health organization in SNELLVILLE, GA with annual revenue of approximately $346M",
BAPTIST HEALTH REGIONAL HOSPITALS,825426152,Health,9601 BAPTIST HEALTH DR,LITTLE ROCK,AR,72205-6316,,"Health organization in LITTLE ROCK, AR with annual revenue of approximately $346M",
SONORA COMMUNITY HOSPITAL,941415069,Health,1 ADVENTIST HEALTH WAY,ROSEVILLE,CA,95661-3266,,"Health organization in ROSEVILLE, CA with annual revenue of approximately $346M",
BAYLOR MEDICAL CENTER AT IRVING,752586857,Health,301 N WASHINGTON AVE,DALLAS,TX,75246-1754,,"Health organization in DALLAS, TX with annual revenue of approximately $346M",
RWJ BARNABAS HEALTH INC,223601678,Health,2 CRESCENT PLACE,OCEANPORT,NJ,07757-1233,,"Health organization in OCEANPORT, NJ with annual revenue of approximately $345M",
WOODS HOLE OCEANOGRAPHIC INSTITUTION,042105850,Research,569 WOODS HOLE RDMS14,WOODS HOLE,MA,02543-1041,,"Research organization in WOODS HOLE, MA with annual revenue of approximately $345M",
VALLEY VIEW HOSPITAL ASSOCIATION,840446259,Health,1906 BLAKE AVE,GLENWOOD SPGS,CO,81601-4227,,"Health organization in GLENWOOD SPGS, CO with annual revenue of approximately $345M",
EMERSON COLLEGE,041286950,Education,120 BOYLSTON STREET,BOSTON,MA,02116-4611,,"Education organization in BOSTON, MA with annual revenue of approximately $345M",
FLORIDA HEALTHY KIDS CORPORATION,593032613,Health,1203 GOVERNORS SQUARE BLVD STE 400,TALLAHASSEE,FL,32301-2961,,"Health organization in TALLAHASSEE, FL with annual revenue of approximately $345M",
ADELPHI UNIVERSITY,111630741,Education,SOUTH AVE LEVERMORE 201,GARDEN CITY,NY,11530-0000,,"Education organization in GARDEN CITY, NY with annual revenue of approximately $344M",
TOURO INFIRMARY,720423659,Health,1401 FOUCHER ST,NEW ORLEANS,LA,70115-3515,,"Health organization in NEW ORLEANS, LA with annual revenue of approximately $343M",
SCOTT & WHITE HOSPITAL - COLLEGE STATION,274434451,Health,301 N WASHINGTON AVE,DALLAS,TX,75246-1754,,"Health organization in DALLAS, TX with annual revenue of approximately $342M",
HABITAT FOR HUMANITY INTERNATIONAL INC,911914868,International,322 W LAMAR ST,AMERICUS,GA,31709-3543,,"International organization in AMERICUS, GA with annual revenue of approximately $342M",
NETWORK FOR GOOD INC,680480736,Human Services,1 THOMAS CIR NW STE 700,WASHINGTON,DC,20005-5800,,"Human Services organization in WASHINGTON, DC with annual revenue of approximately $342M",
UNIVERSITY OF COLORADO FOUNDATION,846049811,Education,1800 N GRANT ST STE 725,DENVER,CO,80203-1114,,"Education organization in DENVER, CO with annual revenue of approximately $342M",
MCLEOD HEALTH,510473500,Health,555 E CHEVES ST,FLORENCE,SC,29506-2617,,"Health organization in FLORENCE, SC with annual revenue of approximately $340M",
THE COMMUNITY FOUNDATION FOR GREATER ATLANTA INC,581344646,Community,191 PEACHTREE ST NE STE 1000,ATLANTA,GA,30303-1741,,"Community organization in ATLANTA, GA with annual revenue of approximately $340M",
STIFEL CHARITABLE INC,842049692,Community,501 N BROADWAY,SAINT LOUIS,MO,63102-2102,,"Community organization in SAINT LOUIS, MO with annual revenue of approximately $340M",
BRONSON BATTLE CREEK HOSPITAL,382776791,Health,601 JOHN STREET BOX 26,KALAMAZOO,MI,49007-5341,,"Health organization in KALAMAZOO, MI with annual revenue of approximately $340M",
LOMA LINDA UNIVERSITY SHARED SERVICES,810661056,Other,PO BOX 2000,LOMA LINDA,CA,92354-0200,,"Other organization in LOMA LINDA, CA with annual revenue of approximately $340M",
VAN ANDEL RESEARCH INSTITUTE,522000823,Health,333 BOSTWICK AVE NE,GRAND RAPIDS,MI,49503-2518,,"Health organization in GRAND RAPIDS, MI with annual revenue of approximately $340M",
SOUTHWEST BEHAVIORAL HEALTH MANAGEMENT INC,251810162,Health,2520 NEW BUTLER ROAD,NEW CASTLE,PA,16101-3213,,"Health organization in NEW CASTLE, PA with annual revenue of approximately $339M",
CENTRAL SUFFOLK HOSPITAL,111661359,Health,972 BRUSH HOLLOW RD 5TH FL,WESTBURY,NY,11590-1740,,"Health organization in WESTBURY, NY with annual revenue of approximately $339M",
AMIDA CARE INC,134154068,Health,14PENN PLZ 225W 34ST 2FL,NEW YORK,NY,10122-0049,,"Health organization in NEW YORK, NY with annual revenue of approximately $339M",
SAMARITAN DAYTOP VILLAGE INC,112635374,Health,13802 QUEENS BLVD,BRIARWOOD,NY,11435-2665,,"Health organization in BRIARWOOD, NY with annual revenue of approximately $338M",
TRINITY UNIVERSITY,741109633,Education,1 TRINITY PL,SAN ANTONIO,TX,78212-4674,,"Education organization in SAN ANTONIO, TX with annual revenue of approximately $338M",
TEXAS A&M FOUNDATION,742245072,Education,401 GEORGE BUSH DR,COLLEGE STA,TX,77840-2811,,"Education organization in COLLEGE STA, TX with annual revenue of approximately $338M",
TEXAS HEALTH HARRIS METHODIST HOSPITAL HURST-EULESS-BEDFORD,751438726,Health,1600 HOSPITAL PKWY,BEDFORD,TX,76022-6913,,"Health organization in BEDFORD, TX with annual revenue of approximately $338M",
CHILDRENS MEDICAL CENTER,041174680,Health,300 LONGWOOD AVE,BOSTON,MA,02115-5724,,"Health organization in BOSTON, MA with annual revenue of approximately $338M",
CAYUGA MEDICAL CENTER AT ITHACA,222325405,Health,101 DATES DR,ITHACA,NY,14850-1342,,"Health organization in ITHACA, NY with annual revenue of approximately $338M",
HEALTH FIRST SHARED SERVICES INC,593336894,Health,6450 US HIGHWAY 1,ROCKLEDGE,FL,32955-5747,,"Health organization in ROCKLEDGE, FL with annual revenue of approximately $337M",
THE MERCY HOSPITAL INC,043398280,Health,114 WOODLAND ST MS 105-103-58,HARTFORD,CT,06105-1208,,"Health organization in HARTFORD, CT with annual revenue of approximately $337M",
BARRIO COMPREHENSIVE FAMILY HEALTH CARE CENTER INC,741724391,Health,3066 E COMMERCE ST,SAN ANTONIO,TX,78220-1013,,"Health organization in SAN ANTONIO, TX with annual revenue of approximately $337M",
VIDANT MEDICAL GROUP LLC,383740839,Health,2100 STANTONSBURG RD,GREENVILLE,NC,27834-2818,,"Health organization in GREENVILLE, NC with annual revenue of approximately $336M",
SAINT ALPHONSUS MEDICAL CENTER NAMPA INC,820200896,Health,4300 E FLAMINGO AVE,NAMPA,ID,83687-3138,,"Health organization in NAMPA, ID with annual revenue of approximately $336M",
COLLEGIATE HOUSING FOUNDATION,631173425,Human Services,409 JOHNSON AVE,FAIRHOPE,AL,36532-2142,,"Human Services organization in FAIRHOPE, AL with annual revenue of approximately $336M",
EXETER HOSPITAL INC,222674014,Health,CO BILH TAX 529 MAIN ST 4TH FL,CHARLESTOWN,MA,02129-0000,,"Health organization in CHARLESTOWN, MA with annual revenue of approximately $336M",
ASCENSION HEALTH PROFESSIONAL AND GENERAL LIABILITY SELF-INSURANCE,367046706,Other,PO BOX 45998,SAINT LOUIS,MO,63145-5998,,"Other organization in SAINT LOUIS, MO with annual revenue of approximately $335M",
CAPITAL AREA BEHAVIORAL HEALTH COLLABORATIVE INC,251843566,Health,2300 VARTAN WAY STE 206,HARRISBURG,PA,17110-9720,,"Health organization in HARRISBURG, PA with annual revenue of approximately $335M",
SAMARITAN HEALTH SERVICES INC,930951989,Human Services,PO BOX 3000,CORVALLIS,OR,97339-3000,,"Human Services organization in CORVALLIS, OR with annual revenue of approximately $334M",
SSM HEALTH CARE GROUP,880988603,Health,12800 CORPORATE HILL DR,SAINT LOUIS,MO,63131-1833,,"Health organization in SAINT LOUIS, MO with annual revenue of approximately $334M",
NATIONAL SLOVAK SOCIETY OF THE USA,250687190,Other,1301 ASHWOOD DR,CANONSBURG,PA,15317-4908,,"Other organization in CANONSBURG, PA with annual revenue of approximately $334M",
SOUTHEASTERN REGIONAL MEDICAL CENTER,560530233,Health,PO BOX 1408,LUMBERTON,NC,28359-1408,,"Health organization in LUMBERTON, NC with annual revenue of approximately $334M",
CHS SERVICES INC,113555766,Other,992 N VILLAGE AVE,ROCKVILLE CTR,NY,11570-1002,,"Other organization in ROCKVILLE CTR, NY with annual revenue of approximately $334M",
PATH,911157127,International,437 N 34TH ST,SEATTLE,WA,98103-8601,,"International organization in SEATTLE, WA with annual revenue of approximately $334M",
BLUE RIDGE HEALTHCARE HOSPITALS INC,560529976,Health,352 EAST PARKER RD SUITE,MORGANTON,NC,28655-5125,,"Health organization in MORGANTON, NC with annual revenue of approximately $333M",
COMMUNITY OPTIONS INC,222964056,Human Services,16 FARBER RD,PRINCETON,NJ,08540-5913,,"Human Services organization in PRINCETON, NJ with annual revenue of approximately $333M",
HOWARD COUNTY GENERAL HOSPITAL INC,522093120,Health,3910 KESWICK RD S BLDG 4300A,BALTIMORE,MD,21211-2226,,"Health organization in BALTIMORE, MD with annual revenue of approximately $333M",
FLAGLER HOSPITAL INC,590675143,Health,400 HEALTH PARK BLVD,ST AUGUSTINE,FL,32086-5784,,"Health organization in ST AUGUSTINE, FL with annual revenue of approximately $333M",
MCLAREN BAY REGION,381976271,Health,1900 COLUMBUS AVE,BAY CITY,MI,48708-6831,,"Health organization in BAY CITY, MI with annual revenue of approximately $333M",
CHRISTUS HEALTH NORTHERN LOUISIANA,720408982,Health,1453 EAST BERT KOUNS IND LOOP,SHREVEPORT,LA,71105-6800,,"Health organization in SHREVEPORT, LA with annual revenue of approximately $333M",
JOHNS HOPKINS COMMUNITY PHYSICIANS INC,521467441,Other,3910 KESWICK RD S BLDG 4300A,BALTIMORE,MD,21211-2226,,"Other organization in BALTIMORE, MD with annual revenue of approximately $333M",
ACACIA NETWORK HOUSING INC,260076866,Human Services,311 E 175TH ST,BRONX,NY,10457-5859,,"Human Services organization in BRONX, NY with annual revenue of approximately $333M",
RIDGEVIEW MEDICAL CENTER,311667875,Health,500 S MAPLE ST,WACONIA,MN,55387-1752,,"Health organization in WACONIA, MN with annual revenue of approximately $333M",
JACKSON HOSPITAL & CLINIC INC,636001820,Health,1725 PINE ST,MONTGOMERY,AL,36106-1109,,"Health organization in MONTGOMERY, AL with annual revenue of approximately $332M",
UPLIFT EDUCATION,752659683,Education,3000 PEGASUS PARK DR STE 1100,DALLAS,TX,75247-6203,,"Education organization in DALLAS, TX with annual revenue of approximately $332M",
CATHOLIC COMMUNITY SERVICES OF WESTERN WASHINGTON,911585652,Human Services,100 23RD AVE S,SEATTLE,WA,98144-2302,,"Human Services organization in SEATTLE, WA with annual revenue of approximately $332M",
HALIFAX STAFFING INC,593222299,Community,303 N CLYDE MORRIS BLVD,DAYTONA BEACH,FL,32114-2709,,"Community organization in DAYTONA BEACH, FL with annual revenue of approximately $332M",
COMMUNITY HOSPITALS OF CENTRAL CALIFORNIA,942864615,Health,1560 E SHAW AVE,FRESNO,CA,93710-8004,,"Health organization in FRESNO, CA with annual revenue of approximately $332M",
ST LUKES COMMUNITY HEALTH SERVICES,760536234,Health,6624 FANNIN ST STE 1100,HOUSTON,TX,77030-2323,,"Health organization in HOUSTON, TX with annual revenue of approximately $331M",
LAWRENCE GENERAL HOSPITAL,042103586,Health,1 GENERAL ST,LAWRENCE,MA,01841-2961,,"Health organization in LAWRENCE, MA with annual revenue of approximately $331M",
BARD COLLEGE,141713034,Education,30 CAMPUS RD,ANNANDALE,NY,12504-9800,,"Education organization in ANNANDALE, NY with annual revenue of approximately $331M",
MARSHALL MEDICAL CENTER,941450151,Health,PO BOX 872,PLACERVILLE,CA,95667-0872,,"Health organization in PLACERVILLE, CA with annual revenue of approximately $331M",
USC ARCADIA HOSPITAL,951643336,Health,300 W HUNTINGTON DR,ARCADIA,CA,91007-3402,,"Health organization in ARCADIA, CA with annual revenue of approximately $330M",
UNIVERSITY OF TULSA,730579298,Education,800 S TUCKER DR,TULSA,OK,74104-9700,,"Education organization in TULSA, OK with annual revenue of approximately $330M",
CITY OF HOPE,953435919,Health,1500 DUARTE RD,DUARTE,CA,91010-3012,,"Health organization in DUARTE, CA with annual revenue of approximately $330M",
TULSA COMMUNITY FOUNDATION,731554474,Community,7030 S YALE AVE STE 600,TULSA,OK,74136-5749,,"Community organization in TULSA, OK with annual revenue of approximately $329M",
POMONA COLLEGE,951664112,Education,150 E 8TH ST,CLAREMONT,CA,91711-3910,,"Education organization in CLAREMONT, CA with annual revenue of approximately $329M",
CL HEALTHCARE INC,460833951,Religion,13665 37TH AVE,FLUSHING,NY,11354-4110,,"Religion organization in FLUSHING, NY with annual revenue of approximately $329M",
KERN REGIONAL CENTER,237115846,Human Services,3200 N SILLECT AVE,BAKERSFIELD,CA,93308-6333,,"Human Services organization in BAKERSFIELD, CA with annual revenue of approximately $328M",
HEALTH SCHOLARSHIPS INC,581805305,Education,1005 BOULDER DR,GRAY,GA,31032-6141,,"Education organization in GRAY, GA with annual revenue of approximately $328M",
MERCY HOSPITAL,010211534,Health,175 FORE RIVER PKWY,PORTLAND,ME,04102-2779,,"Health organization in PORTLAND, ME with annual revenue of approximately $328M",
SUZANNE AND WALTER SCOTT FOUNDATION,363727897,Community,10340 N 84TH ST,OMAHA,NE,68122-2216,,"Community organization in OMAHA, NE with annual revenue of approximately $327M",
BANNER-UNIVERSITY CARE ADVANTAGE,463757358,Health,2901 N CENTRAL AVE STE 160,PHOENIX,AZ,85012-2702,,"Health organization in PHOENIX, AZ with annual revenue of approximately $327M",
PROMEDICA HEALTH SYSTEM INC,341517671,Health,100 MADISON AVE,TOLEDO,OH,43604-1516,,"Health organization in TOLEDO, OH with annual revenue of approximately $327M",
TUALITY HEALTHCARE,930430029,Health,334 SE 8TH AVE,HILLSBORO,OR,97123-4201,,"Health organization in HILLSBORO, OR with annual revenue of approximately $327M",
VASSAR COLLEGE,141338587,Other,124 RAYMOND AVE,POUGHKEEPSIE,NY,12604-0001,,"Other organization in POUGHKEEPSIE, NY with annual revenue of approximately $327M",
PENN STATE HEALTH HOLY SPIRIT MEDICAL CENTER,231512747,Health,PO BOX 804,HERSHEY,PA,17033-0804,,"Health organization in HERSHEY, PA with annual revenue of approximately $327M",
NORTH EAST MEDICAL SERVICES,941722562,Health,2171 JUNIPERO SERRA BLVD,DALY CITY,CA,94014-1906,,"Health organization in DALY CITY, CA with annual revenue of approximately $327M",
FLORIDA HOSPITAL PHYSICIAN GROUP INC,462021581,Other,14055 RIVEREDGE DR STE 250,TAMPA,FL,33637-2141,,"Other organization in TAMPA, FL with annual revenue of approximately $326M",
SRC INC,150589832,Other,7502 ROUND POND RD,N SYRACUSE,NY,13212-2558,,"Other organization in N SYRACUSE, NY with annual revenue of approximately $326M",
NYSARC INC,135596746,Human Services,83 MAIDEN LN,NEW YORK,NY,10038-4812,,"Human Services organization in NEW YORK, NY with annual revenue of approximately $326M",
THE CHILDRENS HOSPITAL OF PHILADELPHIA FOUNDATION,232237932,Health,3401 CIVIC CENTER BLVD,PHILADELPHIA,PA,19104-4319,,"Health organization in PHILADELPHIA, PA with annual revenue of approximately $325M",
COMMUNITY ASSISTANCE RESOURCES & EXTENDED SERVICES INC,203368734,Human Services,465 GRAND STREET,NEW YORK,NY,10002-7477,,"Human Services organization in NEW YORK, NY with annual revenue of approximately $325M",
PAULDING MEDICAL CENTER INC,582095884,Health,793 SAWYER RD,MARIETTA,GA,30062-2222,,"Health organization in MARIETTA, GA with annual revenue of approximately $325M",
DOCTORS HOSPITAL INC,043775926,Health,5000 UNIVERSITY DR,CORAL GABLES,FL,33146-2008,,"Health organization in CORAL GABLES, FL with annual revenue of approximately $325M",
HOAG CLINIC INC,330676831,Health,PO BOX 6100,NEWPORT BEACH,CA,92658-6100,,"Health organization in NEWPORT BEACH, CA with annual revenue of approximately $325M",
NATIONAL PUBLIC RADIO INC,520907625,Arts & Culture,1111 N CAPITOL ST NE,WASHINGTON,DC,20002-7502,,"Arts & Culture organization in WASHINGTON, DC with annual revenue of approximately $325M",
MUSEUM OF MODERN ART,131624100,Arts & Culture,11 W 53RD ST,NEW YORK,NY,10019-5401,,"Arts & Culture organization in NEW YORK, NY with annual revenue of approximately $324M",
THE GOOD SAMARITAN HOSPITAL OF LEBANON PENNSYLVANIA,230794160,Health,1001 S GEORGE ST,YORK,PA,17403-3676,,"Health organization in YORK, PA with annual revenue of approximately $324M",
BUTLER HEALTHCARE PROVIDERS,250965274,Health,1 HOSPITAL WAY,BUTLER,PA,16001-4670,,"Health organization in BUTLER, PA with annual revenue of approximately $324M",
NATIONAL ACADEMY OF SCIENCES,530196932,Research,2101 CONSTITUTION AVE NW,WASHINGTON,DC,20418-0007,,"Research organization in WASHINGTON, DC with annual revenue of approximately $324M",
FAIRFIELD MEDICAL CENTER,310645626,Health,401 N EWING ST,LANCASTER,OH,43130-3372,,"Health organization in LANCASTER, OH with annual revenue of approximately $324M",
CATHOLIC MEDICAL MISSION BOARD INC,135602319,International,3301 11TH ST,LONG IS CITY,NY,11106-4910,,"International organization in LONG IS CITY, NY with annual revenue of approximately $324M",
THE MENTAL HEALTH ASSOCIATION OF NEW YORK CITY INC,132637308,Other,80 PINE ST19TH FLOOR,NEW YORK,NY,10005-1702,,"Other organization in NEW YORK, NY with annual revenue of approximately $324M",
MIAMI CHILDRENS HEALTH SYSTEM INC,453481327,Health,3100 SW 62ND AVE,MIAMI,FL,33155-3009,,"Health organization in MIAMI, FL with annual revenue of approximately $324M",
CARLE HEALTH CARE INCORPORATED,371140016,Health,611 W PARK ST,URBANA,IL,61801-2529,,"Health organization in URBANA, IL with annual revenue of approximately $323M",
COXHEALTH,471087427,Health,1423 N JEFFERSON AVE,SPRINGFIELD,MO,65802-1917,,"Health organization in SPRINGFIELD, MO with annual revenue of approximately $323M",
MERRIMACK COLLEGE,042103731,Education,315 TURNPIKE ST,NORTH ANDOVER,MA,01845-5806,,"Education organization in NORTH ANDOVER, MA with annual revenue of approximately $323M",
PURDUE RESEARCH FOUNDATION,351052049,Education,1281 WIN HENTSCHEL BLVD,WEST LAFAYETTE,IN,47906-4335,,"Education organization in WEST LAFAYETTE, IN with annual revenue of approximately $322M",
INTERNATIONAL AMERICAN EDUCATION FEDERATION INC,274549127,Education,2021 LAKESIDE BLVD,RICHARDSON,TX,75082-4301,,"Education organization in RICHARDSON, TX with annual revenue of approximately $322M",
PROVIDENT RESOURCES GROUP INC,582492101,Health,5565 BANKERS AVE,BATON ROUGE,LA,70808-2608,,"Health organization in BATON ROUGE, LA with annual revenue of approximately $321M",
THE HEALTH SCIENCE CENTER AT,112418771,Education,450 CLARKSON AVE MSC 1281,BROOKLYN,NY,11203-2012,,"Education organization in BROOKLYN, NY with annual revenue of approximately $321M",
UNIVERSITY OF GEORGIA RESEARCH FOUNDATION INC,581353149,Education,324 BUSINESS SRVCS 456 E BROAD ST,ATHENS,GA,30602-0001,,"Education organization in ATHENS, GA with annual revenue of approximately $320M",
BUTLER UNIVERSITY,350867977,Education,4600 SUNSET AVE,INDIANAPOLIS,IN,46208-3443,,"Education organization in INDIANAPOLIS, IN with annual revenue of approximately $320M",
EPHRATA COMMUNITY HOSPITAL,231370484,Health,PO BOX 2767,YORK,PA,17405-2767,,"Health organization in YORK, PA with annual revenue of approximately $320M",
GALION COMMUNITY HOSPITAL,344451872,Health,269 PORTLAND WAY S,GALION,OH,44833-2399,,"Health organization in GALION, OH with annual revenue of approximately $320M",
MERCY MEDICAL CENTER,111635088,Health,1000 N VILLAGE AVE,ROCKVILLE CTR,NY,11570-1000,,"Health organization in ROCKVILLE CTR, NY with annual revenue of approximately $319M",
CENTRAL VERMONT MEDICAL CENTER INC HCSR,222547186,Health,130 FISHER ROAD,BERLIN,VT,05602-9516,,"Health organization in BERLIN, VT with annual revenue of approximately $319M",
LOMA LINDA UNIVERSITY MEDICAL CENTER-MURRIETA,371705906,Other,PO BOX 2000,LOMA LINDA,CA,92354-0200,,"Other organization in LOMA LINDA, CA with annual revenue of approximately $319M",
SHEPPARD PRATT HEALTH SYSTEM INC,520591684,Health,6501 N CHARLES ST,BALTIMORE,MD,21204-6819,,"Health organization in BALTIMORE, MD with annual revenue of approximately $319M",
CENTRACARE CLINIC,411806657,Health,1200 6TH AVE N,SAINT CLOUD,MN,56303-2735,,"Health organization in SAINT CLOUD, MN with annual revenue of approximately $319M",
SOUTHERN HEALTH CARE ALLIANCE,273325657,Health,2801 VIA FORTUNA STE 500,AUSTIN,TX,78746-7573,,"Health organization in AUSTIN, TX with annual revenue of approximately $318M",
HEALTH PLAN OF CAREOREGON INC,463264330,Health,315 SW 5TH AVE,PORTLAND,OR,97204-1703,,"Health organization in PORTLAND, OR with annual revenue of approximately $318M",
EDUCATIONAL CREDIT MANAGEMENT CORPORATION,411778617,Community,111 WASHINGTON AVE S1400,MINNEAPOLIS,MN,55401-0000,,"Community organization in MINNEAPOLIS, MN with annual revenue of approximately $318M",
ASPIRE PUBLIC SCHOOLS,943311088,Education,1001 22ND AVE STE 100,OAKLAND,CA,94606-5232,,"Education organization in OAKLAND, CA with annual revenue of approximately $317M",
COMBINED JEWISH PHILANTHROPIES OF GREATER BOSTON INC,042103559,Community,126 HIGH ST FL 2,BOSTON,MA,02110-2743,,"Community organization in BOSTON, MA with annual revenue of approximately $317M",
LICKING MEMORIAL HOSPITAL,314379519,Health,1320 W MAIN ST,NEWARK,OH,43055-1822,,"Health organization in NEWARK, OH with annual revenue of approximately $317M",
YMCA OF SAN DIEGO COUNTY,952039198,Human Services,3708 RUFFIN RD,SAN DIEGO,CA,92123-1812,,"Human Services organization in SAN DIEGO, CA with annual revenue of approximately $317M",
HARVARD BUSINESS SCHOOL PUBLISHING CORPORATION,043177990,Arts & Culture,20 GUEST STREETSUITE 400,BRIGHTON,MA,02135-0000,,"Arts & Culture organization in BRIGHTON, MA with annual revenue of approximately $317M",
INTEGRIS SOUTH OKLAHOMA CITY HOSPITAL CORPORATION,731089149,Health,3001 QUAIL SPRINGS PKWY,OKLAHOMA CITY,OK,73134-2640,,"Health organization in OKLAHOMA CITY, OK with annual revenue of approximately $317M",
RESOURCES FOR HUMAN DEVELOPMENT INC,231727133,Human Services,4700 WISSAHICKON AVE STE 126,PHILADELPHIA,PA,19144-4248,,"Human Services organization in PHILADELPHIA, PA with annual revenue of approximately $316M",
COMMONSPIRIT OREGON,930386868,Health,2700 NW STEWART PKWY,ROSEBURG,OR,97471-1281,,"Health organization in ROSEBURG, OR with annual revenue of approximately $316M",
NATIONAL GALLERY OF ART,536001666,Arts & Culture,2000 S CLUB DR,LANDOVER,MD,20785-3228,,"Arts & Culture organization in LANDOVER, MD with annual revenue of approximately $315M",
THE UNIVERSITY OF TENNESSEE FOUNDAT ION INC,621844686,Education,1525 UNIVERSITY AVENUE ROOM 223,KNOXVILLE,TN,37921-4848,,"Education organization in KNOXVILLE, TN with annual revenue of approximately $315M",
BAPTIST MEMORIAL HOSPITAL-NORTH MISSISSIPPI INC,640772726,Health,1100 BELK BLVD,OXFORD,MS,38655-5242,,"Health organization in OXFORD, MS with annual revenue of approximately $314M",
H LEE MOFFITT CANCER CENTER AND RESEARCH INSTITUTE INC,592451713,Health,12902 MAGNOLIA DRIVE,TAMPA,FL,33612-9416,,"Health organization in TAMPA, FL with annual revenue of approximately $314M",
COMMUNITY HOSPITALS OF INDIANA INC,351088640,Health,1402 E COUNTY LINE RD,INDIANAPOLIS,IN,46227-0963,,"Health organization in INDIANAPOLIS, IN with annual revenue of approximately $314M",
MATER ACADEMY INC,650857507,Education,6340 SUNSET DR,MIAMI,FL,33143-4836,,"Education organization in MIAMI, FL with annual revenue of approximately $314M",
ST JOHNS RIVERSIDE HOSPITAL,131740126,Health,967 N BROADWAY,YONKERS,NY,10701-1301,,"Health organization in YONKERS, NY with annual revenue of approximately $314M",
MEMORIAL HOSPITAL FLAGLER INC,592951990,Health,60 MEMORIAL MEDICAL PKWY,PALM COAST,FL,32164-5980,,"Health organization in PALM COAST, FL with annual revenue of approximately $313M",
JOHNSON & WALES UNIVERSITY,050306206,Education,8 ABBOTT PARK PL,PROVIDENCE,RI,02903-3703,,"Education organization in PROVIDENCE, RI with annual revenue of approximately $313M",
LAKE POINTE OPERATING COMPANY LLC,260194016,Health,301 N WASHINGTON AVE,DALLAS,TX,75246-1754,,"Health organization in DALLAS, TX with annual revenue of approximately $312M",
LEGACY MERIDIAN PARK HOSPITAL,930618975,Health,19300 SW 65TH AVE,TUALATIN,OR,97062-7706,,"Health organization in TUALATIN, OR with annual revenue of approximately $312M",
THE US CHARITABLE GIFT TRUST,311663020,Community,ONE POST OFFICE SQUARE,BOSTON,MA,02109-2106,,"Community organization in BOSTON, MA with annual revenue of approximately $311M",
GREATER GOOD CHARITIES,204846675,Community,301 UNION ST UNIT 21308,SEATTLE,WA,98111-1614,,"Community organization in SEATTLE, WA with annual revenue of approximately $311M",
PERT FOUNDATION,810585993,Community,33 S STATE STREET 750,CHICAGO,IL,60603-2804,,"Community organization in CHICAGO, IL with annual revenue of approximately $311M",
SECOND HARVEST OF SILICON VALLEY,942614101,Human Services,750 CURTNER AVE,SAN JOSE,CA,95125-2113,,"Human Services organization in SAN JOSE, CA with annual revenue of approximately $311M",
MAXAID,352577906,Health,1416 NW 46TH ST STE 105 PMB 146,SEATTLE,WA,98107-4622,,"Health organization in SEATTLE, WA with annual revenue of approximately $311M",
POTOMAC HOSPITAL CORPORATION OF PRINCE WILLIAM,540853898,Health,1300 SENTARA PARK,VIRGINIA BCH,VA,23464-5884,,"Health organization in VIRGINIA BCH, VA with annual revenue of approximately $311M",
UNIVERSITY CORPORATION FOR ATMOSPHERIC RESEARCH,840412668,Research,PO BOX 3000,BOULDER,CO,80307-3000,,"Research organization in BOULDER, CO with annual revenue of approximately $310M",
BAYLOR MEDICAL CENTER AT WAXAHACHIE,751844139,Health,301 N WASHINGTON AVE,DALLAS,TX,75246-1754,,"Health organization in DALLAS, TX with annual revenue of approximately $310M",
BAPTIST MEMORIAL HOSPITAL-GOLDEN TRIANGLE INC,621519754,Health,2520 5TH ST N,COLUMBUS,MS,39705-2008,,"Health organization in COLUMBUS, MS with annual revenue of approximately $310M",
SAINT THOMAS MEDICAL PARTNERS,621529858,Health,PO BOX 45998,SAINT LOUIS,MO,63145-5998,,"Health organization in SAINT LOUIS, MO with annual revenue of approximately $309M",
SECOND HARVEST HEARTLAND,237417654,Human Services,7101 WINNETKA AVE N,BROOKLYN PARK,MN,55428-1619,,"Human Services organization in BROOKLYN PARK, MN with annual revenue of approximately $309M",
CARROLL HOSPITAL CENTER INC,521452024,Health,200 MEMORIAL AVE,WESTMINSTER,MD,21157-5726,,"Health organization in WESTMINSTER, MD with annual revenue of approximately $308M",
MERCY HOSPITAL JOPLIN,270814858,Health,100 MERCY WAY,JOPLIN,MO,64804-4524,,"Health organization in JOPLIN, MO with annual revenue of approximately $308M",
SOUTHCOAST PHYSICIANS GROUP INC,222703314,Health,200 MILL RD STE 180,FAIRHAVEN,MA,02719-5255,,"Health organization in FAIRHAVEN, MA with annual revenue of approximately $308M",
REDMOND PARK HOSPITAL LLC,581123037,Other,501 REDMOND RD NW,ROME,GA,30165-1415,,"Other organization in ROME, GA with annual revenue of approximately $308M",
ASCENSION ALL SAINTS HOSPITAL INC,391264986,Health,PO BOX 45998,SAINT LOUIS,MO,63145-5998,,"Health organization in SAINT LOUIS, MO with annual revenue of approximately $308M",
CHILDRENS HOSPITAL AND HEALTH SYSTEM INC,391500074,Health,8915 W CONNELL AVE,MILWAUKEE,WI,53226-3067,,"Health organization in MILWAUKEE, WI with annual revenue of approximately $308M",
CHESHIRE MEDICAL CENTER,020354549,Health,580 COURT ST,KEENE,NH,03431-1718,,"Health organization in KEENE, NH with annual revenue of approximately $307M",
MCLAREN OAKLAND,381428164,Health,50 N PERRY ST,PONTIAC,MI,48342-2217,,"Health organization in PONTIAC, MI with annual revenue of approximately $307M",
INTEGRIS RURAL HEALTH INC,731444504,Health,3001 QUAIL SPRINGS PKWY,OKLAHOMA CITY,OK,73134-2640,,"Health organization in OKLAHOMA CITY, OK with annual revenue of approximately $307M",
OHIO CHILD CARE RESOURCE AND REFERRAL ASSOCIATION,311339322,Other,2469 STELZER ROAD STE 160,COLUMBUS,OH,43219-3129,,"Other organization in COLUMBUS, OH with annual revenue of approximately $306M",
JOHN F KENNEDY CENTER FOR THE PERFORMING ARTS,530245017,Arts & Culture,2700 F ST NW,WASHINGTON,DC,20566-0001,,"Arts & Culture organization in WASHINGTON, DC with annual revenue of approximately $306M",
WEST GEORGIA MEDICAL CENTER INC,205497506,Health,793 SAWYER RD,MARIETTA,GA,30062-2222,,"Health organization in MARIETTA, GA with annual revenue of approximately $306M",
CHRISTUS HEALTH SOUTHWESTERN LOUISIANA,720411322,Health,524 DR MICHAEL DEBAKEY DRIVE,LAKE CHARLES,LA,70601-5725,,"Health organization in LAKE CHARLES, LA with annual revenue of approximately $306M",
SHORE HEALTH SYSTEM INC,520610538,Health,900 ELKRIDGE LANDING RD 3W,LINTHICUM HEIGHTS,MD,21090-2924,,"Health organization in LINTHICUM HEIGHTS, MD with annual revenue of approximately $306M",
GILLETTE CHILDRENS SPECIALTY HEALTH CARE,363379150,Health,200 UNIVERSITY AVE E,SAINT PAUL,MN,55101-2507,,"Health organization in SAINT PAUL, MN with annual revenue of approximately $305M",
MEMORIAL HERMANN MEDICAL GROUP,204923281,Health,929 GESSNER RD STE 1900,HOUSTON,TX,77024-2317,,"Health organization in HOUSTON, TX with annual revenue of approximately $305M",
ST ELIZABETHS HOSPITAL OF THE HOSPITAL SISTERS OF THE THIRD ORDE,370663567,Health,4936 LAVERNA RD,SPRINGFIELD,IL,62707-9797,,"Health organization in SPRINGFIELD, IL with annual revenue of approximately $305M",
AMERICAN KIDNEY FUND INC,237124261,Other,11921 ROCKVILLE PIKE STE 300,ROCKVILLE,MD,20852-2737,,"Other organization in ROCKVILLE, MD with annual revenue of approximately $304M",
PACMED CLINICS,562290878,Health,1200 12TH AVE S,SEATTLE,WA,98144-2733,,"Health organization in SEATTLE, WA with annual revenue of approximately $304M",
ST JOSEPHS HOSPITAL YONKERS,131740127,Health,127 S BROADWAY,YONKERS,NY,10701-4006,,"Health organization in YONKERS, NY with annual revenue of approximately $303M",
ASSOCIATION OF AMERICAN MEDICAL COLLEGES,362169124,Education,655 K ST NW STE 100,WASHINGTON,DC,20001-2399,,"Education organization in WASHINGTON, DC with annual revenue of approximately $303M",
UNIVERSITY OF NEW ENGLAND,010211810,Education,11 HILLS BEACH RD,BIDDEFORD,ME,04005-9526,,"Education organization in BIDDEFORD, ME with annual revenue of approximately $303M",
UNIVERSITY OF OREGON FOUNDATION,936015767,Education,1720 E 13TH AVE STE 410,EUGENE,OR,97403-2253,,"Education organization in EUGENE, OR with annual revenue of approximately $302M",
T ROWE PRICE PROGRAM FOR CHARITABLE GIVING INC,311709466,Community,1307 POINT ST,BALTIMORE,MD,21231-3827,,"Community organization in BALTIMORE, MD with annual revenue of approximately $302M",
FAMILY HEALTHCARE NETWORK,942525145,Health,305 E CENTER AVE,VISALIA,CA,93291-6331,,"Health organization in VISALIA, CA with annual revenue of approximately $302M",
HANNIBAL REGIONAL HEALTHCARE SYSTEM INC,430662495,Health,PO BOX 551,HANNIBAL,MO,63401-0551,,"Health organization in HANNIBAL, MO with annual revenue of approximately $301M",
ASCENSION PROVIDENCE,741109636,Health,PO BOX 45998,SAINT LOUIS,MO,63145-5998,,"Health organization in SAINT LOUIS, MO with annual revenue of approximately $301M",
CAREPLUS BERGEN,822081292,Health,230 E RIDGEWOOD AVE,PARAMUS,NJ,07652-4142,,"Health organization in PARAMUS, NJ with annual revenue of approximately $301M",
TORRANCE HEALTH ASSOCIATION INC,330073515,Health,3330 LOMITA BLVD,TORRANCE,CA,90505-5002,,"Health organization in TORRANCE, CA with annual revenue of approximately $301M",
GOODWILL INDUSTRIES OF CENTRAL ARIZONA INC,860104415,Other,2626 W BERYL AVE,PHOENIX,AZ,85021-1668,,"Other organization in PHOENIX, AZ with annual revenue of approximately $300M",
COMMUNITY HEALTH ASSOCIATION OF SPOKANE,911641797,Health,611 N IRON BRIDGE WAY,SPOKANE,WA,99202-4932,,"Health organization in SPOKANE, WA with annual revenue of approximately $300M",
CHRISTIAN BROADCASTING NETWORK INC,540678752,Religion,977 CENTERVILLE TPKE,VIRGINIA BCH,VA,23463-0001,,"Religion organization in VIRGINIA BCH, VA with annual revenue of approximately $300M",
FAR NORTHERN COORDINATING COUNCIL ON DEVELOPMENTAL DISABILITIES,941648724,Human Services,1900 CHURN CREEK ROAD SUITE 11,REDDING,CA,96002-0292,,"Human Services organization in REDDING, CA with annual revenue of approximately $299M",
ILLINOIS NETWORK OF CHILD CARE RESOURCE AND REFERRAL AGENCIES,364096312,Human Services,1226 TOWANDA AVE,BLOOMINGTON,IL,61701-3424,,"Human Services organization in BLOOMINGTON, IL with annual revenue of approximately $299M",
ST OLAF COLLEGE,410693979,Education,1520 SAINT OLAF AVE,NORTHFIELD,MN,55057-1574,,"Education organization in NORTHFIELD, MN with annual revenue of approximately $299M",
SHANNON CLINIC,752600873,Health,PO BOX 22000,SAN ANGELO,TX,76902-7200,,"Health organization in SAN ANGELO, TX with annual revenue of approximately $299M",
SKAGGS COMMUNITY HOSPITAL ASSOCIATION,440584290,Health,525 BRANSON LANDING BOULEVARD,BRANSON,MO,65616-2052,,"Health organization in BRANSON, MO with annual revenue of approximately $299M",
ASPIRUS RHINELANDER & TOMAHAWK HOSPITALS & CLINICS INC,391390638,Health,2200 WESTWOOD DR,WAUSAU,WI,54401-7806,,"Health organization in WAUSAU, WI with annual revenue of approximately $299M",
SAMFORD UNIVERSITY,630312914,Education,800 LAKESHORE DR,BIRMINGHAM,AL,35229-0001,,"Education organization in BIRMINGHAM, AL with annual revenue of approximately $299M",
PLAINVIEW HOSPITAL,113241243,Health,972 BRUSH HOLLOW RD 5TH FL,WESTBURY,NY,11590-1740,,"Health organization in WESTBURY, NY with annual revenue of approximately $299M",
BAPTIST HEALTH SYSTEM INC,592487136,Health,1660 PRUDENTIAL DR STE 203,JACKSONVILLE,FL,32207-8185,,"Health organization in JACKSONVILLE, FL with annual revenue of approximately $299M",
ENVIRONMENTAL DEFENSE FUND INCORPORATED,116107128,Environment,257 PARK AVENUE SOUTH,NEW YORK,NY,10010-7304,,"Environment organization in NEW YORK, NY with annual revenue of approximately $298M",
VETERAN TICKETS FOUNDATION,262291955,Community,1255 W RIO SALADO PARKWAY,TEMPE,AZ,85281-2816,,"Community organization in TEMPE, AZ with annual revenue of approximately $298M",
CENTRAL FLORIDA BEHAVIORAL HEALTH NETWORK INC,593467610,Human Services,719 S US HIGHWAY 301,TAMPA,FL,33619-4349,,"Human Services organization in TAMPA, FL with annual revenue of approximately $298M",
MEMORIAL HOSPITAL,381358208,Health,826 W KING ST,OWOSSO,MI,48867-2120,,"Health organization in OWOSSO, MI with annual revenue of approximately $298M",
MCLAREN NORTHERN MICHIGAN,382146751,Health,416 CONNABLE AVE,PETOSKEY,MI,49770-2212,,"Health organization in PETOSKEY, MI with annual revenue of approximately $298M",
ASCENDIUM EDUCATION SOLUTIONS INC,391853833,Education,38 BUTTONWOOD CT,MADISON,WI,53718-2156,,"Education organization in MADISON, WI with annual revenue of approximately $298M",
NORTHWEST HOSPITAL CENTER INC,521372665,Health,5401 OLD COURT RD,RANDALLSTOWN,MD,21133-5103,,"Health organization in RANDALLSTOWN, MD with annual revenue of approximately $298M",
ST HELENA HOSPITAL,941279779,Health,1 ADVENTIST HEALTH WAY,ROSEVILLE,CA,95661-3266,,"Health organization in ROSEVILLE, CA with annual revenue of approximately $298M",
PUBLIC HEALTH INSTITUTE,941646278,Health,555 12TH ST STE 600,OAKLAND,CA,94607-4067,,"Health organization in OAKLAND, CA with annual revenue of approximately $297M",
FAIRLEIGH DICKINSON UNIVERSITY,221494434,Education,1000 RIVER ROAD MAIL CODE H-DH1-01,TEANECK,NJ,07666-1938,,"Education organization in TEANECK, NJ with annual revenue of approximately $297M",
LIMA MEMORIAL JOINT OPERATING COMPANY,341883284,Health,1001 BELLEFONTAINE AVE,LIMA,OH,45804-2800,,"Health organization in LIMA, OH with annual revenue of approximately $297M",
MATTHEW 25 MINISTRIES INC,311348100,International,11060 KENWOOD RD,BLUE ASH,OH,45242-1816,,"International organization in BLUE ASH, OH with annual revenue of approximately $297M",
WHITE COUNTY MEDICAL CENTER,710772737,Health,3214 E RACE AVE,SEARCY,AR,72143-4810,,"Health organization in SEARCY, AR with annual revenue of approximately $297M",
SCOTLAND MEMORIAL HOSPITAL INCORPORATED,560583151,Health,500 LAUCHWOOD DR,LAURINBURG,NC,28352-5501,,"Health organization in LAURINBURG, NC with annual revenue of approximately $296M",
SUN RIVER HEALTH INC,132828349,Health,1037 MAIN ST,PEEKSKILL,NY,10566-2913,,"Health organization in PEEKSKILL, NY with annual revenue of approximately $296M",
STURDY MEMORIAL HOSPITAL,042768252,Health,PO BOX 2963,ATTLEBORO,MA,02703-0963,,"Health organization in ATTLEBORO, MA with annual revenue of approximately $296M",
LODI MEMORIAL HOSPITAL ASSOCIATION INC,941044474,Health,1 ADVENTIST HEALTH WAY,ROSEVILLE,CA,95661-3266,,"Health organization in ROSEVILLE, CA with annual revenue of approximately $296M",
MYMICHIGAN HEALTH,382459948,Health,4000 WELLNESS DR,MIDLAND,MI,48670-2000,,"Health organization in MIDLAND, MI with annual revenue of approximately $296M",
PRIDE INDUSTRIES,941650529,Human Services,10030 FOOTHILLS BLVD,ROSEVILLE,CA,95747-7102,,"Human Services organization in ROSEVILLE, CA with annual revenue of approximately $295M",
DENISON UNIVERSITY,314379459,Education,100 W COLLEGE ST,GRANVILLE,OH,43023-1100,,"Education organization in GRANVILLE, OH with annual revenue of approximately $295M",
NORTH PLATTE NEBRASKA HOSPITAL CORPORATION,470662290,Health,PO BOX 1167,NORTH PLATTE,NE,69103-1167,,"Health organization in NORTH PLATTE, NE with annual revenue of approximately $295M",
ST MARYS HOSPITAL INC,580566223,Health,1230 BAXTER ST,ATHENS,GA,30606-3712,,"Health organization in ATHENS, GA with annual revenue of approximately $294M",
MYMICHIGAN MEDICAL CENTER ALPENA,386000029,Health,1501 W CHISHOLM ST,ALPENA,MI,49707-1401,,"Health organization in ALPENA, MI with annual revenue of approximately $294M",
BAXTER COUNTY REGIONAL HOSPITAL INC,710561765,Health,624 HOSPITAL DR,MOUNTAIN HOME,AR,72653-2955,,"Health organization in MOUNTAIN HOME, AR with annual revenue of approximately $294M",
CHARTER INSTITUTE AT ERSKINE,823227586,Education,1201 MAIN ST STE 2500,COLUMBIA,SC,29201-3296,,"Education organization in COLUMBIA, SC with annual revenue of approximately $294M",
THE ASSOCIATION OF CHRMC AND UNIVERSITY PHYSICIANS,911336707,Health,4500 SAND POINT WAY NE STE 100,SEATTLE,WA,98105-3954,,"Health organization in SEATTLE, WA with annual revenue of approximately $294M",
COLORADO COLLEGE TH,840402510,Education,14 E CACHE LA POUDRE ST,COLORADO SPGS,CO,80903-3243,,"Education organization in COLORADO SPGS, CO with annual revenue of approximately $294M",
TEXAS HEALTH HUGULEY INC,452694620,Health,11801 SOUTH FWY,BURLESON,TX,76028-7021,,"Health organization in BURLESON, TX with annual revenue of approximately $294M",
VIRGINIA TECH FOUNDATION INC,540721690,Education,902 PRICES FORK RD STE 4400,BLACKSBURG,VA,24060-6811,,"Education organization in BLACKSBURG, VA with annual revenue of approximately $293M",
LEESBURG REGIONAL MEDICAL CENTER INC,590878982,Health,600 E DIXIE AVE,LEESBURG,FL,34748-5925,,"Health organization in LEESBURG, FL with annual revenue of approximately $293M",
EARLY LEARNING COALITION OF MIAMI- DADE MONROE,651122406,Education,2555 PONCE DE LEON BLVD,CORAL GABLES,FL,33134-6010,,"Education organization in CORAL GABLES, FL with annual revenue of approximately $293M",
THE GOOD SAMARITAN HOSPITAL OF MARYLAND INC,520591607,Health,5601 LOCH RAVEN BLVD,BALTIMORE,MD,21239-2950,,"Health organization in BALTIMORE, MD with annual revenue of approximately $293M",
CLINICAL CARE ASSOCIATES OF THE UNIVERSITY OF PENNSYLVANIA HEALTH,232729852,Health,1500 MARKET ST 10TH FLOOR,PHILADELPHIA,PA,19102-2100,,"Health organization in PHILADELPHIA, PA with annual revenue of approximately $293M",
WHITE RIVER HEALTH SYSTEM INC,710411459,Health,1710 HARRISON ST,BATESVILLE,AR,72501-7303,,"Health organization in BATESVILLE, AR with annual revenue of approximately $292M",
SKIDMORE COLLEGE,141338562,Education,815 N BROADWAY,SARATOGA SPGS,NY,12866-1632,,"Education organization in SARATOGA SPGS, NY with annual revenue of approximately $292M",
ALBANY MED HEALTH SYSTEM,141641730,Health,43 NEW SCOTLAND AVE,ALBANY,NY,12208-3412,,"Health organization in ALBANY, NY with annual revenue of approximately $292M",
BETH ISRAEL LAHEY HEALTH PHARMACY INC,822526816,Health,CO BILH TAX 529 MAIN ST 4TH FL,CHARLESTOWN,MA,02129-0000,,"Health organization in CHARLESTOWN, MA with annual revenue of approximately $292M",
ST JOSEPH S MEDICAL CENTER,410695602,Health,523 N 3RD ST,BRAINERD,MN,56401-3054,,"Health organization in BRAINERD, MN with annual revenue of approximately $292M",
CYSTIC FIBROSIS FOUNDATION,131930701,Health,4550 MONTGOMERY AVESTE 1100 N,BETHESDA,MD,20814-0000,,"Health organization in BETHESDA, MD with annual revenue of approximately $292M",
CALIFORNIA COMMUNITY FOUNDATION,953510055,Community,717 WEST TEMPLE STREET,LOS ANGELES,CA,90012-2665,,"Community organization in LOS ANGELES, CA with annual revenue of approximately $291M",
ST LUKES CLINIC COORDINATED CARE LTD,455195864,Health,190 E BANNOCK ST,BOISE,ID,83712-6241,,"Health organization in BOISE, ID with annual revenue of approximately $291M",
PUBLIC HEALTH MANAGEMENT CORPORATION,237221025,Health,1500 MARKET ST,PHILADELPHIA,PA,19102-2100,,"Health organization in PHILADELPHIA, PA with annual revenue of approximately $290M",
SUMMIT HEALTHCARE ASSOCIATION,860320447,Health,2200 E SHOW LOW LAKE RD,SHOW LOW,AZ,85901-7831,,"Health organization in SHOW LOW, AZ with annual revenue of approximately $290M",
SB CLINICAL PRACTICE MANAGEMENT PLAN INC,461787308,Health,PO BOX 1554,STONY BROOK,NY,11790-0988,,"Health organization in STONY BROOK, NY with annual revenue of approximately $290M",
TRINITY HEALTH OF NEW ENGLAND PROVIDER NETWORK ORGANIZATION INC,061450168,Other,114 WOODLAND STREET MS-510358,HARTFORD,CT,06105-1208,,"Other organization in HARTFORD, CT with annual revenue of approximately $290M",
BEAVERCREEK MEDICAL CENTER,270712680,Health,1 PRESTIGE PLACE 910,MIAMISBURG,OH,45342-3794,,"Health organization in MIAMISBURG, OH with annual revenue of approximately $290M",
TEXAS HEALTH PRESBYTERIAN HOSPITAL DENTON,432008974,Health,3000 N INTERSTATE 35,DENTON,TX,76201-5119,,"Health organization in DENTON, TX with annual revenue of approximately $289M",
EDWARD VIA VIRGINIA COLLEGE OF OSTEOPATHIC MEDICINE,542052107,Education,2265 KRAFT DR,BLACKSBURG,VA,24060-6360,,"Education organization in BLACKSBURG, VA with annual revenue of approximately $289M",
FLETCHER HOSPITAL INC,560543246,Health,100 HOSPITAL DR,HENDERSONVLLE,NC,28792-5272,,"Health organization in HENDERSONVLLE, NC with annual revenue of approximately $289M",
BAPTIST HEALTH DEACONESS MADISONVILLE INC,610654587,Health,900 HOSPITAL DR,MADISONVILLE,KY,42431-1644,,"Health organization in MADISONVILLE, KY with annual revenue of approximately $289M",
CATHOLIC CHARITIES DIOCESE OF FORT WORTH,750808769,Human Services,249 W THORNHILL DR,FORT WORTH,TX,76115-2621,,"Human Services organization in FORT WORTH, TX with annual revenue of approximately $289M",
RF CATALYTIC CAPITAL INC,852150251,Community,420 FIFTH AVENUE,NEW YORK,NY,10018-2729,,"Community organization in NEW YORK, NY with annual revenue of approximately $289M",
NEW YORK STATE INDUSTRIES FOR THE DISABLED INC,132841179,Other,11 COLUMBIA CIR,ALBANY,NY,12203-5156,,"Other organization in ALBANY, NY with annual revenue of approximately $288M",
FURMAN UNIVERSITY,570314395,Education,3300 POINSETT HWY,GREENVILLE,SC,29613-0002,,"Education organization in GREENVILLE, SC with annual revenue of approximately $288M",
MEDSTAR SOUTHERN MARYLAND HOSPITAL CENTER INC,460726303,Health,10980 GRANTCHESTER WAY,COLUMBIA,MD,21044-6097,,"Health organization in COLUMBIA, MD with annual revenue of approximately $288M",
AMERICAN FRIENDS OF MAGEN DAVID ADOM,131790719,International,20 W 36TH ST STE 1100,NEW YORK,NY,10018-9784,,"International organization in NEW YORK, NY with annual revenue of approximately $288M",
SPELMAN COLLEGE,580566243,Education,350 SPELMAN LN SW,ATLANTA,GA,30314-4395,,"Education organization in ATLANTA, GA with annual revenue of approximately $288M",
BAPTIST MEMORIAL HOSPITAL - JONESBORO INC,261214372,Health,350 N HUMPHREYS BLVD,MEMPHIS,TN,38120-2177,,"Health organization in MEMPHIS, TN with annual revenue of approximately $288M",
ST PETERS HEALTH PARTNERS MEDICAL ASSOCIATES PC,461177336,Health,315 S MANNING BLVD,ALBANY,NY,12208-1707,,"Health organization in ALBANY, NY with annual revenue of approximately $288M",
GOODWILL INDUSTRIES OF SOUTHERN CALIFORNIA,951641441,Human Services,342 N SAN FERNANDO RD,LOS ANGELES,CA,90031-1730,,"Human Services organization in LOS ANGELES, CA with annual revenue of approximately $288M",
KOHLER TR FOR CLEAN WATER,326513655,Environment,725 WOODLAKE RD STE X,KOHLER,WI,53044-1354,,"Environment organization in KOHLER, WI with annual revenue of approximately $287M",
UNIVERSITY OF HARTFORD,060731360,Education,200 BLOOMFIELD AVE,WEST HARTFORD,CT,06117-1545,,"Education organization in WEST HARTFORD, CT with annual revenue of approximately $287M",
FIRELANDS REGIONAL MEDICAL CENTER,344428218,Health,1111 HAYES AVE,SANDUSKY,OH,44870-3323,,"Health organization in SANDUSKY, OH with annual revenue of approximately $287M",
MERCY SHIPS,262414132,International,15862 STATE HIGHWAY 110 N,LINDALE,TX,75771-6763,,"International organization in LINDALE, TX with annual revenue of approximately $287M",
KINGS PHYSICIAN SERVICES PC,462333282,Health,506 6TH ST,BROOKLYN,NY,11215-3609,,"Health organization in BROOKLYN, NY with annual revenue of approximately $286M",
RIDDLE MEMORIAL HOSPITAL,231529076,Health,240 N RADNOR CHESTER RD STE170,RADNOR,PA,19087-5170,,"Health organization in RADNOR, PA with annual revenue of approximately $286M",
BRYANT UNIVERSITY,050258810,Education,1150 DOUGLAS PIKE,SMITHFIELD,RI,02917-1291,,"Education organization in SMITHFIELD, RI with annual revenue of approximately $286M",
ATLANTA COMMUNITY FOOD BANK INC,581376648,Human Services,3400 N DESERT DR,ATLANTA,GA,30344-5719,,"Human Services organization in ATLANTA, GA with annual revenue of approximately $286M",
UNITED STATES ENERGY FOUNDATION,831740146,Community,55 2ND ST STE 2400,SAN FRANCISCO,CA,94105-3492,,"Community organization in SAN FRANCISCO, CA with annual revenue of approximately $286M",
BECKMAN RESEARCH INSTITUTE,953432210,Health,1450 DUARTE RD,DUARTE,CA,91010-3008,,"Health organization in DUARTE, CA with annual revenue of approximately $285M",
FLORIDA BAR FOUNDATION INC,591004604,Human Services,175 LOOKOUT PL STE 100,MAITLAND,FL,32751-8434,,"Human Services organization in MAITLAND, FL with annual revenue of approximately $285M",
PRINCETON COMMUNITY HOSPITAL ASSOCIATION INC,550483245,Health,122 12TH ST,PRINCETON,WV,24740-2312,,"Health organization in PRINCETON, WV with annual revenue of approximately $285M",
BNY MELLON CHARITABLE GIFT FUND,300748315,Community,201 WASHINGTON STREET STE 024-0062,BOSTON,MA,02108-4414,,"Community organization in BOSTON, MA with annual revenue of approximately $284M",
YES PREP PUBLIC SCHOOLS INC,760563835,Education,5455 SOUTH LOOP EAST FWY,HOUSTON,TX,77033-0000,,"Education organization in HOUSTON, TX with annual revenue of approximately $284M",
WASHINGTON & LEE UNIVERSITY,540505977,Education,204 W WASHINGTON ST,LEXINGTON,VA,24450-2116,,"Education organization in LEXINGTON, VA with annual revenue of approximately $284M",
ALFRED I DUPONT CHARITABLE TRUST,590226560,Health,510 ALFRED DUPONT PL,JACKSONVILLE,FL,32202-4902,,"Health organization in JACKSONVILLE, FL with annual revenue of approximately $284M",
PHYSICIANS CLINIC INC,470687317,Health,825 S 169TH ST,OMAHA,NE,68118-9300,,"Health organization in OMAHA, NE with annual revenue of approximately $284M",
ANDERSON REGIONAL MEDICAL CENTER,640362400,Health,2124 14TH ST,MERIDIAN,MS,39301-4040,,"Health organization in MERIDIAN, MS with annual revenue of approximately $284M",
NEW YORK UNIVERSITY IN ABU DHABI CORPORATION,262652713,Education,C/O NYU 105 E 17TH ST ROOM 411,NEW YORK,NY,10003-0000,,"Education organization in NEW YORK, NY with annual revenue of approximately $284M",
METROPOLITAN OPERA ASSOCIATION INC,131624087,Arts & Culture,30 LINCOLN CENTER,NEW YORK,NY,10023-6922,,"Arts & Culture organization in NEW YORK, NY with annual revenue of approximately $283M",
CHURCH WORLD SERVICE INC,134080201,International,28606 PHILLIPS ST,ELKHART,IN,46514-1239,,"International organization in ELKHART, IN with annual revenue of approximately $283M",
ST JOSEPH HOSPITAL OF NASHUA NH,020222215,Health,172 KINSLEY ST,NASHUA,NH,03060-3648,,"Health organization in NASHUA, NH with annual revenue of approximately $283M",
TUBA CITY REGIONAL HEALTH CARE CORPORATION,043651340,Health,167 NORTH MAIN STREET,TUBA CITY,AZ,86045-0000,,"Health organization in TUBA CITY, AZ with annual revenue of approximately $283M",
SAINT LUKES HEALTH SYSTEM INC,431747502,Health,901 E 104TH ST,KANSAS CITY,MO,64131-4517,,"Health organization in KANSAS CITY, MO with annual revenue of approximately $283M",
TEMPLE UNIVERSITY HEALTH SYSTEM INC,232825881,Education,3509 N BROAD ST BOYER PAV 225,PHILADELPHIA,PA,19140-4105,,"Education organization in PHILADELPHIA, PA with annual revenue of approximately $283M",
GRAND VIEW HOSPITAL,231352181,Health,700 LAWN AVE,SELLERSVILLE,PA,18960-1548,,"Health organization in SELLERSVILLE, PA with annual revenue of approximately $282M",
GEORGIA TECH FOUNDATION INC,586043294,Education,760 SPRING ST NW,ATLANTA,GA,30308-1028,,"Education organization in ATLANTA, GA with annual revenue of approximately $282M",
PUBLIC HEALTH SOLUTIONS,135669201,Health,40 WORTH STREET,NEW YORK,NY,10013-2904,,"Health organization in NEW YORK, NY with annual revenue of approximately $282M",
HOUSTON HOSPITALS INC,711045290,Health,1601 WATSON BLVD,WARNER ROBINS,GA,31093-3431,,"Health organization in WARNER ROBINS, GA with annual revenue of approximately $282M",
MONMOUTH UNIVERSITY INC,210634584,Education,400 CEDAR AVE,W LONG BRANCH,NJ,07764-1898,,"Education organization in W LONG BRANCH, NJ with annual revenue of approximately $282M",
THE NEW YORK COMMUNITY TRUST,133062214,Community,909 THIRD AVENUE 22ND FL,NEW YORK,NY,10022-4752,,"Community organization in NEW YORK, NY with annual revenue of approximately $282M",
UNIVERSITY OF THE INCARNATE WORD,741109661,Education,4301 BROADWAY CPO 315,SAN ANTONIO,TX,78209-0000,,"Education organization in SAN ANTONIO, TX with annual revenue of approximately $282M",
MYMICHIGAN MEDICAL CENTER SAGINAW,380997730,Health,800 S WASHINGTON AVE,SAGINAW,MI,48601-2551,,"Health organization in SAGINAW, MI with annual revenue of approximately $282M",
FRIENDS OF THE ISRAEL DEFENSE FORCES,133156445,International,60 EAST 42ND STREET,NEW YORK,NY,10165-0006,,"International organization in NEW YORK, NY with annual revenue of approximately $281M",
GEMOLOGICAL INSTITUTE OF AMERICA INC,953797687,Education,5345 ARMADA DR,CARLSBAD,CA,92008-4602,,"Education organization in CARLSBAD, CA with annual revenue of approximately $281M",
HUDSON VALLEY HOSPITAL CENTER,131740120,Health,1980 CROMPOND RD,CORTLANDT MNR,NY,10567-4144,,"Health organization in CORTLANDT MNR, NY with annual revenue of approximately $281M",
DEACONESS MEMORIAL MEDICAL CENTER INC,350985964,Health,800 W 9TH ST,JASPER,IN,47546-2514,,"Health organization in JASPER, IN with annual revenue of approximately $281M",
THE HEALTH CARE AUTHORITY OF THE CITY OF ANNISTON,636000090,Health,PO BOX 2208,ANNISTON,AL,36202-2208,,"Health organization in ANNISTON, AL with annual revenue of approximately $280M",
LEESAR INC,263818222,Other,2727 WINKLER AVE,FORT MYERS,FL,33901-9358,,"Other organization in FORT MYERS, FL with annual revenue of approximately $280M",
OTERO COUNTY HOSPITAL ASSOCIATION,850138775,Health,2669 SCENIC DR,ALAMOGORDO,NM,88310-8700,,"Health organization in ALAMOGORDO, NM with annual revenue of approximately $280M",
EVANGELICAL COMMUNITY HOSPITAL,240795411,Health,1 HOSPITAL DR,LEWISBURG,PA,17837-9350,,"Health organization in LEWISBURG, PA with annual revenue of approximately $280M",
FIDELITY NON-PROFIT MANAGEMENT FOUNDATION,223195349,Community,7 WATER STREET,BOSTON,MA,02109-4100,,"Community organization in BOSTON, MA with annual revenue of approximately $279M",
ACCESS SERVICES INCORPORATED,954489711,Human Services,PO BOX 5728,EL MONTE,CA,91734-1728,,"Human Services organization in EL MONTE, CA with annual revenue of approximately $279M",
SSM HEALTH BUSINESSES,431333488,Health,12800 CORPORATE HILL DR,SAINT LOUIS,MO,63131-1833,,"Health organization in SAINT LOUIS, MO with annual revenue of approximately $279M",
NATIONAL YOUTH ADVOCATE PROGRAM,341404302,Human Services,1801 WATERMARK DR STE 200,COLUMBUS,OH,43215-7088,,"Human Services organization in COLUMBUS, OH with annual revenue of approximately $279M",
ASSISTANCE FUND INC,270270731,Health,8427 SOUTHPARK CIR STE 100,ORLANDO,FL,32819-9057,,"Health organization in ORLANDO, FL with annual revenue of approximately $278M",
CARLETON COLLEGE,410694747,Education,1 N COLLEGE ST,NORTHFIELD,MN,55057-4001,,"Education organization in NORTHFIELD, MN with annual revenue of approximately $278M",
OLMSTED MEDICAL CENTER,410855367,Health,1650 4TH ST SE,ROCHESTER,MN,55904-4717,,"Health organization in ROCHESTER, MN with annual revenue of approximately $278M",
UNIVERSITY OF SCRANTON,240795495,Education,800 LINDEN STREET,SCRANTON,PA,18510-2429,,"Education organization in SCRANTON, PA with annual revenue of approximately $278M",
COMMUNITY MEMORIAL HOSPITAL OF MENOMONEE FALLS INC,390987025,Health,W180N8085 TOWN HALL RD,MENOMONEE FLS,WI,53051-3518,,"Health organization in MENOMONEE FLS, WI with annual revenue of approximately $278M",
AVERA HEALTH,460422673,Health,3900 WEST AVERA DRIVE SUITE 30,SIOUX FALLS,SD,57108-5717,,"Health organization in SIOUX FALLS, SD with annual revenue of approximately $278M",
TARRANT SAFETY NET SUPPORT CORPORATION,823171862,Health,612 E LAMAR BLVD STE 900,ARLINGTON,TX,76011-4130,,"Health organization in ARLINGTON, TX with annual revenue of approximately $278M",
AYCO CHARITABLE FOUNDATION,141782466,Community,100 COLISEUM DR,COHOES,NY,12047-3846,,"Community organization in COHOES, NY with annual revenue of approximately $277M",
PROVIDENCE SAINT JOHNS MEDICAL FOUNDATION,814542216,Health,2201 LIND AVE SW STE 160,RENTON,WA,98057-3323,,"Health organization in RENTON, WA with annual revenue of approximately $277M",
SOUTHWEST VOLUSIA HEALTHCARE CORPORATION,593149293,Health,1055 SAXON BLVD,ORANGE CITY,FL,32763-8468,,"Health organization in ORANGE CITY, FL with annual revenue of approximately $277M",
MCLAREN PORT HURON,381369611,Health,1221 PINE GROVE AVE,PORT HURON,MI,48060-3511,,"Health organization in PORT HURON, MI with annual revenue of approximately $277M",
BELOIT HEALTH SYSTEM INC,391028081,Health,1969 W HART RD,BELOIT,WI,53511-2230,,"Health organization in BELOIT, WI with annual revenue of approximately $277M",
ADVENTIST HEALTH PHYSICANS NETWORK,680357690,Health,1 ADVENTIST HEALTH WAY,ROSEVILLE,CA,95661-3266,,"Health organization in ROSEVILLE, CA with annual revenue of approximately $277M",
UPMC WASHINGTON,250965600,Health,600 GRANT ST FL 56,PITTSBURGH,PA,15219-2730,,"Health organization in PITTSBURGH, PA with annual revenue of approximately $276M",
ARIZONA STATE UNIVERSITY FOUNDATION FOR A NEW AMERICAN UNIVERSITY,866051042,Education,PO BOX 2260ATTN PAYROLL BENEFITS,TEMPE,AZ,85281-0000,,"Education organization in TEMPE, AZ with annual revenue of approximately $276M",
SERVICES FOR THE UNDERSERVED INC,912071511,Other,463 SEVENTH AVENUE SUITE FL 17,NEW YORK,NY,10018-0092,,"Other organization in NEW YORK, NY with annual revenue of approximately $275M",
GREATER CHICAGO FOOD DEPOSITORY,362971864,Human Services,4100 W ANN LURIE PL,CHICAGO,IL,60632-2692,,"Human Services organization in CHICAGO, IL with annual revenue of approximately $275M",
PIEDMONT MACON HOSPITAL INC,871006981,Health,350 HOSPITAL DR,MACON,GA,31217-3838,,"Health organization in MACON, GA with annual revenue of approximately $275M",
ST CATHERINE OF SIENA MEDICAL CENTER,061562701,Health,50 ROUTE 25A,SMITHTOWN,NY,11787-1348,,"Health organization in SMITHTOWN, NY with annual revenue of approximately $275M",
FAITH REGIONAL HEALTH SERVICES,470796875,Health,2700 W NORFOLK AVE,NORFOLK,NE,68701-4438,,"Health organization in NORFOLK, NE with annual revenue of approximately $275M",
TRINITY HEALTH SYSTEM,300752920,Other,380 SUMMIT AVE,STEUBENVILLE,OH,43952-2667,,"Other organization in STEUBENVILLE, OH with annual revenue of approximately $275M",
BMC HEALTH SYSTEM,463556853,Health,1 BOSTON MEDICAL CTR PL,BOSTON,MA,02118-2908,,"Health organization in BOSTON, MA with annual revenue of approximately $275M",
NATIONAL PARK FOUNDATION,521086761,Other,1500 K STREET NW,WASHINGTON,DC,20005-1209,,"Other organization in WASHINGTON, DC with annual revenue of approximately $275M",
INTEGRIS AMBULATORY CARE CORPORATION,731192765,Health,3001 QUAIL SPRINGS PKWY,OKLAHOMA CITY,OK,73134-2640,,"Health organization in OKLAHOMA CITY, OK with annual revenue of approximately $275M",
COMMUNITY BLOOD CENTER,310684163,Health,349 S MAIN ST,DAYTON,OH,45402-2715,,"Health organization in DAYTON, OH with annual revenue of approximately $274M",
ADVENTIST HEALTH SYSTEM GEORGIA INC,581425000,Health,1035 RED BUD RD NE,CALHOUN,GA,30701-6010,,"Health organization in CALHOUN, GA with annual revenue of approximately $274M",
MAPLE GROVE HOSPITAL CORPORATION,208316475,Health,9875 HOSPITAL DR,MAPLE GROVE,MN,55369-4648,,"Health organization in MAPLE GROVE, MN with annual revenue of approximately $274M",
LOS ANGELES REGIONAL FOOD BANK,953135649,Other,1734 E 41ST ST,VERNON,CA,90058-1502,,"Other organization in VERNON, CA with annual revenue of approximately $273M",
YAMHILL COUNTY CARE ORGANIZATION INC,364742731,Health,807 NE 3RD ST,MCMINNVILLE,OR,97128-4433,,"Health organization in MCMINNVILLE, OR with annual revenue of approximately $273M",
AMALGAMATED CHARITABLE FOUNDATION INC,821517696,Community,1825 K ST NW,WASHINGTON,DC,20006-1202,,"Community organization in WASHINGTON, DC with annual revenue of approximately $273M",
OCHIN INC,200195556,Health,PO BOX 5426,PORTLAND,OR,97228-5426,,"Health organization in PORTLAND, OR with annual revenue of approximately $273M",
JEWISH COMMUNITY FOUNDATION OF SAN DIEGO,952504044,Community,4950 MURPHY CANYON ROAD,SAN DIEGO,CA,92123-4900,,"Community organization in SAN DIEGO, CA with annual revenue of approximately $273M",
MARYLAND GENERAL HOSPITAL,520591667,Health,900 ELKRIDGE LANDING RD 3W,LINTHICUM HEIGHTS,MD,21090-2924,,"Health organization in LINTHICUM HEIGHTS, MD with annual revenue of approximately $273M",
NEW YORK QUEENS MEDICINE AND SURGERY PC,274719998,Health,5645 MAIN ST,FLUSHING,NY,11355-5045,,"Health organization in FLUSHING, NY with annual revenue of approximately $273M",
ALICE L WALTON SCHOOL OF MEDICINE,852907907,Other,600 MUSEUM WAY,BENTONVILLE,AR,72712-4947,,"Other organization in BENTONVILLE, AR with annual revenue of approximately $272M",
TRINITY COLLEGE,060646927,Education,300 SUMMIT STREET,HARTFORD,CT,06106-3100,,"Education organization in HARTFORD, CT with annual revenue of approximately $272M",
GOSHEN HOSPITAL ASSOCIATION INC,356001540,Health,200 HIGH PARK AVE,GOSHEN,IN,46526-4810,,"Health organization in GOSHEN, IN with annual revenue of approximately $272M",
ST ALEXIUS MEDICAL CENTER,450226711,Health,900 E BROADWAY AVE,BISMARCK,ND,58501-4520,,"Health organization in BISMARCK, ND with annual revenue of approximately $272M",
BIG BEND COMMUNITY BASED CARE INC,030423156,Health,525 N MARTIN LUTHER KING JR BLVD,TALLAHASSEE,FL,32301-1054,,"Health organization in TALLAHASSEE, FL with annual revenue of approximately $272M",
CALIFORNIA INDEPENDENT SYSTEM OPERATOR CORPORATION,943274043,Community,250 OUTCROPPING WAY,FOLSOM,CA,95630-8773,,"Community organization in FOLSOM, CA with annual revenue of approximately $272M",
UNITYPOINT AT HOME,421477471,Other,1776 WESTLAKES PKWY STE 400,WDM,IA,50266-8393,,"Other organization in WDM, IA with annual revenue of approximately $271M",
EL RIO SANTA CRUZ NEIGHBORHOOD HEALTH CENTER INC,860285857,Health,839 W CONGRESS ST,TUCSON,AZ,85745-2819,,"Health organization in TUCSON, AZ with annual revenue of approximately $271M",
INTERNATIONAL FELLOWSHIP OF CHRISTIANS & JEWS,363256096,Other,303 EAST WACKER DRIVE,CHICAGO,IL,60601-5212,,"Other organization in CHICAGO, IL with annual revenue of approximately $271M",
MEADVILLE MEDICAL CENTER,251512436,Health,1034 GROVE ST,MEADVILLE,PA,16335-2945,,"Health organization in MEADVILLE, PA with annual revenue of approximately $271M",
CONSERVATION INTERNATIONAL FOUNDATION,521497470,Environment,2011 CRYSTAL DR STE 600,ARLINGTON,VA,22202-3715,,"Environment organization in ARLINGTON, VA with annual revenue of approximately $271M",
HAWAII COMMUNITY FOUNDATION,990261283,Community,827 FORT STREET MALL,HONOLULU,HI,96813-4317,,"Community organization in HONOLULU, HI with annual revenue of approximately $270M",
SWEDISH EDMONDS,272305304,Health,PO BOX 389672,SEATTLE,WA,98138-9672,,"Health organization in SEATTLE, WA with annual revenue of approximately $270M",
DAVIDSON COLLEGE,560529961,Education,209 RIDGE ROAD BOX 5000,DAVIDSON,NC,28036-0407,,"Education organization in DAVIDSON, NC with annual revenue of approximately $269M",
OTTAWA REGIONAL HOSPITAL & HEALTHCARE CENTER,362604009,Health,124 SW ADAMS ST,PEORIA,IL,61602-1308,,"Health organization in PEORIA, IL with annual revenue of approximately $269M",
MOREHOUSE SCHOOL OF MEDICINE INC,581438873,Education,720 WESTVIEW DR SW,ATLANTA,GA,30310-1458,,"Education organization in ATLANTA, GA with annual revenue of approximately $269M",
TRIHEALTH PHYSICIAN ENTERPRISES CORP,311383365,Health,625 EDEN PARK DRIVE 7TH FLOOR,CINCINNATI,OH,45202-6005,,"Health organization in CINCINNATI, OH with annual revenue of approximately $269M",
UNIVERSITY OF FLORIDA FOUNDATION INC,590974739,Education,PO BOX 14425,GAINESVILLE,FL,32604-2425,,"Education organization in GAINESVILLE, FL with annual revenue of approximately $269M",
INTERNATIONAL CITY MANAGEMENT ASSOCIATION RETIREMENT CORPORATION,237268394,Other,777 NORTH CAPITOL ST NE,WASHINGTON,DC,20002-4239,,"Other organization in WASHINGTON, DC with annual revenue of approximately $268M",
COLORADO WEST HEALTHCARE SYSTEM,840469270,Health,2351 G RD,GRAND JCT,CO,81505-9641,,"Health organization in GRAND JCT, CO with annual revenue of approximately $268M",
THE GRIFFIN HOSPITAL,060647014,Health,130 DIVISION ST,DERBY,CT,06418-1326,,"Health organization in DERBY, CT with annual revenue of approximately $268M",
ST LUKES CORNWALL HOSPITAL,141340054,Health,70 DUBOIS ST,NEWBURGH,NY,12550-4851,,"Health organization in NEWBURGH, NY with annual revenue of approximately $268M",
CHI ST VINCENT HOSPITAL HOT SPRINGS,710236913,Health,300 WERNER ST,HOT SPRINGS,AR,71913-6406,,"Health organization in HOT SPRINGS, AR with annual revenue of approximately $268M",
ALLIANCE COLLEGE-READY PUBLIC SCHOOLS,472892698,Education,5101 SANTA MONICA BLVD STE 8,LOS ANGELES,CA,90029-2480,,"Education organization in LOS ANGELES, CA with annual revenue of approximately $267M",
SHORE MEMORIAL HOSPITAL,210660835,Health,100 MEDICAL CENTER WAY,SOMERS POINT,NJ,08244-2300,,"Health organization in SOMERS POINT, NJ with annual revenue of approximately $267M",
TEACHERS COLLEGE COLUMBIA UNIVERSITY,131624202,Education,525 W 120TH ST BOX 30,NEW YORK,NY,10027-6605,,"Education organization in NEW YORK, NY with annual revenue of approximately $267M",
