name,ein,category,address,city,state,zip_code,website,description,phone
COLLEGE OF THE OZARKS,440556862,Education,100 OPPORTUNITY AVE,POINT LOOKOUT,MO,65726-0000,,"Education organization in POINT LOOKOUT, MO with annual revenue of approximately $115M",
CHIMES DISTRICT OF COLUMBIA INC,541691953,Human Services,4815 SETON DR,BALTIMORE,MD,21215-3211,,"Human Services organization in BALTIMORE, MD with annual revenue of approximately $115M",
CATALYST FAMILY INC,942376637,Education,350 WOODVIEW AVE STE 100,MORGAN HILL,CA,95037-8105,,"Education organization in MORGAN HILL, CA with annual revenue of approximately $115M",
THE CHICAGO SCHOOL - CALIFORNIA INC,900394713,Other,203 N LA SALLE ST STE 1900,CHICAGO,IL,60601-1263,,"Other organization in CHICAGO, IL with annual revenue of approximately $115M",
AIM SERVICES INC,141609398,Human Services,4227 ROUTE 50,SARATOGA SPGS,NY,12866-2927,,"Human Services organization in SARATOGA SPGS, NY with annual revenue of approximately $115M",
AMERICAN SOCIETY FOR TECHNION- ISRAEL INSTITUTE OF TECHNOLOGY INC,130434195,International,55 EAST 59TH STREET 14TH FLOOR,NEW YORK,NY,10022-1112,,"International organization in NEW YORK, NY with annual revenue of approximately $115M",
YOUTH ADVOCATE PROGRAMS INC,231977514,Human Services,3899 N FRONT ST,HARRISBURG,PA,17110-1535,,"Human Services organization in HARRISBURG, PA with annual revenue of approximately $115M",
REGIONAL FOOD BANK OF OKLAHOMA,731100380,Human Services,3355 S PURDUE ST,OKLAHOMA CITY,OK,73179-7640,,"Human Services organization in OKLAHOMA CITY, OK with annual revenue of approximately $115M",
ROCKHURST UNIVERSITY,440545813,Education,1100 ROCKHURST RD,KANSAS CITY,MO,64110-2508,,"Education organization in KANSAS CITY, MO with annual revenue of approximately $115M",
INDIANA UNIVERSITY HEALTH BALL MEMORIAL PHYSICIANS INC,351925641,Health,950 N MERIDIAN ST STE 1200,INDIANAPOLIS,IN,46204-1011,,"Health organization in INDIANAPOLIS, IN with annual revenue of approximately $115M",
KINGS DAUGHTERS MEDICAL CENTER,640333594,Health,PO BOX 948,BROOKHAVEN,MS,39602-0948,,"Health organization in BROOKHAVEN, MS with annual revenue of approximately $115M",
HARBOR HEALTH SERVICES INC,237100550,Health,1135 MORTON ST,MATTAPAN,MA,02126-2834,,"Health organization in MATTAPAN, MA with annual revenue of approximately $115M",
VOCATIONAL INSTRUCTION PROJECT COMMUNITY SERVICES INC,133224700,Other,770 E 176TH ST FL 6,BRONX,NY,10460-4617,,"Other organization in BRONX, NY with annual revenue of approximately $115M",
HUMAN CARE SERVICES FOR FAMILIES & CHILDREN INC,113338946,Health,1042 38TH ST,BROOKLYN,NY,11219-1011,,"Health organization in BROOKLYN, NY with annual revenue of approximately $115M",
UNIVERSITY OF TOLEDO PHYSICIANS CLINICAL FACILITY INC,201304472,Other,4510 DORR ST,TOLEDO,OH,43615-4040,,"Other organization in TOLEDO, OH with annual revenue of approximately $115M",
IOWA STUDENT LOAN LIQUIDITY CORP,421137531,Education,6805 VISTA DR,WDM,IA,50266-9307,,"Education organization in WDM, IA with annual revenue of approximately $115M",
ASIA FOUNDATION,941191246,International,465 CALIFORNIA STREET 7TH FLOOR,SAN FRANCISCO,CA,94104-1804,,"International organization in SAN FRANCISCO, CA with annual revenue of approximately $115M",
BREAKTHROUGH ENERGY FOUNDATION,853672460,Community,PO BOX 563,KIRKLAND,WA,98083-0563,,"Community organization in KIRKLAND, WA with annual revenue of approximately $115M",
MONARCH,561326126,Human Services,350 PEE DEE AVE STE A,ALBEMARLE,NC,28001-4932,,"Human Services organization in ALBEMARLE, NC with annual revenue of approximately $115M",
ROME MEMORIAL HOSPITAL INC,161471634,Health,1500 N JAMES ST,ROME,NY,13440-2844,,"Health organization in ROME, NY with annual revenue of approximately $115M",
UNIVERSITY OF MASSACHUSETTS GLOBAL,260152908,Education,65 ENTERPRISE STE 150,ALISO VIEJO,CA,92656-2707,,"Education organization in ALISO VIEJO, CA with annual revenue of approximately $114M",
BJU INC,571088101,Education,1700 WADE HAMPTON BLVD,GREENVILLE,SC,29614-1000,,"Education organization in GREENVILLE, SC with annual revenue of approximately $114M",
SISKIYOU HOSPITAL INC,941623075,Health,444 BRUCE ST,YREKA,CA,96097-3450,,"Health organization in YREKA, CA with annual revenue of approximately $114M",
LAKEVIEW CENTER INC,590737872,Health,1221 W LAKEVIEW AVE,PENSACOLA,FL,32501-1857,,"Health organization in PENSACOLA, FL with annual revenue of approximately $114M",
WILLIAM CAREY UNIVERSITY,640329300,Other,710 WILLIAM CAREY PARKWAY WCU BOX 1,HATTIESBURG,MS,39401-7842,,"Other organization in HATTIESBURG, MS with annual revenue of approximately $114M",
DISTRIBUTION COOPERATIVE INC,331113484,Community,1281 HIGHWAY 155 S,MC DONOUGH,GA,30253-7316,,"Community organization in MC DONOUGH, GA with annual revenue of approximately $114M",
EARLY LEARNING COALITION OF DUVAL INC,593688924,Education,6500 BOWDEN RD STE 290,JACKSONVILLE,FL,32216-8085,,"Education organization in JACKSONVILLE, FL with annual revenue of approximately $114M",
THRIVENT CHARITABLE IMPACT & INVESTING,411802412,Community,600 PORTLAND AVE STE 4100,MINNEAPOLIS,MN,55415-4402,,"Community organization in MINNEAPOLIS, MN with annual revenue of approximately $114M",
PRACTISING LAW INSTITUTE,135562321,Education,1177 AVENUE OF THE AMERICAS,NEW YORK,NY,10036-2714,,"Education organization in NEW YORK, NY with annual revenue of approximately $114M",
CARSON-TAHOE HEALTH SYSTEM,880502318,Health,1600 MEDICAL PKWY,CARSON CITY,NV,89703-4625,,"Health organization in CARSON CITY, NV with annual revenue of approximately $114M",
AUSTIN COMMUNITY FOUNDATION,741934031,Community,4315 GUADALUPE ST STE 300,AUSTIN,TX,78751-3644,,"Community organization in AUSTIN, TX with annual revenue of approximately $114M",
GREENWICH COUNTRY DAY SCHOOL INC,060646657,Education,OLD CHURCH RD BOX 623,GREENWICH,CT,06836-0000,,"Education organization in GREENWICH, CT with annual revenue of approximately $114M",
MOUNT DESERT ISLAND HOSPITAL,010211797,Health,10 WAYMAN LN,BAR HARBOR,ME,04609-1625,,"Health organization in BAR HARBOR, ME with annual revenue of approximately $114M",
GOODWIN HOUSE INCORPORATED,540623670,Human Services,4800 FILLMORE AVENUE,ALEXANDRIA,VA,22311-5070,,"Human Services organization in ALEXANDRIA, VA with annual revenue of approximately $114M",
EASTER SEALS NEW HAMPSHIRE INC,020272825,Human Services,555 AUBURN ST,MANCHESTER,NH,03103-4803,,"Human Services organization in MANCHESTER, NH with annual revenue of approximately $114M",
KNAPP MEDICAL CENTER,741393060,Health,PO BOX 1110,WESLACO,TX,78599-1110,,"Health organization in WESLACO, TX with annual revenue of approximately $114M",
ALICE HYDE MEDICAL CENTER,150346515,Health,133 PARK STREET,MALONE,NY,12953-1244,,"Health organization in MALONE, NY with annual revenue of approximately $114M",
AMERICAN COMMITTEE FOR THE WEIZMANN INSTITUTE OF SCIENCE INC,131623886,International,633 THIRD AVENUE 20TH FL,NEW YORK,NY,10017-8156,,"International organization in NEW YORK, NY with annual revenue of approximately $114M",
SAINT PAUL & MINNESOTA FOUNDATION,416031510,Community,101 5TH E ST STE 2400,SAINT PAUL,MN,55101-0000,,"Community organization in SAINT PAUL, MN with annual revenue of approximately $114M",
FIRST CATHOLIC SLOVAK UNION OF THE UNITED STATES & CANADA,340220550,Other,6611 ROCKSIDE RD 3RD FL,INDEPENDENCE,OH,44131-2365,,"Other organization in INDEPENDENCE, OH with annual revenue of approximately $114M",
GRAYS HARBOR COMMUNITY HOSPITAL,910568304,Other,915 ANDERSON DR,ABERDEEN,WA,98520-1006,,"Other organization in ABERDEEN, WA with annual revenue of approximately $114M",
PLANNED PARENTHOOD OF THE PACIFIC SOUTHWEST,956111785,Health,1075 CAMINO DEL RIO S,SAN DIEGO,CA,92108-3538,,"Health organization in SAN DIEGO, CA with annual revenue of approximately $114M",
COMMUNITY ACTION PARTNERSHIP OF SAN LUIS OBISPO COUNTY INC,952410253,Other,1030 SOUTHWOOD DR,SN LUIS OBISP,CA,93401-5813,,"Other organization in SN LUIS OBISP, CA with annual revenue of approximately $114M",
GATEWAY COMMUNITY CHARTERS,200231006,Education,PO BOX 269003,SACRAMENTO,CA,95826-9003,,"Education organization in SACRAMENTO, CA with annual revenue of approximately $114M",
PRIMARY HEALTH NETWORK,251381800,Health,63 PITT ST,SHARON,PA,16146-2102,,"Health organization in SHARON, PA with annual revenue of approximately $114M",
MCLAREN HEALTH MANAGEMENT GROUP,383491714,Health,1515 CAL DR,DAVISON,MI,48423-9016,,"Health organization in DAVISON, MI with annual revenue of approximately $114M",
BRIDGEPREP ACADEMY INC,270557724,Education,9875 SW 72ND ST,MIAMI,FL,33173-4617,,"Education organization in MIAMI, FL with annual revenue of approximately $114M",
LUCILE PACKARD FOUNDATION FOR CHILDRENS HEALTH,770440090,Health,400 HAMILTON AVE STE 340,PALO ALTO,CA,94301-1805,,"Health organization in PALO ALTO, CA with annual revenue of approximately $113M",
INDIANA UNIVERSITY HEALTH BEDFORD INC,237042323,Health,950 N MERIDIAN ST STE 1200,INDIANAPOLIS,IN,46204-1011,,"Health organization in INDIANAPOLIS, IN with annual revenue of approximately $113M",
ACH CHILD AND FAMILY SERVICES,750818140,Other,3712 WICHITA ST,FORT WORTH,TX,76119-2866,,"Other organization in FORT WORTH, TX with annual revenue of approximately $113M",
LIFEWORKS SERVICES INC,410907857,Human Services,6636 CEDAR AVE S,RICHFIELD,MN,55423-2705,,"Human Services organization in RICHFIELD, MN with annual revenue of approximately $113M",
AMERICAN COUNCILS FOR INTERNATIONAL EDUCATION ACTR ACCELS INC,521067256,International,1828 L ST NW STE 1200,WASHINGTON,DC,20036-5136,,"International organization in WASHINGTON, DC with annual revenue of approximately $113M",
PHILHARMONIC-SYMPHONY SOCIETY OF NEW YORK INC,131664054,Arts & Culture,10 LINCOLN CENTER PLAZA,NEW YORK,NY,10023-6912,,"Arts & Culture organization in NEW YORK, NY with annual revenue of approximately $113M",
SAMUEL MERRITT UNIVERSITY,942992642,Education,3100 TELEGRAPH AVE,OAKLAND,CA,94609-3239,,"Education organization in OAKLAND, CA with annual revenue of approximately $113M",
MARYWOOD UNIVERSITY,240795453,Education,2300 ADAMS AVE,SCRANTON,PA,18509-1514,,"Education organization in SCRANTON, PA with annual revenue of approximately $113M",
WASHINGTON UNIVERSITY PHYSICIANS IN ILLINOIS INC,822026363,Health,1414 CROSS STREET,O FALLON,IL,62269-2904,,"Health organization in O FALLON, IL with annual revenue of approximately $113M",
CONCORDIA UNIVERSITY,952798775,Education,1530 CONCORDIA,IRVINE,CA,92612-3203,,"Education organization in IRVINE, CA with annual revenue of approximately $113M",
ROSEMAN UNIVERSITY OF HEALTH SCIENCES A NEVADA NON-PROFIT CORP,880435559,Education,11 SUNSET WAY,HENDERSON,NV,89014-2333,,"Education organization in HENDERSON, NV with annual revenue of approximately $113M",
BIOTECHNOLOGY INNOVATION ORGANIZATION,521224577,Other,1201 NEW YORK AVE NW STE 1300,WASHINGTON,DC,20005-4853,,"Other organization in WASHINGTON, DC with annual revenue of approximately $113M",
ST ANTHONY REGIONAL HOSPITAL AND NURSING HOME,420733472,Health,311 S CLARK ST,CARROLL,IA,51401-3038,,"Health organization in CARROLL, IA with annual revenue of approximately $113M",
NEW VISTA COMMUNITIES INC,205452909,Health,1351 NEWTON PIKE,LEXINGTON,KY,40511-1275,,"Health organization in LEXINGTON, KY with annual revenue of approximately $113M",
A BEKA ACADEMY INC,593458436,Education,PO BOX 17600,PENSACOLA,FL,32522-7750,,"Education organization in PENSACOLA, FL with annual revenue of approximately $113M",
UNIVERSITY OF WYOMING FOUNDATION,830201971,Education,222 S 22ND ST,LARAMIE,WY,82070-5204,,"Education organization in LARAMIE, WY with annual revenue of approximately $113M",
ST ANTHONY HOSPITAL,930391614,Health,2801 ST ANTHONY WAY,PENDLETON,OR,97801-3800,,"Health organization in PENDLETON, OR with annual revenue of approximately $113M",
PCPT HAMLIN LLC,364903848,Health,2095 LAKESIDE CENTRE WAY STE 101,KNOXVILLE,TN,37922-6647,,"Health organization in KNOXVILLE, TN with annual revenue of approximately $113M",
SHANNON MEDICAL MANAGEMENT,208367966,Health,PO BOX 22000,SAN ANGELO,TX,76902-7200,,"Health organization in SAN ANGELO, TX with annual revenue of approximately $113M",
UNITED NATIONS FOUNDATION INC,582368165,International,1750 PENNSYLVANIA AVE NW STE 300,WASHINGTON,DC,20006-4515,,"International organization in WASHINGTON, DC with annual revenue of approximately $113M",
OPEN SKY COMMUNITY SERVICES INC,042587863,Human Services,4 MANN ST,WORCESTER,MA,01602-3414,,"Human Services organization in WORCESTER, MA with annual revenue of approximately $113M",
RANSOM EVERGLADES SCHOOL INC,590659070,Education,3575 MAIN HWY,COCONUT GROVE,FL,33133-5903,,"Education organization in COCONUT GROVE, FL with annual revenue of approximately $113M",
UNIVERSITY OF DALLAS,750926755,Education,1845 E NORTHGATE DR,IRVING,TX,75062-4736,,"Education organization in IRVING, TX with annual revenue of approximately $113M",
ASSOCIATION OF PUBLIC HEALTH LABORATORIES INC,521800436,Other,7700 WISCONSIN AVE STE 1000,BETHESDA,MD,20814-3587,,"Other organization in BETHESDA, MD with annual revenue of approximately $113M",
GRITMAN MEDICAL CENTER INC,820146328,Health,700 S MAIN ST,MOSCOW,ID,83843-3056,,"Health organization in MOSCOW, ID with annual revenue of approximately $113M",
ST MARYS HOSPITAL OF SUPERIOR,411811073,Other,3500 TOWER AVE,SUPERIOR,WI,54880-5335,,"Other organization in SUPERIOR, WI with annual revenue of approximately $113M",
UNIVERSITY OF EVANSVILLE,350868074,Education,1800 LINCOLN AVE,EVANSVILLE,IN,47722-1000,,"Education organization in EVANSVILLE, IN with annual revenue of approximately $113M",
MASSACHUSETTS HIGHER EDUCATION ASSISTANCE CORPORATION,042254705,Other,33 ARCH ST STE 2100,BOSTON,MA,02110-1442,,"Other organization in BOSTON, MA with annual revenue of approximately $113M",
HOAG HOSPITAL FOUNDATION,953222343,Health,330 PLACENTIA AVE,NEWPORT BEACH,CA,92663-3306,,"Health organization in NEWPORT BEACH, CA with annual revenue of approximately $112M",
MIAMI CANCER INSTITUTE AT BAPTIST HEALTH INC,473090066,Health,6855 RED ROAD STE 600,CORAL GABLES,FL,33143-3518,,"Health organization in CORAL GABLES, FL with annual revenue of approximately $112M",
HOTCHKISS SCHOOL,060647018,Education,11 INTERLAKEN RD,LAKEVILLE,CT,06039-2141,,"Education organization in LAKEVILLE, CT with annual revenue of approximately $112M",
SOCIEDAD ESPANOLA DE AUXILIO MUTUO Y BENEFICENCIA DE PUERTO RICO,660178704,Health,PO BOX 191227,SAN JUAN,PR,00919-1227,,"Health organization in SAN JUAN, PR with annual revenue of approximately $112M",
CONCORDIA UNIVERSITY ST PAUL,410696906,Other,1282 CONCORDIA AVE,SAINT PAUL,MN,55104-5479,,"Other organization in SAINT PAUL, MN with annual revenue of approximately $112M",
MYMICHIGAN MEDICAL CENTER CLARE,381518643,Other,703 N MCEWAN ST,CLARE,MI,48617-1440,,"Other organization in CLARE, MI with annual revenue of approximately $112M",
ONE BROOKLYN HEALTH SYSTEM INC,815323275,Health,1 BROOKDALE PLZ,BROOKLYN,NY,11212-3139,,"Health organization in BROOKLYN, NY with annual revenue of approximately $112M",
CORNELL SCOTT HILL HEALTH CORPORATION,060870990,Health,400 COLUMBUS AVE,NEW HAVEN,CT,06519-1233,,"Health organization in NEW HAVEN, CT with annual revenue of approximately $112M",
FENWAY COMMUNITY HEALTH CENTER INC,042510564,Health,1340 BOYLSTON ST,BOSTON,MA,02215-4302,,"Health organization in BOSTON, MA with annual revenue of approximately $112M",
UPLAND HILLS HEALTH INC,421017512,Health,800 COMPASSION WAY,DODGEVILLE,WI,53533-1956,,"Health organization in DODGEVILLE, WI with annual revenue of approximately $112M",
AGORA CYBER CHARTER SCHOOL,412170569,Education,1018 WEST 8TH AVENUE,KING OF PRUSSIA,PA,19406-1315,,"Education organization in KING OF PRUSSIA, PA with annual revenue of approximately $112M",
DEFENSEWERX INC,460684933,Research,1140 JOHN SIMS PKWY E,NICEVILLE,FL,32578-2204,,"Research organization in NICEVILLE, FL with annual revenue of approximately $112M",
COLLEGE OF ST SCHOLASTICA INC,410698301,Education,1200 KENWOOD AVE,DULUTH,MN,55811-4199,,"Education organization in DULUTH, MN with annual revenue of approximately $112M",
UPSTATE CEREBRAL PALSY INC,150543657,Health,125 BUSINESS PARK,UTICA,NY,13502-6305,,"Health organization in UTICA, NY with annual revenue of approximately $112M",
MICHIGAN HEALTH ENDOWMENT FUND,465054207,Health,9829 SPENCER RD STE 201,BRIGHTON,MI,48114-7718,,"Health organization in BRIGHTON, MI with annual revenue of approximately $112M",
ARCHCARE,133896624,Other,205 LEXINGTON AVENUE 3RD,NEW YORK,NY,10016-6053,,"Other organization in NEW YORK, NY with annual revenue of approximately $112M",
WASHINGTON AND JEFFERSON COLLEGE,250965601,Education,60 S LINCOLN ST,WASHINGTON,PA,15301-4812,,"Education organization in WASHINGTON, PA with annual revenue of approximately $112M",
WAYNE-METROPOLITAN COMMUNITY ACTION AGENCY,381976979,Community,7310 WOODWARD AVE STE 800,DETROIT,MI,48202-3196,,"Community organization in DETROIT, MI with annual revenue of approximately $112M",
YOUNG MENS CHRISTIAN ASSOCIATION OF METROPOLITAN LOS ANGELES,951644052,Human Services,4301 W 3RD ST,LOS ANGELES,CA,90020-3809,,"Human Services organization in LOS ANGELES, CA with annual revenue of approximately $112M",
NATIONAL CENTER FOR DEFENSE MANUFACTURING AND MACHINING,760727663,Research,699 SCALP AVE,JOHNSTOWN,PA,15904-1619,,"Research organization in JOHNSTOWN, PA with annual revenue of approximately $112M",
THUNDERMIST HEALTH CENTER,050355097,Health,171 SERVICE AVE FL 2,WARWICK,RI,02886-1015,,"Health organization in WARWICK, RI with annual revenue of approximately $112M",
CHRISTIAN COMMUNITY FOUNDATION OF MEMPHIS AND THE MID-SOUTH INC,621752885,Community,6075 POPLAR AVE STE 130,MEMPHIS,TN,38119-4702,,"Community organization in MEMPHIS, TN with annual revenue of approximately $112M",
INTERNATIONAL FOOD POLICY RESEARCH INSTITUTE,521041632,Human Services,1201 I STREET NW 12TH FLOOR,WASHINGTON,DC,20005-5905,,"Human Services organization in WASHINGTON, DC with annual revenue of approximately $112M",
GAUDENZIA INC,231706895,Health,106 W MAIN ST,NORRISTOWN,PA,19401-4716,,"Health organization in NORRISTOWN, PA with annual revenue of approximately $112M",
UNIVERSITY OF HAWAII FOUNDATION,990085260,Education,1810 UNIVERSITY AVE 300,HONOLULU,HI,96822-5416,,"Education organization in HONOLULU, HI with annual revenue of approximately $112M",
BLYTHEDALE CHILDRENS HOSPITAL,131739922,Health,BRADHURST AVE,VALHALLA,NY,10595-0000,,"Health organization in VALHALLA, NY with annual revenue of approximately $111M",
URBAN RESOURCE INSTITUTE,112561648,Human Services,75 BROAD ST RM 505,NEW YORK,NY,10004-3223,,"Human Services organization in NEW YORK, NY with annual revenue of approximately $111M",
HALO TRUST USA INC,522158152,International,1730 RHODE ISLAND AVE NW STE 206,WASHINGTON,DC,20036-3120,,"International organization in WASHINGTON, DC with annual revenue of approximately $111M",
TRUSTEES OF THE HAMLINE UNIVERSITY OF MINNESOTA,410693960,Education,1536 HEWITT AVE,SAINT PAUL,MN,55104-1205,,"Education organization in SAINT PAUL, MN with annual revenue of approximately $111M",
GOODWILL INDUSTRIES OF MIDDLE TENNESSEE INC,620599413,Human Services,937 HERMAN ST,NASHVILLE,TN,37208-3147,,"Human Services organization in NASHVILLE, TN with annual revenue of approximately $111M",
PRESBYTERIAN HOMES,471545753,Human Services,8707 SKOKIE BLVD STE 400,SKOKIE,IL,60077-2283,,"Human Services organization in SKOKIE, IL with annual revenue of approximately $111M",
PEAK VISTA COMMUNITY HEALTH CENTERS,840617567,Health,3205 N ACADEMY BLVD STE 130,COLORADO SPGS,CO,80917-5152,,"Health organization in COLORADO SPGS, CO with annual revenue of approximately $111M",
NONPROFITS INSURANCE ALLIANCE OF CALIFORNIA,770203935,Other,PO BOX 8507,SANTA CRUZ,CA,95061-8507,,"Other organization in SANTA CRUZ, CA with annual revenue of approximately $111M",
ROANOKE COLLEGE,540505945,Education,221 COLLEGE LN,SALEM,VA,24153-3794,,"Education organization in SALEM, VA with annual revenue of approximately $111M",
COMMUNITY HOUSING INNOVATIONS INC,133627750,Other,75 SOUTH BROADWAY 340,WHITE PLAINS,NY,10601-4413,,"Other organization in WHITE PLAINS, NY with annual revenue of approximately $111M",
REEDSBURG AREA MEDICAL CENTER INC,391091432,Health,2000 N DEWEY AVE,REEDSBURG,WI,53959-1049,,"Health organization in REEDSBURG, WI with annual revenue of approximately $111M",
INTERNATIONAL MEDICAL RELIEF,460494595,Health,500 E 8TH AVE,DENVER,CO,80203-3716,,"Health organization in DENVER, CO with annual revenue of approximately $111M",
WASHINGTON STATE UNIVERSITY FOUNDATION,911075542,Education,PO BOX 641927,PULLMAN,WA,99164-1927,,"Education organization in PULLMAN, WA with annual revenue of approximately $111M",
SOMERSET ACADEMY OF LAS VEGAS,275393412,Education,4650 LOSEE RD,N LAS VEGAS,NV,89081-4208,,"Education organization in N LAS VEGAS, NV with annual revenue of approximately $111M",
TERENCE CARDINAL COOKE HEALTH CARE CENTER,133007801,Health,205 LEXINGTON AVENUE 3RD,NEW YORK,NY,10016-6053,,"Health organization in NEW YORK, NY with annual revenue of approximately $111M",
ODA PRIMARY HEALTH CARE NETWORK INC,112329960,Other,74 WALLABOUT ST,BROOKLYN,NY,11249-7830,,"Other organization in BROOKLYN, NY with annual revenue of approximately $111M",
SALUD FAMILY HEALTH,840613540,Health,203 S ROLLIE AVE,FORT LUPTON,CO,80621-1508,,"Health organization in FORT LUPTON, CO with annual revenue of approximately $111M",
KIPP FOUNDATION,943362724,Education,1875 MISSION ST APT 130,SAN FRANCISCO,CA,94103-3561,,"Education organization in SAN FRANCISCO, CA with annual revenue of approximately $111M",
UNITED CHURCH HOMES INC,344429276,Human Services,170 E CENTER ST,MARION,OH,43302-3815,,"Human Services organization in MARION, OH with annual revenue of approximately $111M",
THE HELEN ROSS MCNABB CENTER,620548914,Health,200 TECH CENTER DR,KNOXVILLE,TN,37912-2747,,"Health organization in KNOXVILLE, TN with annual revenue of approximately $111M",
TIDEWELL HOSPICE INC,591911861,Human Services,6310 CAPITAL DRIVE,LAKEWOOD RANCH,FL,34202-5013,,"Human Services organization in LAKEWOOD RANCH, FL with annual revenue of approximately $111M",
THE SCHULMAN AND SCHACHNE INSTITUTE FOR NURSING AND REHABILITATION INC,237085986,Health,10101 AVENUE D,BROOKLYN,NY,11236-1902,,"Health organization in BROOKLYN, NY with annual revenue of approximately $111M",
PRINCIPIA CORPORATION,430652667,Education,13201 CLAYTON RD,SAINT LOUIS,MO,63131-1002,,"Education organization in SAINT LOUIS, MO with annual revenue of approximately $111M",
U B FOUNDATION ACTIVITIES INC,161372561,Other,PO BOX 900,BUFFALO,NY,14226-0900,,"Other organization in BUFFALO, NY with annual revenue of approximately $111M",
HASC CENTER INC,112630071,Human Services,5601 1ST AVE,BROOKLYN,NY,11220-2517,,"Human Services organization in BROOKLYN, NY with annual revenue of approximately $111M",
BAY AREA COMMUNITY SERVICES INC,941708069,Other,390 40TH ST,OAKLAND,CA,94609-2633,,"Other organization in OAKLAND, CA with annual revenue of approximately $111M",
PLANNED PARENTHOOD-ORANGE AND SAN BERNARDINO COUNTIES INC,956152773,Health,801 E KATELLA AVE,ANAHEIM,CA,92805-6614,,"Health organization in ANAHEIM, CA with annual revenue of approximately $111M",
SEQUOIA LIVING INC,941437728,Human Services,1525 POST ST,SAN FRANCISCO,CA,94109-6567,,"Human Services organization in SAN FRANCISCO, CA with annual revenue of approximately $111M",
WABASH COLLEGE,350868202,Education,301 W WABASH AVENUE,CRAWFORDSVILLE,IN,47933-2417,,"Education organization in CRAWFORDSVILLE, IN with annual revenue of approximately $111M",
LAWSCHOOL ADMISSIONS COUNCIL INC,132998164,Education,662 PENN ST,NEWTOWN,PA,18940-2176,,"Education organization in NEWTOWN, PA with annual revenue of approximately $110M",
WORLD LEARNING INC,030179592,International,PO BOX 676,BRATTLEBORO,VT,05302-0676,,"International organization in BRATTLEBORO, VT with annual revenue of approximately $110M",
TAKOMA REGIONAL HOSPITAL INC,510603966,Health,311 PRINCETON RD STE 1,JOHNSON CITY,TN,37601-2080,,"Health organization in JOHNSON CITY, TN with annual revenue of approximately $110M",
COMMUNITY FOUNDATION OF GREATER MEMPHIS INC,581723645,Community,1900 UNION AVE,MEMPHIS,TN,38104-4029,,"Community organization in MEMPHIS, TN with annual revenue of approximately $110M",
ALLIANCE DEFENDING FREEDOM,541660459,Religion,15100 N 90TH ST,SCOTTSDALE,AZ,85260-2769,,"Religion organization in SCOTTSDALE, AZ with annual revenue of approximately $110M",
GOODWILL INDUSTRIES OF SOUTHEASTERN WISCONSIN INC,390808491,Human Services,6055 N 91ST ST,MILWAUKEE,WI,53225-1710,,"Human Services organization in MILWAUKEE, WI with annual revenue of approximately $110M",
NEW YORK CLIMATE EXCHANGE INC,923384115,Environment,10 SOUTH STREET SLIP 7,NEW YORK,NY,10004-1921,,"Environment organization in NEW YORK, NY with annual revenue of approximately $110M",
MERCY HOSPITAL LEBANON,431767432,Health,100 HOSPITAL DR,LEBANON,MO,65536-9210,,"Health organization in LEBANON, MO with annual revenue of approximately $110M",
WINONA HEALTH SERVICES,410713914,Health,855 MANKATO AVE,WINONA,MN,55987-4868,,"Health organization in WINONA, MN with annual revenue of approximately $110M",
FRICK COLLECTION,131624012,Other,1 E 70TH ST,NEW YORK,NY,10021-4981,,"Other organization in NEW YORK, NY with annual revenue of approximately $110M",
COMMUNITY HOSPITAL OF BRAZOSPORT,741385192,Health,194 ABNER JACKSON PKWY,LAKE JACKSON,TX,77566-5160,,"Health organization in LAKE JACKSON, TX with annual revenue of approximately $110M",
SUTTER COAST HOSPITAL,942988520,Health,2200 RIVER PLAZA DR,SACRAMENTO,CA,95833-4134,,"Health organization in SACRAMENTO, CA with annual revenue of approximately $110M",
JACOBS & CUSHMAN SAN DIEGO FOOD BANK,204374795,Human Services,9850 DISTRIBUTION AVE,SAN DIEGO,CA,92121-2320,,"Human Services organization in SAN DIEGO, CA with annual revenue of approximately $110M",
HEALTHWISE INC,237455145,Health,2601 N BOGUS BASIN RD,BOISE,ID,83702-0909,,"Health organization in BOISE, ID with annual revenue of approximately $110M",
LINFIELD UNIVERSITY,930391586,Education,900 SE BAKER ST,MCMINNVILLE,OR,97128-6894,,"Education organization in MCMINNVILLE, OR with annual revenue of approximately $110M",
THE CONNECTICUT INSTITUTE FOR THE BLIND INC,060669111,Human Services,120 HOLCOMB ST,HARTFORD,CT,06112-1529,,"Human Services organization in HARTFORD, CT with annual revenue of approximately $110M",
CURRY COLLEGE,042199867,Education,1071 BLUE HILL AVE,MILTON,MA,02186-2302,,"Education organization in MILTON, MA with annual revenue of approximately $110M",
FIELD MUSEUM OF NATURAL HISTORY,362167011,Arts & Culture,1400 S DUSABLE LAKESHORE,CHICAGO,IL,60605-0000,,"Arts & Culture organization in CHICAGO, IL with annual revenue of approximately $110M",
NORTHEAST ARKANSAS CLINIC CHAR FOUNDATION INC,710850123,Community,4802 E JOHNSON AVE,JONESBORO,AR,72405-8413,,"Community organization in JONESBORO, AR with annual revenue of approximately $110M",
ELIZABETH GAMBLE DEACONESS HOME ASSOCIATION,311082756,Health,2139 AUBURN AVE,CINCINNATI,OH,45219-2906,,"Health organization in CINCINNATI, OH with annual revenue of approximately $110M",
NEW VISTA OF THE BLUEGRASS INC,610723605,Health,1351 NEWTOWN PIKE BLDG 1,LEXINGTON,KY,40511-1277,,"Health organization in LEXINGTON, KY with annual revenue of approximately $109M",
CHILDRENS MEDICAL CENTER FOUNDATION,752062015,Health,1935 MEDICAL DISTRICT DR,DALLAS,TX,75235-7701,,"Health organization in DALLAS, TX with annual revenue of approximately $109M",
CUMBERLAND FAMILY MEDICAL CENTER INC,203131989,Health,PO BOX 1080,BURKESVILLE,KY,42717-1080,,"Health organization in BURKESVILLE, KY with annual revenue of approximately $109M",
TURNING POINT FOR GOD,330095805,Religion,10007 RIVERFORD RD,LAKESIDE,CA,92040-2772,,"Religion organization in LAKESIDE, CA with annual revenue of approximately $109M",
COMMUNITY CARE COOPERATIVE INC,813005904,Health,75 FEDERAL ST,BOSTON,MA,02110-1913,,"Health organization in BOSTON, MA with annual revenue of approximately $109M",
EL CENTRO DEL BARRIO INC,741787031,Human Services,3750 COMMERCIAL AVE,SAN ANTONIO,TX,78221-3117,,"Human Services organization in SAN ANTONIO, TX with annual revenue of approximately $109M",
MOUNT SINAI COMMUNITY FOUNDATION,363305449,Other,CALIFORNIA AVENUE AT 15TH STREET,CHICAGO,IL,60609-0000,,"Other organization in CHICAGO, IL with annual revenue of approximately $109M",
SUTTER INSURANCE SERVICES CORPORATION,990289310,Other,700 BISHOP ST STE 1100,HONOLULU,HI,96813-4113,,"Other organization in HONOLULU, HI with annual revenue of approximately $109M",
GATEWAY FOUNDATION INC,362670036,Health,55 E JACKSON BLVD STE 1500,CHICAGO,IL,60604-4184,,"Health organization in CHICAGO, IL with annual revenue of approximately $109M",
BROWN MEDICINE,050450410,Health,110 ELM STREET 2ND FLOOR,PROVIDENCE,RI,02903-4626,,"Health organization in PROVIDENCE, RI with annual revenue of approximately $109M",
INSTITUTE OF NUCLEAR POWER OPERATIONS,581382198,Community,700 GALLERIA PKWY SE STE 100 STE 1,ATLANTA,GA,30339-5943,,"Community organization in ATLANTA, GA with annual revenue of approximately $109M",
SPRINGWELL INC,042616064,Human Services,307 WAVERLEY OAKS RD STE 205,WALTHAM,MA,02452-8413,,"Human Services organization in WALTHAM, MA with annual revenue of approximately $109M",
MOSES H CONE MEMORIAL HOSPITAL,560532302,Health,1200 N ELM ST,GREENSBORO,NC,27401-1004,,"Health organization in GREENSBORO, NC with annual revenue of approximately $109M",
CORE PHYSICIANS LLC,870807914,Health,CO BILH TAX 529 MAIN ST 4TH FL,CHARLESTOWN,MA,02129-0000,,"Health organization in CHARLESTOWN, MA with annual revenue of approximately $109M",
BAY AREA COMMUNITY RESOURCES,942346815,Health,11175 SAN PABLO AVE,EL CERRITO,CA,94530-2157,,"Health organization in EL CERRITO, CA with annual revenue of approximately $109M",
PARKER JEWISH INSTITUTE FOR HEALTH CARE AND REHABILITATION,132631069,Health,27111 76TH AVE,NEW HYDE PARK,NY,11040-1436,,"Health organization in NEW HYDE PARK, NY with annual revenue of approximately $109M",
ALVERNIA UNIVERSITY,231522643,Other,400 SAINT BERNARDINE ST,READING,PA,19607-1737,,"Other organization in READING, PA with annual revenue of approximately $109M",
CENTRAL FUND OF ISRAEL,132992985,International,461 CENTRAL AVE,CEDARHURST,NY,11516-2008,,"International organization in CEDARHURST, NY with annual revenue of approximately $109M",
BAYLOR ST LUKES MEDICAL GROUP,760458535,Health,6624 FANNIN ST,HOUSTON,TX,77030-2312,,"Health organization in HOUSTON, TX with annual revenue of approximately $109M",
"NORTH COUNTRY HOSPITAL & HEALTH CENTER,INC",030185556,Health,189 PROUTY DR,NEWPORT,VT,05855-9326,,"Health organization in NEWPORT, VT with annual revenue of approximately $109M",
ADVENTIST HEALTH DELANO,770258013,Health,1401 GARCES HWY,DELANO,CA,93215-3660,,"Health organization in DELANO, CA with annual revenue of approximately $109M",
WAYNESBORO HOSPITAL,231360854,Health,PO BOX 2767,YORK,PA,17405-2767,,"Health organization in YORK, PA with annual revenue of approximately $109M",
INTERNATIONAL CHILDRENS FUND INC,391303430,Other,619 MAIN ST,NEENAH,WI,54956-2430,,"Other organization in NEENAH, WI with annual revenue of approximately $109M",
COMMUNITY FDN OF GREATER DES MOINES,426139033,Community,1915 GRAND AVE,DES MOINES,IA,50309-3311,,"Community organization in DES MOINES, IA with annual revenue of approximately $109M",
FLORIDA STATE UNIVERSITY FOUNDATION INC,596152180,Education,325 W COLLEGE AVE,TALLAHASSEE,FL,32301-1403,,"Education organization in TALLAHASSEE, FL with annual revenue of approximately $109M",
NEW YORK BOTANICAL GARDEN,131693134,Environment,2900 SOUTHERN BLVD,BRONX,NY,10458-5126,,"Environment organization in BRONX, NY with annual revenue of approximately $109M",
BROOKINGS INSTITUTION,530196577,Research,1775 MASSACHUSETTS AVE NW,WASHINGTON,DC,20036-2103,,"Research organization in WASHINGTON, DC with annual revenue of approximately $109M",
CHILDRENS MEDICAL GROUP INC,391789197,Health,PO BOX 1997,MILWAUKEE,WI,53201-1997,,"Health organization in MILWAUKEE, WI with annual revenue of approximately $109M",
PHEAA STUDENT LOAN FOUNDATION INC,510423553,Community,1200 N 7TH ST,HARRISBURG,PA,17102-1419,,"Community organization in HARRISBURG, PA with annual revenue of approximately $108M",
KQED INC,941241309,Arts & Culture,2601 MARIPOSA ST,SAN FRANCISCO,CA,94110-1426,,"Arts & Culture organization in SAN FRANCISCO, CA with annual revenue of approximately $108M",
ASPIRE HEALTH PARTNERS INC,592301233,Health,5151 ADANSON STREET SUITE 200,ORLANDO,FL,32804-1317,,"Health organization in ORLANDO, FL with annual revenue of approximately $108M",
HUGGINS HOSPITAL,020223332,Health,PO BOX 912,WOLFEBORO,NH,03894-0912,,"Health organization in WOLFEBORO, NH with annual revenue of approximately $108M",
ADVANCE CARE ALLIANCE OF NY INC,465489816,Human Services,300 MOTOR PARKWAY,HAUPPAUGE,NY,11788-5191,,"Human Services organization in HAUPPAUGE, NY with annual revenue of approximately $108M",
PENOBSCOT COMMUNITY HEALTH CENTER,010514750,Health,103 MAINE AVE,BANGOR,ME,04401-4330,,"Health organization in BANGOR, ME with annual revenue of approximately $108M",
VISTA COMMUNITY CLINIC,952815615,Health,1000 VALE TERRACE DR,VISTA,CA,92084-5218,,"Health organization in VISTA, CA with annual revenue of approximately $108M",
DENVER FOUNDATION,846048381,Community,1009 N GRANT ST,DENVER,CO,80203-2908,,"Community organization in DENVER, CO with annual revenue of approximately $108M",
MINNESOTA PUBLIC RADIO,410953924,Arts & Culture,480 CEDAR ST,SAINT PAUL,MN,55101-2217,,"Arts & Culture organization in SAINT PAUL, MN with annual revenue of approximately $108M",
MAINE COMMUNITY FOUNDATION INC,010391479,Community,245 MAIN ST,ELLSWORTH,ME,04605-1613,,"Community organization in ELLSWORTH, ME with annual revenue of approximately $108M",
LIFEMOVES,770160469,Other,2550 GREAT AMERICA WAY STE 201,SANTA CLARA,CA,95054-1160,,"Other organization in SANTA CLARA, CA with annual revenue of approximately $108M",
MOUNT SINAI HEALTH SYSTEM SELF INSURANCE TRUST,823994798,Health,150 EAST 42ND STREET,NEW YORK,NY,10017-5612,,"Health organization in NEW YORK, NY with annual revenue of approximately $108M",
CIVIL AIR PATROL,756037853,Human Services,105 S HANSELL ST,MAXWELL AFB,AL,36112-5937,,"Human Services organization in MAXWELL AFB, AL with annual revenue of approximately $108M",
WARTBURG COLLEGE,420680351,Education,100 WARTBURG BLVD,WAVERLY,IA,50677-2215,,"Education organization in WAVERLY, IA with annual revenue of approximately $108M",
GENEVA GENERAL HOSPITAL,160743032,Health,196 NORTH ST,GENEVA,NY,14456-1651,,"Health organization in GENEVA, NY with annual revenue of approximately $108M",
PITZER COLLEGE,952261113,Education,1050 N MILLS AVE,CLAREMONT,CA,91711-3908,,"Education organization in CLAREMONT, CA with annual revenue of approximately $108M",
ACCESS SUPPORTS FOR LIVING INC,141471097,Human Services,15 FORTUNE RD W,MIDDLETOWN,NY,10941-1625,,"Human Services organization in MIDDLETOWN, NY with annual revenue of approximately $108M",
BUSINESS LEADERSHIP ORGANIZED FOR CATHOLIC SCHOOLS,232125843,Education,555 CROTON RD STE 120,KNG OF PRUSSA,PA,19406-3171,,"Education organization in KNG OF PRUSSA, PA with annual revenue of approximately $108M",
REDLANDS CHRISTIAN MIGRANT ASSOCIATION INC,591221966,Human Services,402 W MAIN ST,IMMOKALEE,FL,34142-3933,,"Human Services organization in IMMOKALEE, FL with annual revenue of approximately $108M",
CHILDRENS INSTITUTE INC,951641424,Human Services,2121 W TEMPLE ST,LOS ANGELES,CA,90026-4915,,"Human Services organization in LOS ANGELES, CA with annual revenue of approximately $108M",
UNIVERSITY OF LYNCHBURG,540505922,Education,1501 LAKESIDE DR,LYNCHBURG,VA,24501-3113,,"Education organization in LYNCHBURG, VA with annual revenue of approximately $108M",
SHORE HEALTH SERVICES INC,540560500,Health,608 DENBIGH BLVD STE 800,NEWPORT NEWS,VA,23608-4487,,"Health organization in NEWPORT NEWS, VA with annual revenue of approximately $108M",
OWENSBORO HEALTH MEDICAL GROUP INC,611197638,Health,1201 PLEASANT VALLEY RD,OWENSBORO,KY,42303-9811,,"Health organization in OWENSBORO, KY with annual revenue of approximately $108M",
IN-Q-TEL INC,522149962,International,1800 TYSONS BLVD STE 1200,MC LEAN,VA,22102-4261,,"International organization in MC LEAN, VA with annual revenue of approximately $108M",
UNITED PALESTINIAN APPEAL INC,112494808,International,1330 NEW HAMPSHIRE AVENUE NORTHWEST,WASHINGTON,DC,20036-6350,,"International organization in WASHINGTON, DC with annual revenue of approximately $108M",
CONCORDIA LUTHERAN MINISTRIES,205138278,Health,134 MARWOOD RD,CABOT,PA,16023-2206,,"Health organization in CABOT, PA with annual revenue of approximately $108M",
LESEA GLOBAL FEED THE HUNGRY INC,320053249,Community,61300 IRONWOOD RD,SOUTH BEND,IN,46614-9019,,"Community organization in SOUTH BEND, IN with annual revenue of approximately $108M",
ARC OF THE OZARKS,436049004,Other,1501 E PYTHIAN ST,SPRINGFIELD,MO,65802-2139,,"Other organization in SPRINGFIELD, MO with annual revenue of approximately $108M",
ST MARYS UNIVERSITY OF MINNESOTA,410695527,Education,700 TERRACE HTS,WINONA,MN,55987-1320,,"Education organization in WINONA, MN with annual revenue of approximately $107M",
ASCENSION VIA CHRISTI HOSPITAL MANHATTAN INC,481186704,Health,PO BOX 1289,MANHATTAN,KS,66505-1289,,"Health organization in MANHATTAN, KS with annual revenue of approximately $107M",
LIFESKILLS INC,610661819,Health,PO BOX 6499,BOWLING GREEN,KY,42102-6499,,"Health organization in BOWLING GREEN, KY with annual revenue of approximately $107M",
GOODWILL INDUSTRIES OF ORANGE COUNTY CA,951644018,Human Services,410 N FAIRVIEW ST,SANTA ANA,CA,92703-3412,,"Human Services organization in SANTA ANA, CA with annual revenue of approximately $107M",
THE LONG ISLAND HOME,112837244,Health,400 SUNRISE HIGHTWAY,AMITYVILLE,NY,11701-0000,,"Health organization in AMITYVILLE, NY with annual revenue of approximately $107M",
AMERICAN LUNG ASSOCIATION,131632524,Health,55 W WACKER DR STE 1150,CHICAGO,IL,60601-1796,,"Health organization in CHICAGO, IL with annual revenue of approximately $107M",
NEWTON HEALTHCARE CORPORATION,481040759,Health,600 MEDICAL CENTER DR,NEWTON,KS,67114-8780,,"Health organization in NEWTON, KS with annual revenue of approximately $107M",
BAY AREA COMMUNITY HEALTH,237255435,Other,40910 FREMONT BLVD,FREMONT,CA,94538-4375,,"Other organization in FREMONT, CA with annual revenue of approximately $107M",
NORTHWEST BEHAVIORAL HEALTH PARTNERSHIP INC,300177624,Health,2520 NEW BUTLER ROAD,NEW CASTLE,PA,16101-3213,,"Health organization in NEW CASTLE, PA with annual revenue of approximately $107M",
OAKS INTEGRATED CARE,237048397,Health,770 WOODLANE RD STE 23,WESTAMPTON,NJ,08060-3803,,"Health organization in WESTAMPTON, NJ with annual revenue of approximately $107M",
ST LUKES HOSPITAL AT THE VINTAGE,263734606,Health,6624 FANNIN ST STE 2505,HOUSTON,TX,77030-2338,,"Health organization in HOUSTON, TX with annual revenue of approximately $107M",
COPLEY HOSPITAL INC,030179423,Health,528 WASHINGTON HWY,MORRISVILLE,VT,05661-8973,,"Health organization in MORRISVILLE, VT with annual revenue of approximately $107M",
HOSPICE OF THE FLORIDA SUNCOAST INC,591744006,Human Services,6310 CAPITAL DRIVE,LAKEWOOD RANCH,FL,34202-5013,,"Human Services organization in LAKEWOOD RANCH, FL with annual revenue of approximately $107M",
MERCY LIFE CENTER CORPORATION,251604115,Health,1200 REEDSDALE ST,PITTSBURGH,PA,15233-2109,,"Health organization in PITTSBURGH, PA with annual revenue of approximately $107M",
COMMUNITY RESEARCH FOUNDATION INC,953248148,Other,1202 MORENA BLVD STE 100,SAN DIEGO,CA,92110-3842,,"Other organization in SAN DIEGO, CA with annual revenue of approximately $107M",
SERVICE ACCESS AND MANAGEMENT INC,232897133,Health,590 TERRY REILEY WAY,POTTSVILLE,PA,17901-1704,,"Health organization in POTTSVILLE, PA with annual revenue of approximately $107M",
AGRACE HOSPICECARE INCORPORATED,391319537,Other,5395 E CHERYL PKWY,FITCHBURG,WI,53711-5395,,"Other organization in FITCHBURG, WI with annual revenue of approximately $107M",
STOWERS INSTITUTE FOR MEDICAL RESEARCH,202993509,Health,1000 E 50TH ST,KANSAS CITY,MO,64110-2262,,"Health organization in KANSAS CITY, MO with annual revenue of approximately $107M",
GOODWILL INDUSTRIES OF GREATER NEW YORK AND NORTHERN NEW JERSEY INC,131641068,Human Services,25 ELM PLACE 3RD FLOOR,BROOKLYN,NY,11201-5826,,"Human Services organization in BROOKLYN, NY with annual revenue of approximately $107M",
ORGAN PROCUREMENT AGENCY OF MICHIGAN,382772488,Other,3861 RESEARCH PARK DR,ANN ARBOR,MI,48108-2217,,"Other organization in ANN ARBOR, MI with annual revenue of approximately $107M",
DAVIS MEMORIAL HOSPITAL,550375433,Health,PO BOX 1484,ELKINS,WV,26241-1484,,"Health organization in ELKINS, WV with annual revenue of approximately $107M",
MORSELIFE HOME CARE INC,592753822,Health,4847 DAVID S MACK DR,WEST PALM BCH,FL,33417-8023,,"Health organization in WEST PALM BCH, FL with annual revenue of approximately $107M",
DALTON SCHOOLS INC,132751872,Education,108 E 89TH ST,NEW YORK,NY,10128-1502,,"Education organization in NEW YORK, NY with annual revenue of approximately $107M",
CHARLESTOWN COMMUNITY INC,521315965,Health,701 MAIDEN CHOICE LN,CATONSVILLE,MD,21228-5968,,"Health organization in CATONSVILLE, MD with annual revenue of approximately $107M",
NORTHFIELD MOUNT HERMON SCHOOL,042109865,Education,ONE CAMPLIGHTER WAY,MOUNT HERMON,MA,01301-0000,,"Education organization in MOUNT HERMON, MA with annual revenue of approximately $107M",
METHODIST RETIREMENT COMMUNITIES,384022302,Other,1440 LAKE FRONT CIR STE 140,THE WOODLANDS,TX,77380-3607,,"Other organization in THE WOODLANDS, TX with annual revenue of approximately $107M",
HEALTH SERVICES MANAGEMENT INC,621808817,Health,206 FORTRESS BLVD,MURFREESBORO,TN,37128-5269,,"Health organization in MURFREESBORO, TN with annual revenue of approximately $107M",
STEP BY STEP INC,232053563,Human Services,744 KIDDER ST,WILKES BARRE,PA,18702-7015,,"Human Services organization in WILKES BARRE, PA with annual revenue of approximately $107M",
CALIFORNIA COLLEGE OF THE ARTS,941156485,Education,1111 8TH ST,SAN FRANCISCO,CA,94107-2247,,"Education organization in SAN FRANCISCO, CA with annual revenue of approximately $107M",
BAYLOR SCOTT & WHITE HOLDINGS,463130985,Health,301 N WASHINGTON AVE,DALLAS,TX,75246-1754,,"Health organization in DALLAS, TX with annual revenue of approximately $107M",
OKLAHOMA CITY COMMUNITY FOUNDATION INC,237024262,Community,1000 N BROADWAY AVE,OKLAHOMA CITY,OK,73102-5827,,"Community organization in OKLAHOMA CITY, OK with annual revenue of approximately $107M",
WEINGART CENTER ASSOCIATION,956054617,Human Services,566 S SAN PEDRO ST,LOS ANGELES,CA,90013-2102,,"Human Services organization in LOS ANGELES, CA with annual revenue of approximately $107M",
FAMILY HEALTH CENTERS OF SOUTHWEST FLORIDA INC,591741273,Health,PO BOX 1357,FORT MYERS,FL,33902-1357,,"Health organization in FORT MYERS, FL with annual revenue of approximately $106M",
AMERICAN SOCIETY FOR TESTING AND MATERIALS,231352024,Research,100 BARR HARBOR DR,CONSHOHOCKEN,PA,19428-2951,,"Research organization in CONSHOHOCKEN, PA with annual revenue of approximately $106M",
FLAGET HEALTHCARE INC,611345363,Other,4305 NEW SHEPHERDSVILLE RD,BARDSTOWN,KY,40004-9019,,"Other organization in BARDSTOWN, KY with annual revenue of approximately $106M",
SIOUX FALLS AREA COMMUNITY FOUNDATION INC,311748533,Community,200 CHERAPA PL,SIOUX FALLS,SD,57103-2205,,"Community organization in SIOUX FALLS, SD with annual revenue of approximately $106M",
NORDX,010511356,Health,301A US ROUTE 1,SCARBOROUGH,ME,04074-9701,,"Health organization in SCARBOROUGH, ME with annual revenue of approximately $106M",
GOODWILL INDUSTRIES OF NORTH CENTRAL WISC INC,391144913,Human Services,1800 APPLETON ROAD,MENASHA,WI,54952-3727,,"Human Services organization in MENASHA, WI with annual revenue of approximately $106M",
UCF ATHLETIC ASSOCIATION INC,562334448,Education,12201 RESEARCH PKWY STE 200,ORLANDO,FL,32826-3265,,"Education organization in ORLANDO, FL with annual revenue of approximately $106M",
CEDAR CREST VILLAGE LLC,522184915,Human Services,813 MAIDEN CHOICE LN,CATONSVILLE,MD,21228-3679,,"Human Services organization in CATONSVILLE, MD with annual revenue of approximately $106M",
ROBERT WOOD JOHNSON HEALTH NETWORK INC,223420314,Health,C/O CORP FINANCE 2 CRESCENT PLACE,OCEANPORT,NJ,07757-0000,,"Health organization in OCEANPORT, NJ with annual revenue of approximately $106M",
MAINE VETERANS HOME,010376832,Health,460 CIVIC CENTER DR,AUGUSTA,ME,04330-7902,,"Health organization in AUGUSTA, ME with annual revenue of approximately $106M",
DIDLAKE INC,540943833,Other,8641 BREEDEN AVENUE,MANASSAS,VA,20110-8431,,"Other organization in MANASSAS, VA with annual revenue of approximately $106M",
AMEGO INC,237131690,Health,33 PERRY AVE,ATTLEBORO,MA,02703-2417,,"Health organization in ATTLEBORO, MA with annual revenue of approximately $106M",
LEGAL SERVICES OF NEW JERSEY INC,222059939,Human Services,PO BOX 1357,EDISON,NJ,08818-1357,,"Human Services organization in EDISON, NJ with annual revenue of approximately $106M",
YOUNG MENS CHRISTIAN ASSOCIATION OF GREATER BOSTON INC,042103551,Human Services,316 HUNTINGTON AVENUE,BOSTON,MA,02115-5019,,"Human Services organization in BOSTON, MA with annual revenue of approximately $106M",
HOME-LIFE SERVICES INC,133899699,Human Services,440 89TH STREET 5TH FLOOR,BROOKLYN,NY,11209-6072,,"Human Services organization in BROOKLYN, NY with annual revenue of approximately $106M",
ROCKY MOUNTAIN HEALTH CARE SERVICES,840765729,Other,8595 EXPLORER DR,COLORADO SPGS,CO,80920-1012,,"Other organization in COLORADO SPGS, CO with annual revenue of approximately $106M",
HAMPDEN-SYDNEY COLLEGE,540505906,Education,PO BOX 127,HMPDEN SYDNEY,VA,23943-0127,,"Education organization in HMPDEN SYDNEY, VA with annual revenue of approximately $106M",
NATIVE AMERICAN HERITAGE ASSOCIATION,460414390,Human Services,12085 QUAAL RD,BLACK HAWK,SD,57718-9722,,"Human Services organization in BLACK HAWK, SD with annual revenue of approximately $106M",
ELIZABETHTOWN COLLEGE,231352632,Education,1 ALPHA DR,ELIZABETHTOWN,PA,17022-2298,,"Education organization in ELIZABETHTOWN, PA with annual revenue of approximately $106M",
QUEENS NORTH HAWAII COMMUNITY HOSPITAL,990260423,Health,67-1125 MAMALAHOA HWY,KAMUELA,HI,96743-8496,,"Health organization in KAMUELA, HI with annual revenue of approximately $106M",
METHODIST HEALTHCARE-OLIVE BRANCH HOSPITAL,640889822,Health,1211 UNION AVE SUITE 900,MEMPHIS,TN,38104-6638,,"Health organization in MEMPHIS, TN with annual revenue of approximately $106M",
VIRGINIA EARLY CHILDHOOD FOUNDATION,203970624,Education,1703 N PARHAM RD STE 110,RICHMOND,VA,23229-4650,,"Education organization in RICHMOND, VA with annual revenue of approximately $106M",
ST MARYS MEDICAL GROUP LLC,261356310,Health,PO BOX 45998,SAINT LOUIS,MO,63145-5998,,"Health organization in SAINT LOUIS, MO with annual revenue of approximately $106M",
KEYSTONE RURAL HEALTH CENTER,251546810,Health,111 CHAMBERS HILL DR STE 200,CHAMBERSBURG,PA,17201-7304,,"Health organization in CHAMBERSBURG, PA with annual revenue of approximately $106M",
ITHAKA HARBORS INC,133857105,Research,ONE LIBERTY PLAZA 165 BROADWAY 5TH,NEW YORK,NY,10006-1404,,"Research organization in NEW YORK, NY with annual revenue of approximately $106M",
PHILABUNDANCE,232290505,Human Services,3616 S GALLOWAY ST,PHILADELPHIA,PA,19148-5402,,"Human Services organization in PHILADELPHIA, PA with annual revenue of approximately $105M",
FEDCAP REHABILITATION SERVICES INC,135645879,Other,633 THIRD AVENUE 6TH FL,NEW YORK,NY,10017-6733,,"Other organization in NEW YORK, NY with annual revenue of approximately $105M",
FEED MORE INC,541150923,Human Services,8020 VILLA PARK DR,RICHMOND,VA,23228-6500,,"Human Services organization in RICHMOND, VA with annual revenue of approximately $105M",
HIGH TECH HIGH,330866664,Education,2861 WOMBLE RD,SAN DIEGO,CA,92106-6025,,"Education organization in SAN DIEGO, CA with annual revenue of approximately $105M",
MEMORIAL HERMANN HOSPITAL BASED PHYSICIAN GROUP,844504483,Health,929 GESSNER RD STE 1900,HOUSTON,TX,77024-2317,,"Health organization in HOUSTON, TX with annual revenue of approximately $105M",
AMERICAN BOARD OF INTERNAL MEDICINE,390866228,Health,510 WALNUT ST,PHILADELPHIA,PA,19106-3619,,"Health organization in PHILADELPHIA, PA with annual revenue of approximately $105M",
APLA HEALTH & WELLNESS,841661910,Health,611 S KINGSLEY DR,LOS ANGELES,CA,90005-2319,,"Health organization in LOS ANGELES, CA with annual revenue of approximately $105M",
COLLEGE OF ST BENEDICT BUSINESS OFF,410969244,Education,37 COLLEGE AVE S,SAINT JOSEPH,MN,56374-2001,,"Education organization in SAINT JOSEPH, MN with annual revenue of approximately $105M",
SERVICENET INC,042526194,Health,21 OLANDER DR,NORTHAMPTON,MA,01060-3631,,"Health organization in NORTHAMPTON, MA with annual revenue of approximately $105M",
ISLAND PEER REVIEW ORGANIZATION INC,112662689,Community,1979 MARCUS AVE,LAKE SUCCESS,NY,11042-1076,,"Community organization in LAKE SUCCESS, NY with annual revenue of approximately $105M",
GOODWILL INDUSTRIES OF THE VALLEY WORKS,270953369,Human Services,PO BOX 2420,ROANOKE,VA,24010-2420,,"Human Services organization in ROANOKE, VA with annual revenue of approximately $105M",
EASTER SEALS MIDWEST,430979927,Other,11933 WESTLINE IND DR,SAINT LOUIS,MO,63146-3203,,"Other organization in SAINT LOUIS, MO with annual revenue of approximately $105M",
BHMC-CONWAY,461629800,Health,9601 BAPTIST HEALTH DR,LITTLE ROCK,AR,72205-6316,,"Health organization in LITTLE ROCK, AR with annual revenue of approximately $105M",
CHILDRENS ANESTHESIOLOGY ASSOCIATES LTD,232592835,Health,3401 CIVIC CENTER BLVD SUITE 9302,PHILADELPHIA,PA,19104-4319,,"Health organization in PHILADELPHIA, PA with annual revenue of approximately $105M",
BROWARD BEHAVORIAL HEALTH COALITION INC,453675836,Health,1715 SE 4TH AVE,FT LAUDERDALE,FL,33316-2515,,"Health organization in FT LAUDERDALE, FL with annual revenue of approximately $105M",
TRINITY BROADCASTING OF TEXAS INC,741945661,Religion,2442 MICHELLE DR,TUSTIN,CA,92780-7015,,"Religion organization in TUSTIN, CA with annual revenue of approximately $105M",
BOSMA INDUSTRIES FOR THE BLIND INC,311246086,Human Services,6270 CORPORATE DR,INDIANAPOLIS,IN,46278-2900,,"Human Services organization in INDIANAPOLIS, IN with annual revenue of approximately $105M",
CITY OF OAKS FOUNDATION INC,274467111,Community,222 W HARGETT ST SUITE 608,RALEIGH,NC,27601-1316,,"Community organization in RALEIGH, NC with annual revenue of approximately $105M",
CHOATE ROSEMARY HALL FOUNDATION INCORPORATED,060910420,Education,333 CHRISTIAN ST,WALLINGFORD,CT,06492-3818,,"Education organization in WALLINGFORD, CT with annual revenue of approximately $105M",
CHAPTERS HEALTH SYSTEM INC,592264957,Human Services,12470 TELECOM DR STE 300,TEMPLE TERR,FL,33637-0904,,"Human Services organization in TEMPLE TERR, FL with annual revenue of approximately $105M",
PUBLIC INTEREST REGISTRY,331025119,Research,11911 FREEDOM DR STE 1000,RESTON,VA,20190-5631,,"Research organization in RESTON, VA with annual revenue of approximately $105M",
SAINT VINCENT COLLEGE,250964126,Education,300 FRASER PURCHASE RD,LATROBE,PA,15650-2667,,"Education organization in LATROBE, PA with annual revenue of approximately $105M",
SPORTS PHYSICALTHERAPY OCCUPATIONAL THERAPY AND REHABILITATION SERVICE,061655704,Health,972 BRUSH HOLLOW RD 5TH FL,WESTBURY,NY,11590-1740,,"Health organization in WESTBURY, NY with annual revenue of approximately $105M",
DETROIT AREA AGENCY ON AGING,382320421,Human Services,1333 BREWERY PARK BLVD STE 200,DETROIT,MI,48207-4544,,"Human Services organization in DETROIT, MI with annual revenue of approximately $105M",
LONE STAR CIRCLE OF CARE,743001674,Health,2423 WILLIAMS DR STE 107,GEORGETOWN,TX,78628-3269,,"Health organization in GEORGETOWN, TX with annual revenue of approximately $104M",
PHYSICIANS ORGANIZATION AT CHILDRENS HOSPITAL INC,043266103,Health,300 LONGWOOD AVE,BOSTON,MA,02115-5724,,"Health organization in BOSTON, MA with annual revenue of approximately $104M",
IOLANI SCHOOL,990073502,Education,563 KAMOKU ST,HONOLULU,HI,96826-5245,,"Education organization in HONOLULU, HI with annual revenue of approximately $104M",
MEDICAL CARE OF QUEENS PC,474377679,Health,972 BRUSH HOLLOW RD 5TH FL,WESTBURY,NY,11590-1740,,"Health organization in WESTBURY, NY with annual revenue of approximately $104M",
ROBERT W WOODRUFF HEALTH SCIENCES CENTER FUND INC,582229271,Education,191 PEACHTREE ST NE STE 3540,ATLANTA,GA,30303-1799,,"Education organization in ATLANTA, GA with annual revenue of approximately $104M",
HEBREW HOME FOR THE AGED,131739971,Health,5901 PALISADE AVE,BRONX,NY,10471-1205,,"Health organization in BRONX, NY with annual revenue of approximately $104M",
SPECIAL EDUCATION SERVICES,362781597,Education,195 POPLAR PL,NORTH AURORA,IL,60542-1404,,"Education organization in NORTH AURORA, IL with annual revenue of approximately $104M",
UNION UNIVERSITY,620516509,Education,1050 UNION UNIVERSITY DR,JACKSON,TN,38305-3656,,"Education organization in JACKSON, TN with annual revenue of approximately $104M",
CLNY ALLIANCE INC,463146870,Health,972 BRUSH HOLLOW RD 5TH FL,WESTBURY,NY,11590-1740,,"Health organization in WESTBURY, NY with annual revenue of approximately $104M",
VISIONS IN EDUCATION,824129819,Education,PO BOX 269003,SACRAMENTO,CA,95826-9003,,"Education organization in SACRAMENTO, CA with annual revenue of approximately $104M",
COOK CHILDRENS MEDICAL CENTER - PROSPER,852354189,Health,801 7TH AVE,FORT WORTH,TX,76104-2733,,"Health organization in FORT WORTH, TX with annual revenue of approximately $104M",
COLUMBIA BASIN HEALTH ASSOCIATION,910896701,Health,1515 E COLUMBIA ST,OTHELLO,WA,99344-1846,,"Health organization in OTHELLO, WA with annual revenue of approximately $104M",
AITKIN COMMUNITY HOSPITAL INC,410745522,Health,200 BUNKER HILL DR,AITKIN,MN,56431-1865,,"Health organization in AITKIN, MN with annual revenue of approximately $104M",
LANSDALE HOSPITAL CORPORATION,263359979,Health,100 MEDICAL CAMPUS DR,LANSDALE,PA,19446-1259,,"Health organization in LANSDALE, PA with annual revenue of approximately $104M",
GREATER LAWRENCE FAMILY HEALTH CENTER INC,042708824,Health,1 GRIFFIN BROOK DRIVE,METHUEN,MA,01844-1865,,"Health organization in METHUEN, MA with annual revenue of approximately $104M",
VENICE FAMILY CLINIC,952769432,Health,604 ROSE AVE,VENICE,CA,90291-2767,,"Health organization in VENICE, CA with annual revenue of approximately $104M",
GREATER PHILADELPHIA YOUNG MENS CHRISTIAN ASSOCIATION,231243965,Human Services,400 FAYETTE ST STE 250,CONSHOHOCKEN,PA,19428-2186,,"Human Services organization in CONSHOHOCKEN, PA with annual revenue of approximately $104M",
COLORADO COALITION FOR THE HOMELESS,840951575,Human Services,2111 CHAMPA ST,DENVER,CO,80205-2529,,"Human Services organization in DENVER, CO with annual revenue of approximately $104M",
DAFFY CHARITABLE FUND,863177440,Community,221 MAIN ST UNIT 2061,LOS ALTOS,CA,94023-9039,,"Community organization in LOS ALTOS, CA with annual revenue of approximately $104M",
KSKJ LIFE AMERICAN SLOVENIAN CATHOLIC UNION,361150880,Other,2439 GLENWOOD AVE,JOLIET,IL,60435-5478,,"Other organization in JOLIET, IL with annual revenue of approximately $104M",
NATIONAL CENTER FOR STATE COURTS,520914250,Human Services,300 NEWPORT AVE,WILLIAMSBURG,VA,23185-4147,,"Human Services organization in WILLIAMSBURG, VA with annual revenue of approximately $104M",
THE COMMUNITY FOUNDATION FOR NORTHEAST FLORIDA INC,596150746,Community,245 RIVERSIDE AVE STE 310,JACKSONVILLE,FL,32202-4945,,"Community organization in JACKSONVILLE, FL with annual revenue of approximately $104M",
NURSING SISTERS HOME CARE INC,112126736,Health,110 BI COUNTY BLVD STE 114,FARMINGDALE,NY,11735-3923,,"Health organization in FARMINGDALE, NY with annual revenue of approximately $104M",
GOODWILL INDUSTRIES OF SACRAMENTO VALLEY & NORTHERN NEVADA INC,941201202,Human Services,8001 FOLSOM BLVD,SACRAMENTO,CA,95826-2621,,"Human Services organization in SACRAMENTO, CA with annual revenue of approximately $104M",
EASTERSEALS-GOODWILL NORTHERN ROCKY MOUNTAIN INC,810232125,Other,425 1ST AVE N,GREAT FALLS,MT,59401-2507,,"Other organization in GREAT FALLS, MT with annual revenue of approximately $104M",
UNIVERSITY PEDIATRICIANS,383336414,Health,3901 BEAUBIEN ST,DETROIT,MI,48201-2119,,"Health organization in DETROIT, MI with annual revenue of approximately $104M",
ADVOCATES FOR A HEALTHY COMMUNITY INC,431602701,Health,440 E TAMPA ST,SPRINGFIELD,MO,65806-1131,,"Health organization in SPRINGFIELD, MO with annual revenue of approximately $104M",
CALIFORNIA STATE UNIVERSITY FRESNO FOUNDATION,946003272,Education,4910 N CHESTNUT AVE,FRESNO,CA,93726-1852,,"Education organization in FRESNO, CA with annual revenue of approximately $104M",
EASTER SEALS UCP NORTH CAROLINA & VIRGINIA INC,560670676,Health,5171 GLENWOOD AVE STE 211,RALEIGH,NC,27612-3266,,"Health organization in RALEIGH, NC with annual revenue of approximately $104M",
REGIONAL FOOD BANK OF N E NY INC,222470885,Human Services,965 ALBANY SHAKER RD,LATHAM,NY,12110-1409,,"Human Services organization in LATHAM, NY with annual revenue of approximately $104M",
NATIONAL TRUST FOR HISTORIC PRESERVATION IN THE UNITED STATES,530210807,Arts & Culture,600 14TH ST NW STE 500,WASHINGTON,DC,20005-2011,,"Arts & Culture organization in WASHINGTON, DC with annual revenue of approximately $104M",
WHITLEY MEMORIAL HOSPITAL INC,351967665,Health,1260 E STATE ROAD 205,COLUMBIA CITY,IN,46725-9492,,"Health organization in COLUMBIA CITY, IN with annual revenue of approximately $104M",
WESLEY RETIREMENT SERVICES INC,420680440,Human Services,5508 NW 88TH ST,JOHNSTON,IA,50131-3005,,"Human Services organization in JOHNSTON, IA with annual revenue of approximately $104M",
UNIVERSITY OF DUBUQUE,420680323,Education,2000 UNIVERSITY AVE,DUBUQUE,IA,52001-5050,,"Education organization in DUBUQUE, IA with annual revenue of approximately $104M",
SAMARITAS,381360553,Human Services,8131 E JEFFERSON AVE,DETROIT,MI,48214-2610,,"Human Services organization in DETROIT, MI with annual revenue of approximately $103M",
LETOURNEAU UNIVERSITY,751081109,Education,2100 S MOBBERLY AVE,LONGVIEW,TX,75602-3564,,"Education organization in LONGVIEW, TX with annual revenue of approximately $103M",
SAN FRANCISCO OPERA ASSOCIATION,940836240,Arts & Culture,301 VAN NESS AVE,SAN FRANCISCO,CA,94102-4509,,"Arts & Culture organization in SAN FRANCISCO, CA with annual revenue of approximately $103M",
ROESSLER-CHADWICK FOUNDATION,950615438,Education,26800 ACADEMY DR,PLS VRDS PNSL,CA,90274-3971,,"Education organization in PLS VRDS PNSL, CA with annual revenue of approximately $103M",
BOARD OF TRUSTEES OF ESSEX COUNTY COLLEGE,221821292,Education,303 UNIVERSITY AVE,NEWARK,NJ,07102-1719,,"Education organization in NEWARK, NJ with annual revenue of approximately $103M",
COBRE VALLEY REGIONAL MEDICAL CENTER,860732836,Health,5880 S HOSPITAL DR,GLOBE,AZ,85501-9447,,"Health organization in GLOBE, AZ with annual revenue of approximately $103M",
CANISIUS UNIVERSITY OF BUFFALO NEW YORK,160743942,Education,2001 MAIN ST,BUFFALO,NY,14208-1035,,"Education organization in BUFFALO, NY with annual revenue of approximately $103M",
CHILDRENS HOSPITAL AT MISSION,330528802,Health,1201 W LA VETA AVE,ORANGE,CA,92868-4203,,"Health organization in ORANGE, CA with annual revenue of approximately $103M",
CASCADIA HEALTH,930770054,Health,PO BOX 8459,PORTLAND,OR,97207-8459,,"Health organization in PORTLAND, OR with annual revenue of approximately $103M",
CLINICAS DE SALUD DEL PUEBLO INC,952657324,Health,1166 K ST,BRAWLEY,CA,92227-2737,,"Health organization in BRAWLEY, CA with annual revenue of approximately $103M",
OTTERBEIN UNIVERSITY,314379532,Education,1 S GROVE ST,WESTERVILLE,OH,43081-2004,,"Education organization in WESTERVILLE, OH with annual revenue of approximately $103M",
BARTOW REGIONAL MEDICAL CENTER INC,475387418,Health,2200 OSPREY BLVD,BARTOW,FL,33830-3308,,"Health organization in BARTOW, FL with annual revenue of approximately $103M",
WELLNESSWORX INC,832689231,Health,1901 S VICTORIA AVE UNIT 109,OXNARD,CA,93035-1464,,"Health organization in OXNARD, CA with annual revenue of approximately $103M",
QSAC INC,112482974,Health,253 W 35TH STREET 14TH FLOOR,NEW YORK,NY,10001-1907,,"Health organization in NEW YORK, NY with annual revenue of approximately $103M",
COMPREHENSIVE HEALTHCARE,911043304,Health,402 S 4TH AVE,YAKIMA,WA,98902-3546,,"Health organization in YAKIMA, WA with annual revenue of approximately $103M",
UVA PRINCE WILLIAM HEALTH SYSTEM,541278944,Other,8700 SUDLEY RD,MANASSAS,VA,20110-4418,,"Other organization in MANASSAS, VA with annual revenue of approximately $103M",
TRUSTEES OF DEERFIELD ACADEMY,042103563,Education,7 BOYDEN LN,DEERFIELD,MA,01342-5002,,"Education organization in DEERFIELD, MA with annual revenue of approximately $103M",
NEW HAMPSHIRE CATHOLIC CHARITIES INC,020222163,Human Services,100 WILLIAM LOEB DR UNIT 3,MANCHESTER,NH,03109-5324,,"Human Services organization in MANCHESTER, NH with annual revenue of approximately $103M",
PUERTO RICAN ORGNZ TO MOTIVATE ENLIGHTEN & SERVE ADDICTS INC,132663328,Health,311 E 175TH ST,BRONX,NY,10457-5859,,"Health organization in BRONX, NY with annual revenue of approximately $103M",
CARESOURCE WEST VIRGINIA CO,473028244,Health,PO BOX 8738,DAYTON,OH,45401-8738,,"Health organization in DAYTON, OH with annual revenue of approximately $103M",
MIDWAY SPECIALTY CARE CENTER INC,461773887,Health,356 E MIDWAY RD,FORT PIERCE,FL,34982-7148,,"Health organization in FORT PIERCE, FL with annual revenue of approximately $103M",
UNIVERSITY FAMILY PHYSICIANS INC,237427350,Other,950 N MERIDIAN ST STE 1200,INDIANAPOLIS,IN,46204-1011,,"Other organization in INDIANAPOLIS, IN with annual revenue of approximately $103M",
WAKE FOREST UNIVERSITY HEALTH SCIENCES GROUP RETURN,900222618,Education,MEDICAL CENTER BOULEVARD,WINSTONSALEM,NC,27157-0001,,"Education organization in WINSTONSALEM, NC with annual revenue of approximately $103M",
GRANADA HILLS CHARTER,050570400,Education,10535 ZELZAH AVE,GRANADA HILLS,CA,91344-5902,,"Education organization in GRANADA HILLS, CA with annual revenue of approximately $103M",
JUNIATA COLLEGE,231352652,Education,1700 MOORE ST,HUNTINGDON,PA,16652-2119,,"Education organization in HUNTINGDON, PA with annual revenue of approximately $103M",
MOTHER FRANCES HOSPITAL JACKSONVILLE,751976930,Health,5101 N O CONNOR BLVD,IRVING,TX,75039-5714,,"Health organization in IRVING, TX with annual revenue of approximately $103M",
REID PHYSICIAN ASSOCIATES INC,263086555,Health,1100 REID PKWY,RICHMOND,IN,47374-1157,,"Health organization in RICHMOND, IN with annual revenue of approximately $103M",
NATIONAL COMMITTEE FOR QUALITY ASSURANCE,521191985,Health,1100 13TH ST NW FL 3,WASHINGTON,DC,20005-4285,,"Health organization in WASHINGTON, DC with annual revenue of approximately $103M",
MIDDLE EAST BROADCASTING NETWORKS INC,421591205,International,7600 BOSTON BLVD,SPRINGFIELD,VA,22153-3136,,"International organization in SPRINGFIELD, VA with annual revenue of approximately $103M",
UNIVERSITY OF THE SCIENCES IN PHILADELPHIA,231352668,Other,600 S 43RD ST,PHILADELPHIA,PA,19104-4495,,"Other organization in PHILADELPHIA, PA with annual revenue of approximately $103M",
CONCURRENT TECHNOLOGIES CORPORATION,251556708,Research,100 CTC DR,JOHNSTOWN,PA,15904-1935,,"Research organization in JOHNSTOWN, PA with annual revenue of approximately $102M",
SUSAN G KOMEN BREAST CANCER FOUNDATION,751835298,Health,13770 NOEL RD UNIT 801889,DALLAS,TX,75380-0147,,"Health organization in DALLAS, TX with annual revenue of approximately $102M",
CENTRAL INDIANA HEALTH SYSTEM CARDIAC SERVICES INC,351869951,Other,PO BOX 45998,SAINT LOUIS,MO,63145-5998,,"Other organization in SAINT LOUIS, MO with annual revenue of approximately $102M",
NEW YORK STATE TECHNOLOGY ENTERPRISE CORPORATION,161521105,Other,99 OTIS ST 2ND FLOOR,ROME,NY,13441-4713,,"Other organization in ROME, NY with annual revenue of approximately $102M",
JOINT TOWNSHIP DISTRICT MEMORIAL HOSPITAL,341623770,Health,200 SAINT CLAIR AVE,ST MARYS,OH,45885-2400,,"Health organization in ST MARYS, OH with annual revenue of approximately $102M",
SOUTHWEST BEHAVIORAL HEALTH SERVICES INC,860290033,Health,3450 N 3RD ST,PHOENIX,AZ,85012-2331,,"Health organization in PHOENIX, AZ with annual revenue of approximately $102M",
ASIAN HEALTH SERVICES,942235908,Health,101 8TH ST STE 100,OAKLAND,CA,94607-4707,,"Health organization in OAKLAND, CA with annual revenue of approximately $102M",
ASHBY PONDS INC,205609803,Human Services,813 MAIDEN CHOICE LN,CATONSVILLE,MD,21228-3679,,"Human Services organization in CATONSVILLE, MD with annual revenue of approximately $102M",
THE UNIVERSITY OF THE VIRGIN ISLANDS,660432514,Other,2 JOHN BREWERS BAY,ST THOMAS,VI,00802-6004,,"Other organization in ST THOMAS, VI with annual revenue of approximately $102M",
BAPTIST MEDICAL CENTER OF NASSAU I NC,593234721,Health,1660 PRUDENTIAL DR STE 203,JACKSONVILLE,FL,32207-8185,,"Health organization in JACKSONVILLE, FL with annual revenue of approximately $102M",
UNIVERSITY OF VIRGINIA DARDEN SCHOOL FOUNDATION,546046419,Education,PO BOX 7263,CHARLOTTESVLE,VA,22906-7263,,"Education organization in CHARLOTTESVLE, VA with annual revenue of approximately $102M",
BEAVER DAM COMMUNITY HOSPITALS INC,391157876,Health,707 S UNIVERSITY AVE,BEAVER DAM,WI,53916-3027,,"Health organization in BEAVER DAM, WI with annual revenue of approximately $102M",
ADULTS AND CHILDREN WITH LEARNING AND DEVELOPMENTAL DISABILITIES INC,116042250,Human Services,807 S OYSTER BAY RD,BETHPAGE,NY,11714-1030,,"Human Services organization in BETHPAGE, NY with annual revenue of approximately $102M",
ABRAXAS ALLIANCE INC,863980032,Human Services,2840 LIBERTY AVE STE 300,PITTSBURGH,PA,15222-4776,,"Human Services organization in PITTSBURGH, PA with annual revenue of approximately $102M",
MURMURATION RESEARCH INSTITUTE INC,861626267,Community,44 WALL ST STE 1600,NEW YORK,NY,10005-2411,,"Community organization in NEW YORK, NY with annual revenue of approximately $102M",
LIFESPIRE INC,132526022,Human Services,462 7TH AVENUE 5TH FLOOR,NEW YORK,NY,10018-7852,,"Human Services organization in NEW YORK, NY with annual revenue of approximately $102M",
SETON HILL UNIVERSITY,250965557,Education,1 SETON HILL DR,GREENSBURG,PA,15601-1548,,"Education organization in GREENSBURG, PA with annual revenue of approximately $102M",
CATHOLIC CHARITIES OF THE ARCHDIOCESE OF GALVESTON-HOUSTON,741109733,Human Services,2900 LOUISIANA ST,HOUSTON,TX,77006-3435,,"Human Services organization in HOUSTON, TX with annual revenue of approximately $102M",
GAYLORD HOSPITAL INC,060646649,Health,PO BOX 400,WALLINGFORD,CT,06492-7048,,"Health organization in WALLINGFORD, CT with annual revenue of approximately $102M",
ASCENSION MEDICAL GROUP PROMED,383193801,Health,PO BOX 45998,SAINT LOUIS,MO,63145-5998,,"Health organization in SAINT LOUIS, MO with annual revenue of approximately $102M",
NATIONAL STUDENT CLEARINGHOUSE,521836384,Education,2300 DULLES STATION BLVD STE 220,HERNDON,VA,20171-6352,,"Education organization in HERNDON, VA with annual revenue of approximately $102M",
COMMUNITY CONNECTIONS FOR CHILDREN INC,222842846,Human Services,29 N DUKE ST,YORK,PA,17401-1204,,"Human Services organization in YORK, PA with annual revenue of approximately $102M",
HARRISON MEMORIAL HOSPITAL,610420440,Health,1210 KY HWY 36 EAST,CYNTHIANA,KY,41031-7490,,"Health organization in CYNTHIANA, KY with annual revenue of approximately $102M",
TRUSTEES OF THE LAWRENCEVILLE SCHOOL,210634503,Education,2500 MAIN ST,LAWRENCEVILLE,NJ,08648-1600,,"Education organization in LAWRENCEVILLE, NJ with annual revenue of approximately $102M",
ENTERTAINMENT INDUSTRY FOUNDATION,951644609,Community,10880 WILSHIRE BLVD STE 1400,LOS ANGELES,CA,90024-4119,,"Community organization in LOS ANGELES, CA with annual revenue of approximately $102M",
SAINT FRANCIS UNIVERSITY,251024358,Education,132 FRANCISCAN WAY,LORETTO,PA,15940-9703,,"Education organization in LORETTO, PA with annual revenue of approximately $102M",
EARLHAM COLLEGE,350868073,Education,801 NATIONAL RD W,RICHMOND,IN,47374-4021,,"Education organization in RICHMOND, IN with annual revenue of approximately $102M",
COMMONWEALTH FOUNDATION FOR CANCER RESEARCH FOUNDATION,043632101,Health,800 E CANAL ST STE 1900,RICHMOND,VA,23219-3955,,"Health organization in RICHMOND, VA with annual revenue of approximately $102M",
HUTCHINSON HEALTH,841715908,Health,1095 HIGHWAY 15 S,HUTCHINSON,MN,55350-5000,,"Health organization in HUTCHINSON, MN with annual revenue of approximately $102M",
GREATER MIAMI JEWISH FEDERATION,590624404,Community,4200 BISCAYNE BLVD,MIAMI,FL,33137-3246,,"Community organization in MIAMI, FL with annual revenue of approximately $102M",
MEANS DATABASE INC,474262060,Human Services,4410 MASSACHUSETTS AVE NW 397,WASHINGTON,DC,20016-5561,,"Human Services organization in WASHINGTON, DC with annual revenue of approximately $102M",
MENTAL HEALTH SYSTEMS INC,953302967,Health,9465 FARNHAM ST,SAN DIEGO,CA,92123-1308,,"Health organization in SAN DIEGO, CA with annual revenue of approximately $102M",
UNIVERSITY OF MASSACHUSETTS FOUNDATION INC,046013152,Education,100 CARLSON AVE,NEWTON,MA,02459-3326,,"Education organization in NEWTON, MA with annual revenue of approximately $102M",
THE PEOPLE CONCERN,956143865,Human Services,2116 ARLINGTON AVE STE 100,LOS ANGELES,CA,90018-1300,,"Human Services organization in LOS ANGELES, CA with annual revenue of approximately $102M",
GOODWILL EASTER SEALS MIAMI VALLEY,310537112,Human Services,660 S MAIN ST,DAYTON,OH,45402-2708,,"Human Services organization in DAYTON, OH with annual revenue of approximately $102M",
TEXAS WESLEYAN UNIVERSITY,750800691,Education,1201 WESLEYAN ST,FORT WORTH,TX,76105-1536,,"Education organization in FORT WORTH, TX with annual revenue of approximately $102M",
CHILDRENS RESEARCH INSTITUTE,521654453,Health,111 MICHIGAN AVE NW,WASHINGTON,DC,20010-2916,,"Health organization in WASHINGTON, DC with annual revenue of approximately $102M",
SUPPORTIVE CONCEPTS FOR FAMILIES INC,232713290,Human Services,3929 PERKIOMEN AVE,READING,PA,19606-2718,,"Human Services organization in READING, PA with annual revenue of approximately $102M",
COMMON COUNSEL FOUNDATION,943214166,Community,1624 FRANKLIN ST STE 1022,OAKLAND,CA,94612-2824,,"Community organization in OAKLAND, CA with annual revenue of approximately $102M",
RANDOLPH-MACON COLLEGE,540505940,Education,PO BOX 5005,ASHLAND,VA,23005-5505,,"Education organization in ASHLAND, VA with annual revenue of approximately $101M",
UNIVERSITY OF MISSISSIPPI FOUNDATION,237310293,Education,406 UNIVERSITY AVE,OXFORD,MS,38655-4389,,"Education organization in OXFORD, MS with annual revenue of approximately $101M",
NATIONAL ASSOCIATION OF COUNTY AND CITY HEALTH OFFICIALS,521426663,Other,1201 I ST NW STE 400,WASHINGTON,DC,20005-5920,,"Other organization in WASHINGTON, DC with annual revenue of approximately $101M",
GARDNER-WEBB UNIVERSITY,560529972,Education,PO BOX 997,BOILING SPGS,NC,28017-0997,,"Education organization in BOILING SPGS, NC with annual revenue of approximately $101M",
CHILDRENS RESCUE FUND,133486829,Community,1520 BROOK AVENUE,BRONX,NY,10457-8037,,"Community organization in BRONX, NY with annual revenue of approximately $101M",
FORGOTTEN HARVEST INC,382926476,Human Services,15000 W 8 MILE RD,OAK PARK,MI,48237-3009,,"Human Services organization in OAK PARK, MI with annual revenue of approximately $101M",
SHOWA WOMENS UNIVERSITY INC,980085912,Education,SETAGAYA KU TOKYO 154-8533,JAPAN,,00000-0000,,"Education organization in JAPAN,  with annual revenue of approximately $101M",
ANDREWS UNIVERSITY,381627600,Education,4150 ADMINISTRATION DR,BERRIEN SPRGS,MI,49104-1400,,"Education organization in BERRIEN SPRGS, MI with annual revenue of approximately $101M",
COVENANT HEALTH SYSTEM,752765566,Health,3615 19TH ST,LUBBOCK,TX,79410-1203,,"Health organization in LUBBOCK, TX with annual revenue of approximately $101M",
RECOVERY INNOVATIONS INC,711018775,Health,2701 N 16TH ST STE 316,PHOENIX,AZ,85006-1266,,"Health organization in PHOENIX, AZ with annual revenue of approximately $101M",
INDIANA INSTITUTE OF TECHNOLOGY INC,350845258,Education,1600 E WASHINGTON BLVD,FORT WAYNE,IN,46803-1228,,"Education organization in FORT WAYNE, IN with annual revenue of approximately $101M",
