name,ein,category,address,city,state,zip_code,website,description,phone
KANSAS CITY HOSPICE INC,431209344,Human Services,9001 STATE LINE RD STE 300,KANSAS CITY,MO,64114-3212,,"Human Services organization in KANSAS CITY, MO with annual revenue of approximately $37M",
INDIAN HEALTH COUNCIL INC,952506788,Health,50100 GOLSH RD,VALLEY CENTER,CA,92082-5338,,"Health organization in VALLEY CENTER, CA with annual revenue of approximately $37M",
CODE FOR AMERICA LABS,271067272,Community,972 MISSION ST 5TH FLOOR,SAN FRANCISCO,CA,94103-2994,,"Community organization in SAN FRANCISCO, CA with annual revenue of approximately $37M",
ALTURA CENTERS FOR HEALTH,770465378,Health,1134 E CARTMILL AVE,TULARE,CA,93274-9610,,"Health organization in TULARE, CA with annual revenue of approximately $37M",
PLANNED PARENTHOOD OF WISCONSN INC,390863391,Health,302 N JACKSON ST,MILWAUKEE,WI,53202-5904,,"Health organization in MILWAUKEE, WI with annual revenue of approximately $37M",
DAVIS & ELKINS COLLEGE,550357021,Education,100 CAMPUS DR,ELKINS,WV,26241-3971,,"Education organization in ELKINS, WV with annual revenue of approximately $37M",
CATHOLIC CHARITIES INC ARCHDIOCESE OF HARTFORD,060667607,Human Services,896 ASYLUM AVE,HARTFORD,CT,06105-1901,,"Human Services organization in HARTFORD, CT with annual revenue of approximately $37M",
COOKE SCHOOL AND INSTITUTE,133396691,Human Services,1713 MADISON AVE,NEW YORK,NY,10029-1801,,"Human Services organization in NEW YORK, NY with annual revenue of approximately $37M",
SAN FRANCISCO AIDS FOUNDATION,942927405,Other,940 HOWARD ST,SAN FRANCISCO,CA,94103-4114,,"Other organization in SAN FRANCISCO, CA with annual revenue of approximately $37M",
CLEVELAND INSTITUTE OF ART,340714334,Education,11610 EUCLID AVE,CLEVELAND,OH,44106-4349,,"Education organization in CLEVELAND, OH with annual revenue of approximately $37M",
MONTANA LAND RELIANCE,810369262,Environment,401 N CALIFORNIA ST,HELENA,MT,59601-4966,,"Environment organization in HELENA, MT with annual revenue of approximately $37M",
OZARK HEALTH INC,710407683,Health,2500 HIGHWAY 65 S,CLINTON,AR,72031-6588,,"Health organization in CLINTON, AR with annual revenue of approximately $37M",
LIFEWORKS INCORPORATED,222512887,Human Services,789 CLAPBOARDTREE ST,WESTWOOD,MA,02090-1717,,"Human Services organization in WESTWOOD, MA with annual revenue of approximately $37M",
THE ARC OF SAN DIEGO,951863913,Human Services,3030 MARKET ST,SAN DIEGO,CA,92102-3230,,"Human Services organization in SAN DIEGO, CA with annual revenue of approximately $37M",
PLYMOUTH PLACE INC,362169165,Human Services,315 N LA GRANGE RD,LA GRANGE PARK,IL,60526-1903,,"Human Services organization in LA GRANGE PARK, IL with annual revenue of approximately $37M",
LIGHTHOUSE COMMUNITY PUBLIC SCHOOLS,943370410,Education,444 HEGENBERGER RD,OAKLAND,CA,94621-1418,,"Education organization in OAKLAND, CA with annual revenue of approximately $37M",
LIFELINE CONNECTIONS,910787084,Health,1601 E 4TH PLAIN BLVD STE A212,VANCOVER,WA,98661-3713,,"Health organization in VANCOVER, WA with annual revenue of approximately $37M",
ATHENS REGIONAL PHYSICIAN SERVICES INC,582332921,Education,1199 PRINCE AVE,ATHENS,GA,30606-2797,,"Education organization in ATHENS, GA with annual revenue of approximately $37M",
PENNINGTON SCHOOL,210635004,Other,112 W DELAWARE AVE,PENNINGTON,NJ,08534-1601,,"Other organization in PENNINGTON, NJ with annual revenue of approximately $37M",
SOUTHWEST GEORGIA COMMUNITY ACTION COUNCIL INC,580957513,Other,PO BOX 3728,MOULTRIE,GA,31776-3728,,"Other organization in MOULTRIE, GA with annual revenue of approximately $37M",
THE WHOLE CHILD-MENTAL HEALTH & HOUSING SERVICES,952031148,Health,10155 COLIMA RD,WHITTIER,CA,90603-2042,,"Health organization in WHITTIER, CA with annual revenue of approximately $37M",
CIVIC SAN DIEGO,953035557,Community,8989 RIO SAN DIEGO DR STE 100,SAN DIEGO,CA,92108-1647,,"Community organization in SAN DIEGO, CA with annual revenue of approximately $37M",
STERLING CO,462455801,Other,PO BOX 1457,GADSDEN,AL,35902-1457,,"Other organization in GADSDEN, AL with annual revenue of approximately $37M",
UNIVERSITY OF PROVIDENCE,810231777,Education,1301 20TH ST S,GREAT FALLS,MT,59405-4934,,"Education organization in GREAT FALLS, MT with annual revenue of approximately $37M",
WILMINGTON COLLEGE,310537514,Education,1870 QUAKER WAY,WILMINGTON,OH,45177-2473,,"Education organization in WILMINGTON, OH with annual revenue of approximately $37M",
AHC INC,541026365,Human Services,2230 FAIRFAX DR STE 100,ARLINGTON,VA,22201-6617,,"Human Services organization in ARLINGTON, VA with annual revenue of approximately $37M",
JAMES B HAGGIN MEMORIAL HOSPITAL INC,610510934,Health,464 LINDEN AVE,HARRODSBURG,KY,40330-1882,,"Health organization in HARRODSBURG, KY with annual revenue of approximately $37M",
MARTHA OBRYAN CENTER INC,620477728,Religion,711 S 7TH ST,NASHVILLE,TN,37206-3815,,"Religion organization in NASHVILLE, TN with annual revenue of approximately $37M",
HOSPICE OF THE CHESAPEAKE,521181448,Other,90 RITCHIE HWY,PASADENA,MD,21122-4303,,"Other organization in PASADENA, MD with annual revenue of approximately $37M",
SANTA BARBARA FOUNDATION,951866094,Community,1111 CHAPALA ST STE 200,SANTA BARBARA,CA,93101-3100,,"Community organization in SANTA BARBARA, CA with annual revenue of approximately $37M",
FAMILY SERVICES INC,520730225,Human Services,610 E DIAMOND AVE STE M,GAITHERSBURG,MD,20877-5321,,"Human Services organization in GAITHERSBURG, MD with annual revenue of approximately $37M",
EAST ARKANSAS FAMILY HEALTH CENTER INC,237128104,Other,900 N 7TH ST,WEST MEMPHIS,AR,72301-2001,,"Other organization in WEST MEMPHIS, AR with annual revenue of approximately $37M",
THE ARC OF NORTHEAST INDIANA INC,350998711,Human Services,4919 COLDWATER RD,FORT WAYNE,IN,46825-5532,,"Human Services organization in FORT WAYNE, IN with annual revenue of approximately $37M",
MARKLUND CHILDRENS HOME,362652532,Human Services,1S450 WYATT DR,GENEVA,IL,60134-4921,,"Human Services organization in GENEVA, IL with annual revenue of approximately $37M",
LIFESTREAM INC,042743314,Health,444 MYRTLE ST,NEW BEDFORD,MA,02746-1682,,"Health organization in NEW BEDFORD, MA with annual revenue of approximately $37M",
ZAKAT FOUNDATION OF AMERICA,364476244,Other,PO BOX 639,WORTH,IL,60482-0639,,"Other organization in WORTH, IL with annual revenue of approximately $37M",
US CHAMBER OF COMMERCE FOUNDATION,461561597,Education,1615 H ST NW,WASHINGTON,DC,20062-0001,,"Education organization in WASHINGTON, DC with annual revenue of approximately $37M",
ORANGE COUNTY HEAD START,953411088,Education,2501 PULLMAN ST STE 100,SANTA ANA,CA,92705-5515,,"Education organization in SANTA ANA, CA with annual revenue of approximately $37M",
WEST VIRGINIA HEALTH RIGHT INC,311066881,Other,1520 WASHINGTON ST E,CHARLESTON,WV,25311-2511,,"Other organization in CHARLESTON, WV with annual revenue of approximately $37M",
VALUE SCHOOLS,954813155,Education,680 WILSHIRE PL STE 315,LOS ANGELES,CA,90005-3950,,"Education organization in LOS ANGELES, CA with annual revenue of approximately $37M",
MARLBOROUGH SCHOOL,952816435,Education,250 S ROSSMORE AVE,LOS ANGELES,CA,90004-3739,,"Education organization in LOS ANGELES, CA with annual revenue of approximately $37M",
CENIKOR FOUNDATION,760031861,Other,11931 WICKCHESTER LN STE 300,HOUSTON,TX,77043-4572,,"Other organization in HOUSTON, TX with annual revenue of approximately $37M",
UPSTATE NEW YORK TRANSPLANT SERVICES INC,161172453,Other,4444 BRYANT AND STRATTON WAY,WILLIAMSVILLE,NY,14221-6013,,"Other organization in WILLIAMSVILLE, NY with annual revenue of approximately $37M",
CONNECTICUT CHILDRENS FOUNDATION INC,222619869,Health,282 WASHINGTON ST,HARTFORD,CT,06106-3322,,"Health organization in HARTFORD, CT with annual revenue of approximately $37M",
ALZHEIMERS DRUG DISCOVERY FOUNDATION,201082179,Research,57 W 57TH ST STE 904,NEW YORK,NY,10019-2819,,"Research organization in NEW YORK, NY with annual revenue of approximately $37M",
PLANNED PARENTHOOD OF GREATER OHIO,341015976,Health,444 W EXCHANGE ST,AKRON,OH,44302-1711,,"Health organization in AKRON, OH with annual revenue of approximately $37M",
NEW YORK STRUCTURAL BIOLOGY CENTER INC,134043587,Research,89 CONVENT AVE 133RD ST,NEW YORK,NY,10027-0000,,"Research organization in NEW YORK, NY with annual revenue of approximately $37M",
NATIONAL CONFERENCE OF BAR EXAMINERS,362472009,Human Services,302 S BEDFORD ST,MADISON,WI,53703-3622,,"Human Services organization in MADISON, WI with annual revenue of approximately $37M",
PORTLAND ART MUSEUM,930391604,Arts & Culture,1219 SW PARK AVE,PORTLAND,OR,97205-2430,,"Arts & Culture organization in PORTLAND, OR with annual revenue of approximately $37M",
HACKLEY COMMUNITY CARE CENTER INC,383014011,Other,1778 SANFORD ST,MUSKEGON,MI,49441-2537,,"Other organization in MUSKEGON, MI with annual revenue of approximately $37M",
COMMUNITY COUNSELING AND CORRECTIONAL SERVICES INC,810413419,Human Services,471 E MERCURY ST,BUTTE,MT,59701-1906,,"Human Services organization in BUTTE, MT with annual revenue of approximately $37M",
ANITA BORG INSTITUTE FOR WOMEN AND TECHNOLOGY,770480427,Research,1650 S AMPHLETT BLVD STE 110,SAN MATEO,CA,94402-2514,,"Research organization in SAN MATEO, CA with annual revenue of approximately $37M",
HUMBOLDT SENIOR RESOURCE CENTER INCORPORATED,942261434,Other,1910 CALIFORNIA ST,EUREKA,CA,95501-2870,,"Other organization in EUREKA, CA with annual revenue of approximately $37M",
KI BOIS COMMUNITY ACTION FOUNDATION INC,730770231,Human Services,PO BOX 727,STIGLER,OK,74462-0727,,"Human Services organization in STIGLER, OK with annual revenue of approximately $37M",
MARYLAND FAMILY NETWORK INC,521486702,Human Services,1800 WASHINGTON BLVD,BALTIMORE,MD,21230-1701,,"Human Services organization in BALTIMORE, MD with annual revenue of approximately $37M",
INDIAN HEALTH CARE RESOURCE CENTER,731042545,Health,550 S PEORIA AVE,TULSA,OK,74120-3820,,"Health organization in TULSA, OK with annual revenue of approximately $37M",
COMMUNITY HEALTHCARE SYSTEM INC,481020227,Health,120 W 8TH ST,ONAGA,KS,66521-9574,,"Health organization in ONAGA, KS with annual revenue of approximately $37M",
SOCIETY OF PETROLEUM ENGINEERS SPE INC,752001539,Research,222 PALISADES CREEK DR,RICHARDSON,TX,75080-2040,,"Research organization in RICHARDSON, TX with annual revenue of approximately $37M",
COMMUNITY NURSING SERVICE,870212459,Other,2830 SOUTH REDWOOD ROAD,WEST VALLEY CITY,UT,84119-5625,,"Other organization in WEST VALLEY CITY, UT with annual revenue of approximately $37M",
PFEIFFER UNIVERSITY,560529990,Education,PO BOX 960,MISENHEIMER,NC,28109-0960,,"Education organization in MISENHEIMER, NC with annual revenue of approximately $37M",
ALLEN-CHASE FOUNDATION,042108341,Education,271 PINE NOOK RD,DEERFIELD,MA,01342-9746,,"Education organization in DEERFIELD, MA with annual revenue of approximately $37M",
PATHWAYS INC,161089007,Human Services,33 DENISON PKWY W,CORNING,NY,14830-2613,,"Human Services organization in CORNING, NY with annual revenue of approximately $37M",
CHRISTENDOM EDUCATIONAL CORPORATION,541031437,Education,134 CHRISTENDOM DR,FRONT ROYAL,VA,22630-6534,,"Education organization in FRONT ROYAL, VA with annual revenue of approximately $37M",
HOLCOMB ASSOCIATES INC,232093566,Health,467 CREAMERY WAY,EXTON,PA,19341-2508,,"Health organization in EXTON, PA with annual revenue of approximately $37M",
WHITEFIELD ACADEMY INC,581224983,Other,1 WHITEFIELD DR SE,MABLETON,GA,30126-5236,,"Other organization in MABLETON, GA with annual revenue of approximately $37M",
PARATRANSIT SERVICES,911253112,Human Services,4810 AUTO CENTER WAY,BREMERTON,WA,98312-4309,,"Human Services organization in BREMERTON, WA with annual revenue of approximately $37M",
AFTER SCHOOL MATTERS INC,364409182,Education,66 E RANDOLPH ST,CHICAGO,IL,60601-7504,,"Education organization in CHICAGO, IL with annual revenue of approximately $37M",
FP ASSISTANCE INC,241322225,Human Services,9550 HELMS TRL STE 1100,FORNEY,TX,75126-7736,,"Human Services organization in FORNEY, TX with annual revenue of approximately $37M",
NSABP FOUNDATION INC,251781357,Health,2 ALLEGHENY CENTER,PITTSBURGH,PA,15212-5402,,"Health organization in PITTSBURGH, PA with annual revenue of approximately $37M",
MAGNOLIA MANOR INC,580911706,Human Services,2001 S LEE ST,AMERICUS,GA,31709-4715,,"Human Services organization in AMERICUS, GA with annual revenue of approximately $37M",
GOODWILL INDUSTRIES OF THE HEARTLAND,420923563,Other,8200 6TH ST SW,CEDAR RAPIDS,IA,52404-7029,,"Other organization in CEDAR RAPIDS, IA with annual revenue of approximately $37M",
MOBILE LOAVES & FISHES INC,742956081,Religion,9301 HOG EYE RD UNIT 950,AUSTIN,TX,78724-4619,,"Religion organization in AUSTIN, TX with annual revenue of approximately $37M",
UPPER VALLEY SERVICES INC,030305008,Human Services,72 S MAIN ST STE 200,WHITE RIVER JUNCTION,VT,05001-7161,,"Human Services organization in WHITE RIVER JUNCTION, VT with annual revenue of approximately $37M",
BAKER COUNTY MEDICAL SERVICES INC,593202547,Health,159 N 3RD ST,MACCLENNY,FL,32063-2103,,"Health organization in MACCLENNY, FL with annual revenue of approximately $37M",
SPECTRUM COMMUNITY SERVICES,382882853,Human Services,28303 JOY RD,WESTLAND,MI,48185-5524,,"Human Services organization in WESTLAND, MI with annual revenue of approximately $37M",
UNITED MEDICAL CENTERS,741993570,Health,2525 N VETERANS BLVD,EAGLE PASS,TX,78852-3302,,"Health organization in EAGLE PASS, TX with annual revenue of approximately $37M",
NORWELL VISITING NURSE ASSOC INC,042104797,Other,120 LONGWATER DRIVE,NORWELL,MA,02061-1653,,"Other organization in NORWELL, MA with annual revenue of approximately $37M",
DOTHOUSE HEALTH INC,237125970,Health,1353 DORCHESTER AVE,DORCHESTER,MA,02122-2932,,"Health organization in DORCHESTER, MA with annual revenue of approximately $37M",
EMPOWERMENT ACADEMY CHARTER SCHOOL INC,472329333,Education,240 EGE AVE,JERSEY CITY,NJ,07304-1413,,"Education organization in JERSEY CITY, NJ with annual revenue of approximately $37M",
BRIDGEWAY BEHAVIORAL HEALTH SERVICES A NJ NONPROFIT CORPORATIO,222257891,Health,373 CLERMONT TER,UNION,NJ,07083-8073,,"Health organization in UNION, NJ with annual revenue of approximately $37M",
INTERAGENCY COUNCIL OF DEVELOPMENTAL DISABILITIES AGENCIE,132938951,Other,150 W 30TH STREET 15TH FLOOR,NEW YORK,NY,10001-4138,,"Other organization in NEW YORK, NY with annual revenue of approximately $37M",
CLARKSON COLLEGE,363649217,Other,101 S 42ND ST,OMAHA,NE,68131-2739,,"Other organization in OMAHA, NE with annual revenue of approximately $37M",
LUTHERAN SOCIAL SERVICES OF THE NATIONAL CAPITAL AREA INC,530207407,Human Services,1730 RHODE ISLAND AVE NW STE 712,WASHINGTON,DC,20036-3115,,"Human Services organization in WASHINGTON, DC with annual revenue of approximately $37M",
PLAYERS PHILANTHROPY FUND,276601178,Community,1122 KENILWORTH DR STE 201,TOWSON,MD,21204-2143,,"Community organization in TOWSON, MD with annual revenue of approximately $37M",
GOODWILL INDUSTRIES OF NEW MEXICO,850107916,Human Services,1030 18TH NW ST,ALBUQUERQUE,NM,87104-0000,,"Human Services organization in ALBUQUERQUE, NM with annual revenue of approximately $37M",
ROCHAMBEAU THE FRENCH INTERNATIONAL SCHOOL OF WASHINGTON DC,520847186,Other,9650 ROCKVILLE PIKE,BETHESDA,MD,20814-3999,,"Other organization in BETHESDA, MD with annual revenue of approximately $37M",
ENVIRONMENTAL ALTERNATIVES,942751173,Human Services,350 MAIN ST,QUINCY,CA,95971-9375,,"Human Services organization in QUINCY, CA with annual revenue of approximately $37M",
LIGHTHOUSE YOUTH SERVICES INC,237046229,Human Services,401 E MCMILLAN ST,CINCINNATI,OH,45206-1922,,"Human Services organization in CINCINNATI, OH with annual revenue of approximately $37M",
AMERICAN ASSOCIATION OF CRITICAL CARE NURSES,952706905,Health,27071 ALISO CREEK RD,ALISO VIEJO,CA,92656-3399,,"Health organization in ALISO VIEJO, CA with annual revenue of approximately $37M",
JAMAICA HOSPITAL NURSING HOME INC,237216197,Other,8940 135TH ST,JAMAICA,NY,11418-2828,,"Other organization in JAMAICA, NY with annual revenue of approximately $37M",
LUTHERAN FAMILY SERVICES OF NE INC,237267972,Human Services,7929 W CENTER RD,OMAHA,NE,68124-3104,,"Human Services organization in OMAHA, NE with annual revenue of approximately $37M",
GALLOWAY RIDGE INC,562277623,Human Services,3000 GALLOWAY RIDGE,PITTSBORO,NC,27312-8639,,"Human Services organization in PITTSBORO, NC with annual revenue of approximately $37M",
AMERICAN WATER WORKS ASSOCIATION,135660277,Community,6666 W QUINCY AVE,DENVER,CO,80235-3098,,"Community organization in DENVER, CO with annual revenue of approximately $37M",
TORRANCE MEMORIAL MEDICAL CENTER HEALTH CARE FOUNDATION,953528452,Health,3330 LOMITA BLVD,TORRANCE,CA,90505-5002,,"Health organization in TORRANCE, CA with annual revenue of approximately $37M",
BONNIE BRAE,221500479,Human Services,3415 VALLEY RD,LIBERTY CORNER,NJ,07920-0000,,"Human Services organization in LIBERTY CORNER, NJ with annual revenue of approximately $37M",
SEATTLE ROOTS COMMUNITY HEALTH,237100868,Health,500 19TH AVE E,SEATTLE,WA,98112-4007,,"Health organization in SEATTLE, WA with annual revenue of approximately $37M",
SOUTHEAST KANSAS MENTAL HEALTH CENTER,480678906,Health,PO BOX 39,HUMBOLDT,KS,66748-0039,,"Health organization in HUMBOLDT, KS with annual revenue of approximately $37M",
NORTHWOOD HEALTH SYSTEMS INC,550540374,Health,111 19TH ST,WHEELING,WV,26003-3709,,"Health organization in WHEELING, WV with annual revenue of approximately $37M",
SAINT JOSEPH VILLA,231700999,Other,110 W WISSAHICKON AVE,FLOURTOWN,PA,19031-1802,,"Other organization in FLOURTOWN, PA with annual revenue of approximately $37M",
JUDSON UNIVERSITY A BAPTIST INSTITUTION,362515868,Education,1151 N STATE ST,ELGIN,IL,60123-1404,,"Education organization in ELGIN, IL with annual revenue of approximately $37M",
COALITION FOR RESPONSIBLE COMMUNITY DEVELOPMENT,202445113,Human Services,3101 S GRAND AVE,LOS ANGELES,CA,90007-3816,,"Human Services organization in LOS ANGELES, CA with annual revenue of approximately $37M",
COMMITTEE FOR CHILDREN,911188127,Human Services,2815 2ND AVE STE 210,SEATTLE,WA,98121-1261,,"Human Services organization in SEATTLE, WA with annual revenue of approximately $37M",
WESTERN NEW YORK BLOODCARE INC,160965865,Health,1010 MAIN ST STE 300,BUFFALO,NY,14202-1449,,"Health organization in BUFFALO, NY with annual revenue of approximately $37M",
GUNDERSEN LUTHERAN MEDICAL FOUNDATION INC,391249705,Health,1836 SOUTH AVE,LA CROSSE,WI,54601-5429,,"Health organization in LA CROSSE, WI with annual revenue of approximately $37M",
UNIVERSITY SCHOOL OF NASHVILLE,237424429,Education,2000 EDGEHILL AVE,NASHVILLE,TN,37212-2116,,"Education organization in NASHVILLE, TN with annual revenue of approximately $37M",
FRISCH SCHOOL,221937461,Education,120 W CENTURY RD,PARAMUS,NJ,07652-1405,,"Education organization in PARAMUS, NJ with annual revenue of approximately $37M",
NORTHWEST INDIANA COMMUNITY ACTION CORP,351112290,Community,5240 FOUNTAIN DR,CROWN POINT,IN,46307-1084,,"Community organization in CROWN POINT, IN with annual revenue of approximately $37M",
ASIAN PACIFIC HEALTH CARE VENTURE INC,954177752,Other,4216 FOUNTAIN AVENUE,LOS ANGELES,CA,90029-2256,,"Other organization in LOS ANGELES, CA with annual revenue of approximately $37M",
VENTURE TOGETHER INC,132661988,Human Services,25 SMITH ST STE 510,NANUET,NY,10954-2970,,"Human Services organization in NANUET, NY with annual revenue of approximately $37M",
BLESSINGCARE CORPORATION,371396010,Health,640 W WASHINGTON ST,PITTSFIELD,IL,62363-1350,,"Health organization in PITTSFIELD, IL with annual revenue of approximately $37M",
GREATER MANHATTAN COMMUNITY FOUNDATION,481215574,Community,555 POYNTZ AVE STE 269,MANHATTAN,KS,66502-0127,,"Community organization in MANHATTAN, KS with annual revenue of approximately $37M",
SAINT ALPHONSUS MEDICAL CENTER BAKER CITY INC,271790052,Other,3325 POCAHONTAS RD,BAKER CITY,OR,97814-1464,,"Other organization in BAKER CITY, OR with annual revenue of approximately $37M",
BUCKNER INTERNATIONAL,750891443,Human Services,12377 MERIT DR,DALLAS,TX,75251-2224,,"Human Services organization in DALLAS, TX with annual revenue of approximately $37M",
INDIANA UNIVERSITY HEALTH PAOLI INC,352090919,Health,950 N MERIDIAN ST STE 1200,INDIANAPOLIS,IN,46204-1011,,"Health organization in INDIANAPOLIS, IN with annual revenue of approximately $37M",
EAST HARLEM PILOT BLOCK HOUSING DEVELOPMENT FUND CO INC,132710179,Human Services,4 EXECUTIVE BLVD STE 100,SUFFERN,NY,10901-4176,,"Human Services organization in SUFFERN, NY with annual revenue of approximately $37M",
SHORECREST PREPARATORY SCHOOL INC,237412158,Education,5101 1ST ST NE,ST PETERSBURG,FL,33703-3009,,"Education organization in ST PETERSBURG, FL with annual revenue of approximately $37M",
FUTURE LEADERS OF AMERICAFOUNDATION INC,205095136,Education,320 W OHIO ST STE 4W,CHICAGO,IL,60654-7816,,"Education organization in CHICAGO, IL with annual revenue of approximately $37M",
MADISON COMMUNITY HOSPITAL,460228038,Health,323 SW 10TH ST,MADISON,SD,57042-3200,,"Health organization in MADISON, SD with annual revenue of approximately $37M",
PERMIAN BASIN AREA FOUNDATION,752295008,Community,3312 ANDREWS HWY,MIDLAND,TX,79703-5131,,"Community organization in MIDLAND, TX with annual revenue of approximately $37M",
CUSHING ACADEMY TRUSTEES,042104048,Education,39 SCHOOL ST,ASHBURNHAM,MA,01430-1500,,"Education organization in ASHBURNHAM, MA with annual revenue of approximately $37M",
CROSSWATER CANYON INC,274026852,Arts & Culture,2800 BULLITTSBURG CHURCH RD,PETERSBURG,KY,41080-9364,,"Arts & Culture organization in PETERSBURG, KY with annual revenue of approximately $37M",
UND AEROSPACE FOUNDATION,450390485,Education,4275 UNIVERSITY AVE,GRAND FORKS,ND,58202-6093,,"Education organization in GRAND FORKS, ND with annual revenue of approximately $37M",
UPCAP SERVICES INC,381957176,Human Services,PO BOX 606,ESCANABA,MI,49829-0606,,"Human Services organization in ESCANABA, MI with annual revenue of approximately $37M",
PRESBYTERIAN HOMES AND SERVICES,410758756,Other,2845 HAMLINE AVE N,ROSEVILLE,MN,55113-1888,,"Other organization in ROSEVILLE, MN with annual revenue of approximately $37M",
SPRINGBOARD COLLABORATIVE,453719806,Human Services,1500 JOHN F KENNEDY BOULEVARD SUITE,PHILADELPHIA,PA,19102-1710,,"Human Services organization in PHILADELPHIA, PA with annual revenue of approximately $37M",
AREA OFFICE ON AGING OF NORTHWESTERN OHIO INC,341310295,Human Services,2155 ARLINGTON AVE,TOLEDO,OH,43609-1903,,"Human Services organization in TOLEDO, OH with annual revenue of approximately $37M",
COALITION FOR HISPANIC FAMILY SER,133546023,Other,315 WYCKOFF AVE STE 4,BROOKLYN,NY,11237-5842,,"Other organization in BROOKLYN, NY with annual revenue of approximately $37M",
ARC OCEAN COUNTY CHAPTER,210723435,Human Services,815 CEDARBRIDGE AVE,LAKEWOOD,NJ,08701-4932,,"Human Services organization in LAKEWOOD, NJ with annual revenue of approximately $37M",
ELIM CHRISTIAN SERVICES,362276614,Education,13020 S CENTRAL AVE,CRESTWOOD,IL,60418-2710,,"Education organization in CRESTWOOD, IL with annual revenue of approximately $37M",
UNIVERSITY OF IOWA STRATEGIC INITIATIVES FUND,844628214,Education,5 W JEFFERSON ST 105,IOWA CITY,IA,52242-0000,,"Education organization in IOWA CITY, IA with annual revenue of approximately $37M",
MEDICAL CARE DEVELOPMENT INCORPORATED,016022787,Health,105 SECOND ST STE 2A,HALLOWELL,ME,04347-1533,,"Health organization in HALLOWELL, ME with annual revenue of approximately $37M",
MAUI HUMANE SOCIETY INC,996000953,Health,PO BOX 1047,PUUNENE,HI,96784-1047,,"Health organization in PUUNENE, HI with annual revenue of approximately $37M",
MUNICIPAL THEATRE ASSOCIATION OF ST LOUIS,430662485,Arts & Culture,1 THEATRE DR,SAINT LOUIS,MO,63112-1019,,"Arts & Culture organization in SAINT LOUIS, MO with annual revenue of approximately $37M",
LIFE AT ST FRANCIS HEALTHCARE INC,452569214,Other,1072 JUSTISON ST,WILMINGTON,DE,19801-5162,,"Other organization in WILMINGTON, DE with annual revenue of approximately $37M",
THOMAS AQUINAS COLLEGE,941698615,Education,10000 OJAI RD,SANTA PAULA,CA,93060-9621,,"Education organization in SANTA PAULA, CA with annual revenue of approximately $37M",
MARC COMMUNITY RESOURCES INC,860137109,Human Services,924 N COUNTRY CLUB DR,MESA,AZ,85201-4108,,"Human Services organization in MESA, AZ with annual revenue of approximately $37M",
PACIFIC NORTHWEST BALLET ASSOCIATION,910897129,Arts & Culture,301 MERCER ST,SEATTLE,WA,98109-4600,,"Arts & Culture organization in SEATTLE, WA with annual revenue of approximately $37M",
HARPETH HALL SCHOOL,620501916,Education,3801 HOBBS RD,NASHVILLE,TN,37215-2216,,"Education organization in NASHVILLE, TN with annual revenue of approximately $37M",
CENTRACARE HEALTH SYSTEM-LONG PRAIRIE,411924645,Health,50 CENTRACARE DR,LONG PRAIRIE,MN,56347-2100,,"Health organization in LONG PRAIRIE, MN with annual revenue of approximately $37M",
NEIGHBORHOOD HEALTH CENTER,273524752,Health,7320 SW HUNZIKER RD STE 300,PORTLAND,OR,97223-2302,,"Health organization in PORTLAND, OR with annual revenue of approximately $37M",
ILLINOIS COLLEGE OF OPTOMETRY,362310478,Education,3241 S MICHIGAN AVE,CHICAGO,IL,60616-4201,,"Education organization in CHICAGO, IL with annual revenue of approximately $37M",
CERENITY SENIOR CARE,363517696,Health,6499 UNIVERSITY AVE NE STE 300,MINNEAPOLIS,MN,55432-4303,,"Health organization in MINNEAPOLIS, MN with annual revenue of approximately $37M",
ODYSSEY HOUSE LOUISIANA INC,720743677,Health,1125 N TONTI ST,NEW ORLEANS,LA,70119-3549,,"Health organization in NEW ORLEANS, LA with annual revenue of approximately $37M",
DIMMIT REGIONAL HOSPITAL,263091251,Health,PO BOX 1016,CARRIZO SPGS,TX,78834-7016,,"Health organization in CARRIZO SPGS, TX with annual revenue of approximately $37M",
FAIR HEALTH INC,900524293,Health,800 3RD AVE STE 900,NEW YORK,NY,10022-7768,,"Health organization in NEW YORK, NY with annual revenue of approximately $37M",
CENTRAL MISSISSIPPI CIVIC IMPROVEMENT ASSOCIATION INC,640506107,Health,3502 W NORTHSIDE DR,JACKSON,MS,39213-4454,,"Health organization in JACKSON, MS with annual revenue of approximately $37M",
BEAUMONT HEALTH FOUNDATION,364852171,Health,100 COREWELL DR NW,GRAND RAPIDS,MI,49503-2041,,"Health organization in GRAND RAPIDS, MI with annual revenue of approximately $37M",
EAST CAROLINA UNIVERSITY FOUNDATION INC,566093187,Education,2200 S CHARLES BLVD,GREENVILLE,NC,27858-5235,,"Education organization in GREENVILLE, NC with annual revenue of approximately $37M",
PATHPOINT,952371668,Education,315 W HALEY ST STE 202,SANTA BARBARA,CA,93101-3471,,"Education organization in SANTA BARBARA, CA with annual revenue of approximately $37M",
HOPE INTERNATIONAL,232836648,International,227 GRANITE RUN DR,LANCASTER,PA,17601-6813,,"International organization in LANCASTER, PA with annual revenue of approximately $37M",
FEEDING WESTCHESTER INC,133507988,Other,200 CLEARBROOK ROAD,ELMSFORD,NY,10523-1314,,"Other organization in ELMSFORD, NY with annual revenue of approximately $37M",
PORTER-STARKE SERVICES INC,351330771,Health,601 WALL ST,VALPARAISO,IN,46383-2512,,"Health organization in VALPARAISO, IN with annual revenue of approximately $37M",
THE RECYCLING PARTNERSHIP INC,371622018,Environment,20 F STREET NW 7TH FL,WASHINGTON,DC,20001-6700,,"Environment organization in WASHINGTON, DC with annual revenue of approximately $37M",
BETHANY LUTHERAN COLLEGE & SEMINARY INC,410747165,Education,700 LUTHER DR,MANKATO,MN,56001-6192,,"Education organization in MANKATO, MN with annual revenue of approximately $37M",
OAKLAND AFFORDABLE HOUSING PRESERVATION INITIATIVES,264374725,Human Services,1619 HARRISON ST,OAKLAND,CA,94612-3307,,"Human Services organization in OAKLAND, CA with annual revenue of approximately $37M",
HEBREW ACADEMY FOR SPECIAL CHILDREN INC,112107335,Education,6701 BAY PARKWAY,BROOKLYN,NY,11204-4749,,"Education organization in BROOKLYN, NY with annual revenue of approximately $37M",
BEATITUDES CAMPUS OF CARE,860192846,Human Services,1610 W GLENDALE AVE,PHOENIX,AZ,85021-8948,,"Human Services organization in PHOENIX, AZ with annual revenue of approximately $37M",
EMHFL INC,611388556,Health,217 S 3RD ST,DANVILLE,KY,40422-1823,,"Health organization in DANVILLE, KY with annual revenue of approximately $37M",
RIDDLE VILLAGE,232613942,Human Services,1048 W BALTIMORE PIKE,MEDIA,PA,19063-6300,,"Human Services organization in MEDIA, PA with annual revenue of approximately $37M",
LOAVES & FISHES COMMUNITY SERVICES,363786777,Human Services,1871 HIGH GROVE LN,NAPERVILLE,IL,60540-3931,,"Human Services organization in NAPERVILLE, IL with annual revenue of approximately $37M",
FREEMAN NEOSHO HOSPITAL,431240629,Health,113 W HICKORY ST,NEOSHO,MO,64850-1705,,"Health organization in NEOSHO, MO with annual revenue of approximately $37M",
ST PATRICKS MANOR INC,042157057,Health,863 CENTRAL ST,FRAMINGHAM,MA,01701-4813,,"Health organization in FRAMINGHAM, MA with annual revenue of approximately $37M",
THE SMITH CENTER FOR THE PERFORMING ARTS,880361875,Arts & Culture,361 SYMPHONY PARK AVE,LAS VEGAS,NV,89106-1409,,"Arts & Culture organization in LAS VEGAS, NV with annual revenue of approximately $37M",
BIGHORN VALLEY HEALTH CENTER INCORPORATED,273113428,Health,10 4TH ST W,HARDIN,MT,59034-1802,,"Health organization in HARDIN, MT with annual revenue of approximately $37M",
COMMUNITY FOUNDATION OF WESTERN MASSACHUSETTS,223089640,Community,333 BRIDGE ST,SPRINGFIELD,MA,01103-1411,,"Community organization in SPRINGFIELD, MA with annual revenue of approximately $37M",
PROVIDENT GROUP - BISON PROPERTIES INC,831863389,Education,5565 BANKERS AVE,BATON ROUGE,LA,70808-2608,,"Education organization in BATON ROUGE, LA with annual revenue of approximately $37M",
YWCA METROPOLITAN CHICAGO,362179765,Human Services,1 N LA SALLE ST STE 1150,CHICAGO,IL,60602-4039,,"Human Services organization in CHICAGO, IL with annual revenue of approximately $37M",
HURON VALLEY AMBULANCE INC,382200909,Health,1200 STATE CIR,ANN ARBOR,MI,48108-1691,,"Health organization in ANN ARBOR, MI with annual revenue of approximately $36M",
THE WILLIAM GEORGE AGENCY FOR CHILDRENS SERVICES INC,131857994,Health,380 FREEVILLE RD,FREEVILLE,NY,13068-9684,,"Health organization in FREEVILLE, NY with annual revenue of approximately $36M",
CLEVELAND INSTITUTE OF MUSIC,340714600,Education,11021 EAST BLVD,CLEVELAND,OH,44106-1705,,"Education organization in CLEVELAND, OH with annual revenue of approximately $36M",
STAR COMMUNITY HEALTH INC,831933437,Health,520 E BROAD ST STE 108,BETHLEHEM,PA,18018-6330,,"Health organization in BETHLEHEM, PA with annual revenue of approximately $36M",
ROCKLIN ACADEMY,364449502,Other,224 PLAZA DRIVE SOUTH 200,ROCKLIN,CA,95765-0000,,"Other organization in ROCKLIN, CA with annual revenue of approximately $36M",
PUERTO RICO INDUSTRIES FOR THE BLIND,660800062,Human Services,2010 CALLE JAIME RODRIGUEZ,MAYAGUEZ,PR,00682-1337,,"Human Services organization in MAYAGUEZ, PR with annual revenue of approximately $36M",
WATTS HEALTHCARE CORPORATION,753046480,Health,10300 COMPTON AVE,LOS ANGELES,CA,90002-3628,,"Health organization in LOS ANGELES, CA with annual revenue of approximately $36M",
UOFL HEALTH-SHELBYVILLE INC,843196350,Health,530 S JACKSON ST,LOUISVILLE,KY,40202-1675,,"Health organization in LOUISVILLE, KY with annual revenue of approximately $36M",
HAMPTON REGIONAL MEDICAL CENTER,571017988,Health,503 W CAROLINA AVE,VARNVILLE,SC,29944-4735,,"Health organization in VARNVILLE, SC with annual revenue of approximately $36M",
ELMIRA COLLEGE,160743996,Education,1 PARK PL,ELMIRA,NY,14901-2085,,"Education organization in ELMIRA, NY with annual revenue of approximately $36M",
GENESIS LA ECONOMIC GROWTH CORPORATION,954712513,Community,801 S GRAND AVE STE 850,LOS ANGELES,CA,90017-5222,,"Community organization in LOS ANGELES, CA with annual revenue of approximately $36M",
YOUNG AUDIENCES CHARTER ASSOCIATION,460590653,Education,1407 VIRGIL ST,GRETNA,LA,70053-2340,,"Education organization in GRETNA, LA with annual revenue of approximately $36M",
CINCINNATI NATURE CENTER ASSOCIATION,316057978,Environment,4949 TEALTOWN RD,MILFORD,OH,45150-9737,,"Environment organization in MILFORD, OH with annual revenue of approximately $36M",
NAROPA UNIVERSITY,841029228,Other,2130 ARAPAHOE AVE,BOULDER,CO,80302-6602,,"Other organization in BOULDER, CO with annual revenue of approximately $36M",
FIRST NATIONS DEVELOPMENT INSTITUTE,541254491,Other,2432 MAIN STREET FLOOR 2,LONGMONT,CO,80501-1101,,"Other organization in LONGMONT, CO with annual revenue of approximately $36M",
ARTIS-NAPLES INC,592322926,Arts & Culture,5833 PELICAN BAY BLVD,NAPLES,FL,34108-2740,,"Arts & Culture organization in NAPLES, FL with annual revenue of approximately $36M",
LIVINGSTONE COLLEGE,560603922,Education,701 W MONROE ST,SALISBURY,NC,28144-5213,,"Education organization in SALISBURY, NC with annual revenue of approximately $36M",
KENTUCKY BLOOD CENTER INC,616058138,Health,3121 BEAUMONT CENTRE CIR,LEXINGTON,KY,40513-1709,,"Health organization in LEXINGTON, KY with annual revenue of approximately $36M",
MOUNDVIEW MEMORIAL HOSPITAL & CLINICS INC,390944012,Health,402 W LAKE ST,FRIENDSHIP,WI,53934-9699,,"Health organization in FRIENDSHIP, WI with annual revenue of approximately $36M",
NORTH FLORIDA RETIREMENT VILLAGE INC,591912330,Human Services,8000 NW 27TH BLVD,GAINESVILLE,FL,32606-8633,,"Human Services organization in GAINESVILLE, FL with annual revenue of approximately $36M",
ALLEN-STEVENSON SCHOOL,131623878,Other,132 E 78TH ST,NEW YORK,NY,10075-0355,,"Other organization in NEW YORK, NY with annual revenue of approximately $36M",
CENTRAL FLORIDA YOUNG MENS CHRISTIAN ASSOCIATION,590624430,Human Services,433 N MILLS AVE,ORLANDO,FL,32803-5721,,"Human Services organization in ORLANDO, FL with annual revenue of approximately $36M",
STAYWELL HEALTH CARE INC,223160873,Health,80 PHOENIX AVE STE 201,WATERBURY,CT,06702-1418,,"Health organization in WATERBURY, CT with annual revenue of approximately $36M",
STEPHEN GAYNOR SCHOOL,131969570,Education,148 W 90TH ST,NEW YORK,NY,10024-1202,,"Education organization in NEW YORK, NY with annual revenue of approximately $36M",
RINCON DE LOS ESTEROS INC,770329569,Other,75 E SANTA CLARA ST STE 1300,SAN JOSE,CA,95113-1837,,"Other organization in SAN JOSE, CA with annual revenue of approximately $36M",
NEIGHBORHOOD HOUSE INCORPORATED,910568305,Human Services,1225 S WELLER ST STE 510,SEATTLE,WA,98144-1906,,"Human Services organization in SEATTLE, WA with annual revenue of approximately $36M",
OSHMAN FAMILY JEWISH COMMUNITY CENTER,770185734,Other,3921 FABIAN WAY,PALO ALTO,CA,94303-4606,,"Other organization in PALO ALTO, CA with annual revenue of approximately $36M",
OPPORTUNITY VILLAGE ASSOCIATION FOR RETARDED CITIZENS,886003567,Human Services,6050 S BUFFALO DR,LAS VEGAS,NV,89113-2154,,"Human Services organization in LAS VEGAS, NV with annual revenue of approximately $36M",
CITIZEN CARE INC,251266401,Human Services,250 CLEVER RD,MCKEES ROCKS,PA,15136-1088,,"Human Services organization in MCKEES ROCKS, PA with annual revenue of approximately $36M",
MC PREPARATORY SCHOOL OF WISCONSIN INC,391881295,Education,1228 W LLOYD STREET SUITE 100,MILWAUKEE,WI,53205-1243,,"Education organization in MILWAUKEE, WI with annual revenue of approximately $36M",
INTERNATIONAL SUSTAINABLE ENERGY FOUNDATION,872509491,Environment,808 HARRIS AVE,AUSTIN,TX,78705-2520,,"Environment organization in AUSTIN, TX with annual revenue of approximately $36M",
CHOR YOUTH & FAMILY SERVICES INC,232911839,Human Services,1010 CENTRE AVE,READING,PA,19601-1408,,"Human Services organization in READING, PA with annual revenue of approximately $36M",
PRESBYTERIAN HOME AT CHARLOTTE INC,566064186,Human Services,5100 SHARON ROAD,CHARLOTTE,NC,28210-4768,,"Human Services organization in CHARLOTTE, NC with annual revenue of approximately $36M",
KIDSSPEACE OF NEW ENGLAND,231353394,Health,4085 INDEPENDENCE DR,SCHNECKSVILLE,PA,18078-2574,,"Health organization in SCHNECKSVILLE, PA with annual revenue of approximately $36M",
AVIVO,410828779,Human Services,1900 CHICAGO AVE,MINNEAPOLIS,MN,55404-1903,,"Human Services organization in MINNEAPOLIS, MN with annual revenue of approximately $36M",
ANDERSON HEALTHCARE,843965822,Health,6800 STATE ROUTE 162,MARYVILLE,IL,62062-8500,,"Health organization in MARYVILLE, IL with annual revenue of approximately $36M",
UNIFIED HOUSING FOUNDATION INC,760557203,Community,2010 VALLEY VIEW LN STE 145,FARMERS BRNCH,TX,75234-8960,,"Community organization in FARMERS BRNCH, TX with annual revenue of approximately $36M",
FLORIDA AGRICULTURAL & MECHANICAL UNIV FOUNDATION INC,596175096,Education,625 E TENNESSEE ST STE 100,TALLAHASSEE,FL,32308-4933,,"Education organization in TALLAHASSEE, FL with annual revenue of approximately $36M",
MADEIRA SCHOOL INC,540505925,Education,8328 GEORGETOWN PIKE,MCLEAN,VA,22102-1203,,"Education organization in MCLEAN, VA with annual revenue of approximately $36M",
WELLPOINT CARE NETWORK INC,391338354,Other,8901 W CAPITOL DR,MILWAUKEE,WI,53222-1706,,"Other organization in MILWAUKEE, WI with annual revenue of approximately $36M",
MOTHERS AGAINST DRUNK DRIVING,942707273,Human Services,511 E JOHN CARPENTER FWY STE 200,IRVING,TX,75062-3920,,"Human Services organization in IRVING, TX with annual revenue of approximately $36M",
NEWMAN INTERNATIONAL ACADEMY,752679597,Religion,PO BOX 170057,ARLINGTON,TX,76003-0057,,"Religion organization in ARLINGTON, TX with annual revenue of approximately $36M",
CHILDSERVE HABILITATION CENTER INC,420680245,Health,PO BOX 707,JOHNSTON,IA,50131-0707,,"Health organization in JOHNSTON, IA with annual revenue of approximately $36M",
PHOENIX HOUSES OF LONG ISLAND INC,112307925,Other,3411 VERNON BLVD,LONG IS CITY,NY,11106-5121,,"Other organization in LONG IS CITY, NY with annual revenue of approximately $36M",
BERNALILLO COUTNY HEALTH CARE CORP,237329437,Other,PO BOX 26666,ALBUQUERQUE,NM,87125-6666,,"Other organization in ALBUQUERQUE, NM with annual revenue of approximately $36M",
ENCOMPASS COMMUNITY SERVICES,237275290,Human Services,380 ENCINAL ST STE 200,SANTA CRUZ,CA,95060-2178,,"Human Services organization in SANTA CRUZ, CA with annual revenue of approximately $36M",
CHATUGE REGIONAL HOSPITAL INC,582513901,Health,110 S MAIN ST,HIAWASSEE,GA,30546-3408,,"Health organization in HIAWASSEE, GA with annual revenue of approximately $36M",
HAVEN FOR HOPE OF BEXAR COUNTY,208075412,Human Services,1 HAVEN FOR HOPE WAY,SAN ANTONIO,TX,78207-1108,,"Human Services organization in SAN ANTONIO, TX with annual revenue of approximately $36M",
GLOBAL FUND FOR WOMEN INC,770155782,International,505 MONTGOMERY ST FL 11,SAN FRANCISCO,CA,94111-2585,,"International organization in SAN FRANCISCO, CA with annual revenue of approximately $36M",
DAVIS BEHAVIORAL HEALTH INC,870430116,Health,934 SOUTH MAIN STREET,LAYTON,UT,84041-7135,,"Health organization in LAYTON, UT with annual revenue of approximately $36M",
CROSSROADS INC,860182987,Health,2002 E OSBORN RD,PHOENIX,AZ,85016-7236,,"Health organization in PHOENIX, AZ with annual revenue of approximately $36M",
WISCONSIN EARLY CHILDHOOD ASSOCIATION INC,391345572,Other,2908 MARKETPLACE DR STE 101,FITCHBURG,WI,53719-5318,,"Other organization in FITCHBURG, WI with annual revenue of approximately $36M",
ST ANNES FAMILY SERVICES,951691306,Human Services,155 N OCCIDENTAL BLVD,LOS ANGELES,CA,90026-4641,,"Human Services organization in LOS ANGELES, CA with annual revenue of approximately $36M",
SAN FRANCISCO UNIVERSITY HIGH SCHOOL,237313754,Education,3065 JACKSON ST,SAN FRANCISCO,CA,94115-1022,,"Education organization in SAN FRANCISCO, CA with annual revenue of approximately $36M",
BOSTON MOUNTAIN RURAL HEALTH CENTER INC,710717967,Health,2265 HIGHWAY 65 N,MARSHALL,AR,72650-7660,,"Health organization in MARSHALL, AR with annual revenue of approximately $36M",
WORCESTER ACADEMY,042105855,Education,81 PROVIDENCE ST,WORCESTER,MA,01604-4203,,"Education organization in WORCESTER, MA with annual revenue of approximately $36M",
FAMILY SERVICES OF WESTCHESTER INC,131773419,Other,2975 WESTCHESTER AVE STE 401,PURCHASE,NY,10577-2580,,"Other organization in PURCHASE, NY with annual revenue of approximately $36M",
SUPPORTIVE SERVICES INC,942377266,Human Services,5090 N WEST AVE,FRESNO,CA,93711-2901,,"Human Services organization in FRESNO, CA with annual revenue of approximately $36M",
WHITTIER STREET HEALTH CENTER COMMITTERE INC,042619517,Health,1290 TREMONT ST,ROXBURY,MA,02120-3432,,"Health organization in ROXBURY, MA with annual revenue of approximately $36M",
NORTH CENTRAL TEXAS COMMUNITY HEALTH CARE CENTER INC,752429644,Health,200 MLK JR BLVD,WICHITA FALLS,TX,76301-1152,,"Health organization in WICHITA FALLS, TX with annual revenue of approximately $36M",
UNIVERSITY OF MARYLAND PEDIATRIC AS SOCIATES P A,521182593,Health,250 W PRATT ST STE 901,BALTIMORE,MD,21201-6808,,"Health organization in BALTIMORE, MD with annual revenue of approximately $36M",
GOODWILL INDUSTRIES OF MID-MICHIGAN INC,381358009,Human Services,501 S AVERILL AVE,FLINT,MI,48506-4009,,"Human Services organization in FLINT, MI with annual revenue of approximately $36M",
BLANCHARD VALLEY CONTINUING CARE SERVICES,346006904,Human Services,1900 S MAIN ST,FINDLAY,OH,45840-1214,,"Human Services organization in FINDLAY, OH with annual revenue of approximately $36M",
HOUSTON AREA CONTRACTORS SAFETY COUNCIL,760313275,Education,5213 CENTER ST,PASADENA,TX,77505-1866,,"Education organization in PASADENA, TX with annual revenue of approximately $36M",
VISITING NURSE ASSOCIATION OF RIDGEFIELD INC,060646613,Other,27 GOVERNOR ST,RIDGEFIELD,CT,06877-4608,,"Other organization in RIDGEFIELD, CT with annual revenue of approximately $36M",
CATHOLIC CHARITIES OF CALIFORNIA,954098671,Other,1107 9TH ST STE 707,SACRAMENTO,CA,95814-3612,,"Other organization in SACRAMENTO, CA with annual revenue of approximately $36M",
ALEXIAN BROTHERS COMMUNITY SERVICES,364344423,Other,PO BOX 45998,SAINT LOUIS,MO,63145-5998,,"Other organization in SAINT LOUIS, MO with annual revenue of approximately $36M",
CHILD AND FAMILY SERVICE,990073483,Other,91-1841 FORT WEAVER RD,EWA BEACH,HI,96706-1909,,"Other organization in EWA BEACH, HI with annual revenue of approximately $36M",
ILLINOIS STATE UNIVERSITY FOUNDATION,376025713,Education,101 ALUMNI CENTER CAMPUS BOX 8000,NORMAL,IL,61790-8000,,"Education organization in NORMAL, IL with annual revenue of approximately $36M",
HENRY COUNTY HOSPITAL INC,344477047,Health,1600 EAST RIVERVIEW AVENUE,NAPOLEON,OH,43545-9805,,"Health organization in NAPOLEON, OH with annual revenue of approximately $36M",
AMERICAN RIVERS INC,237305963,Environment,1101 14TH STREET NW1400,WASHINGTON,DC,20005-5601,,"Environment organization in WASHINGTON, DC with annual revenue of approximately $36M",
UNITED STATES EQUESTRIAN FEDERATION INC,562350714,Human Services,4001 WING COMMANDER WAY,LEXINGTON,KY,40511-8555,,"Human Services organization in LEXINGTON, KY with annual revenue of approximately $36M",
NYSARC INC,237540582,Other,150 VAN BUREN ST,NEWARK,NY,14513-1238,,"Other organization in NEWARK, NY with annual revenue of approximately $36M",
INCOMPASS HUMAN SERVICES INC,046111877,Human Services,4 OMNI WAY,CHELMSFORD,MA,01824-4141,,"Human Services organization in CHELMSFORD, MA with annual revenue of approximately $36M",
VALOR COLLEGIATE ACADEMIES,461413472,Education,4527 NOLENSVILLE PIKE,NASHVILLE,TN,37211-4732,,"Education organization in NASHVILLE, TN with annual revenue of approximately $36M",
SPECTRUM ACADEMY,760817459,Education,665 CUTLER DR,N SALT LAKE,UT,84054-2970,,"Education organization in N SALT LAKE, UT with annual revenue of approximately $36M",
LOOKING UPWARDS INC,050376075,Human Services,1184 E MAIN RD,PORTSMOUTH,RI,02871-2333,,"Human Services organization in PORTSMOUTH, RI with annual revenue of approximately $36M",
GOLDEN HARVEST FOOD BANK INC,581466516,Human Services,3310 COMMERCE DR,AUGUSTA,GA,30909-4417,,"Human Services organization in AUGUSTA, GA with annual revenue of approximately $36M",
EAST END DISABILITY ASSOCIATES INC,113318718,Human Services,107 ROANOKE AVE,RIVERHEAD,NY,11901-2700,,"Human Services organization in RIVERHEAD, NY with annual revenue of approximately $36M",
NATIONAL ASSOCIATION OF CHRONIC DISEASE DIRECTORS,731328414,Human Services,101 W PONCE DE LEON AVE STE 400,DECATUR,GA,30030-2650,,"Human Services organization in DECATUR, GA with annual revenue of approximately $36M",
DIVERSUS HEALTH INC,421600485,Health,675 SOUTHPOINTE CT STE 100,COLORADO SPGS,CO,80906-3887,,"Health organization in COLORADO SPGS, CO with annual revenue of approximately $36M",
THE CHARLES LEA CENTER INC,576036895,Health,195 BURDETTE ST,SPARTANBURG,SC,29307-1003,,"Health organization in SPARTANBURG, SC with annual revenue of approximately $36M",
PROVIDENCE TRINITYCARE HOSPICE,953264139,Other,1801 LIND AVE SW ATTN TAX DEPT,RENTON,WA,98057-3368,,"Other organization in RENTON, WA with annual revenue of approximately $36M",
VALLEY OAKS HEALTH INC,350988724,Health,415 N 26TH ST STE 300,LAFAYETTE,IN,47904-2893,,"Health organization in LAFAYETTE, IN with annual revenue of approximately $36M",
NORTHERN MANOR MULTICARE CENTER INC,133623600,Human Services,4770 WHITE PLAINS RD,BRONX,NY,10470-1136,,"Human Services organization in BRONX, NY with annual revenue of approximately $36M",
ST JOHN PROVIDENCE,382244034,Health,1 FORD PLACE 4E,DETROIT,MI,48202-3450,,"Health organization in DETROIT, MI with annual revenue of approximately $36M",
CLAIBORNE MEDICAL CENTER,464420358,Health,1420 CENTERPOINT BLVD BLDG C,KNOXVILLE,TN,37932-1960,,"Health organization in KNOXVILLE, TN with annual revenue of approximately $36M",
LINCOLN COUNTY PRIMARY CARE CENTER INC,550552212,Health,7400 LYNN AVE,HAMLIN,WV,25523-1138,,"Health organization in HAMLIN, WV with annual revenue of approximately $36M",
COVENANT HOUSE CALIFORNIA,133391210,Human Services,1325 N WESTERN AVE,LOS ANGELES,CA,90027-5615,,"Human Services organization in LOS ANGELES, CA with annual revenue of approximately $36M",
PARTNERSHIP FOR PUBLIC SERVICE INC,061540513,Human Services,600 14TH ST NW STE 600,WASHINGTON,DC,20005-2195,,"Human Services organization in WASHINGTON, DC with annual revenue of approximately $36M",
JEWISH SOCIAL SERVICE AGENCY,530196598,Human Services,200 WOOD HILL RD,ROCKVILLE,MD,20850-8724,,"Human Services organization in ROCKVILLE, MD with annual revenue of approximately $36M",
CHILDNET YOUTH AND FAMILY SERVICES INC,952666942,Human Services,3545 LONG BEACH BLVD,LONG BEACH,CA,90807-3941,,"Human Services organization in LONG BEACH, CA with annual revenue of approximately $36M",
PEROT MUSEUM OF NATURE AND SCIENCE,756067569,Arts & Culture,2201 N FIELD ST,DALLAS,TX,75201-1704,,"Arts & Culture organization in DALLAS, TX with annual revenue of approximately $36M",
FRONTIERS USA,953731505,Religion,PO BOX 60670,PHOENIX,AZ,85082-0670,,"Religion organization in PHOENIX, AZ with annual revenue of approximately $36M",
BROOKVILLE HOSPITAL,250984595,Health,204 HOSPITAL AVE,DU BOIS,PA,15801-1442,,"Health organization in DU BOIS, PA with annual revenue of approximately $36M",
THE OPPORTUNITY ALLIANCE,010274725,Human Services,50 LYDIA LN,S PORTLAND,ME,04106-2156,,"Human Services organization in S PORTLAND, ME with annual revenue of approximately $36M",
SWEDISH MEDICAL CENTER FOUNDATION,910983214,Health,747 BROADWAY,SEATTLE,WA,98122-4379,,"Health organization in SEATTLE, WA with annual revenue of approximately $36M",
CRIMINAL JUSTICE REFORM FOUNDATION,831597624,Human Services,1675 BROADWAY,NEW YORK,NY,10019-5820,,"Human Services organization in NEW YORK, NY with annual revenue of approximately $36M",
NORFOLK ACADEMY,540551901,Education,1585 WESLEYAN DR,NORFOLK,VA,23502-5512,,"Education organization in NORFOLK, VA with annual revenue of approximately $36M",
CHILD CARE ALLIANCE OF LOS ANGELES,450532426,Human Services,815 COLORADO BLVD STE C,LOS ANGELES,CA,90041-1757,,"Human Services organization in LOS ANGELES, CA with annual revenue of approximately $36M",
SECOND HARVEST OF SOUTH GEORGIA INC,582208545,Human Services,1836 PIEDMONT PL,VALDOSTA,GA,31601-1279,,"Human Services organization in VALDOSTA, GA with annual revenue of approximately $36M",
COLORADO HEALTH NETWORK INC,840961159,Health,6260 E COLFAX AVE,DENVER,CO,80220-1515,,"Health organization in DENVER, CO with annual revenue of approximately $36M",
THE SEVEN HILLS SCHOOLS,310536666,Education,5400 RED BANK RD,CINCINNATI,OH,45227-1122,,"Education organization in CINCINNATI, OH with annual revenue of approximately $36M",
ENGENDERHEALTH INC,131623838,International,505 9TH ST NW STE 601,WASHINGTON,DC,20004-2192,,"International organization in WASHINGTON, DC with annual revenue of approximately $36M",
LEXMED INC,570874078,Health,815 OLD CHEROKEE RD,LEXINGTON,SC,29072-9041,,"Health organization in LEXINGTON, SC with annual revenue of approximately $36M",
COMMUNITY FOUNDATION OF NORTHERN NEVADA,880370179,Community,50 WASHINGTON ST STE 300,RENO,NV,89503-5660,,"Community organization in RENO, NV with annual revenue of approximately $36M",
PLACES FOR PEOPLE INCORPORATED,237433924,Health,1111 S GLENSTONE AVE,SPRINGFIELD,MO,65804-0313,,"Health organization in SPRINGFIELD, MO with annual revenue of approximately $36M",
INTERNATIONAL FUND FOR ANIMAL WELFARE INC,311594197,Health,290 SUMMER ST,YARMOUTH PORT,MA,02675-1734,,"Health organization in YARMOUTH PORT, MA with annual revenue of approximately $36M",
SENIOR TOTAL LIFE CARE,454706283,Health,1875 REMOUNT RD,GASTONIA,NC,28054-7413,,"Health organization in GASTONIA, NC with annual revenue of approximately $36M",
GOODWILL INDUSTRIES OF KANAWHA VALLEY INC,550380828,Other,215 VIRGINIA ST W,CHARLESTON,WV,25302-2210,,"Other organization in CHARLESTON, WV with annual revenue of approximately $36M",
HABITAT FOR HUMANITY INTERNATIONAL INC,561492703,Other,2420 N RALEIGH BLVD,RALEIGH,NC,27604-2235,,"Other organization in RALEIGH, NC with annual revenue of approximately $36M",
RICHCROFT INC,521302331,Human Services,11350 MCCORMICK RD SUITE 700 EXECUT,HUNT VALLEY,MD,21031-1002,,"Human Services organization in HUNT VALLEY, MD with annual revenue of approximately $36M",
OVERBROOK SCHOOL FOR THE BLIND,231445631,Education,6333 MALVERN AVE,PHILADELPHIA,PA,19151-2529,,"Education organization in PHILADELPHIA, PA with annual revenue of approximately $36M",
SHENANDOAH VALLEY MEDICAL SYSTEM INC,550563741,Health,PO BOX 1146,MARTINSBURG,WV,25402-1146,,"Health organization in MARTINSBURG, WV with annual revenue of approximately $36M",
WESTMINSTER CHRISTIAN SCHOOL,596057154,Education,6855 SW 152ND ST,PALMETTO BAY,FL,33157-2623,,"Education organization in PALMETTO BAY, FL with annual revenue of approximately $36M",
ASIAN AMERICANS FOR COMMUNITY INVOLVEMENT OF SANTA CLARA COUNTY,942292491,Health,2400 MOORPARK AVE STE 300,SAN JOSE,CA,95128-2680,,"Health organization in SAN JOSE, CA with annual revenue of approximately $36M",
MENIL FOUNDATION INC,746045327,Arts & Culture,1519 BRANARD ST,HOUSTON,TX,77006-4721,,"Arts & Culture organization in HOUSTON, TX with annual revenue of approximately $36M",
ORLANDO HEALTH FOUNDATION INC,592244943,Health,3160 SOUTHGATE COMMERCE BLVD STE 50,ORLANDO,FL,32806-8551,,"Health organization in ORLANDO, FL with annual revenue of approximately $36M",
LEHIGH VALLEY ACADEMY CHARTER SCHOOL,233066539,Education,2040 AVENUE C,BETHLEHEM,PA,18017-2118,,"Education organization in BETHLEHEM, PA with annual revenue of approximately $36M",
SOUTHWEST GENERAL MEDICAL GROUP INC,341652755,Health,18697 BAGLEY RD,CLEVELAND,OH,44130-3417,,"Health organization in CLEVELAND, OH with annual revenue of approximately $36M",
AMERICAN COLLEGE,231352008,Education,630 ALLENDALE RD STE 400,KNG OF PRUSSA,PA,19406-1695,,"Education organization in KNG OF PRUSSA, PA with annual revenue of approximately $36M",
OSF HEALTHCARE FOUNDATION,371259284,Health,124 SW ADAMS ST,PEORIA,IL,61602-1308,,"Health organization in PEORIA, IL with annual revenue of approximately $36M",
OSWEGO COUNTY OPPORTUNITIES INC,160979876,Human Services,239 ONEIDA ST,FULTON,NY,13069-1228,,"Human Services organization in FULTON, NY with annual revenue of approximately $36M",
THE UNITED WAY OF SOUTHWESTERN PENNSYLVANIA,251043578,Community,PO BOX 735,PITTSBURGH,PA,15230-0735,,"Community organization in PITTSBURGH, PA with annual revenue of approximately $36M",
MARET SCHOOL INC,530211355,Education,3000 CATHEDRAL AVE NW,WASHINGTON,DC,20008-3407,,"Education organization in WASHINGTON, DC with annual revenue of approximately $36M",
CUMBERLAND MEMORIAL HOSPITAL INC,390831153,Health,1705 16TH AVE,CUMBERLAND,WI,54829-8601,,"Health organization in CUMBERLAND, WI with annual revenue of approximately $36M",
CENTER INDUSTRIES CORPORATION,480823001,Human Services,NUMBER STREET SUITE OR ROOM NUMBER,CITY,KS,67217-0000,,"Human Services organization in CITY, KS with annual revenue of approximately $36M",
POLICE ATHLETIC LEAGUE INC,135596811,Human Services,34 12 EAST 12TH STREET,NEW YORK,NY,10003-0000,,"Human Services organization in NEW YORK, NY with annual revenue of approximately $36M",
INTERNATIONAL COLLEGE-BEIRUT LEBANON,131935349,Education,305 EAST 47TH STREET 10TH FL,NEW YORK,NY,10017-2312,,"Education organization in NEW YORK, NY with annual revenue of approximately $36M",
INGLESIDE PRESBYTERIAN RETIREMENT COMMUNITY INC,530128590,Human Services,3050 MILITARY RD NW,WASHINGTON,DC,20015-1344,,"Human Services organization in WASHINGTON, DC with annual revenue of approximately $36M",
GEORGIA ADVANCED TECHNOLOGY VENTURES INC,582538285,Education,225 NORTH AVENUE LYMAN HALL SUITE,ATLANTA,GA,30332-0001,,"Education organization in ATLANTA, GA with annual revenue of approximately $36M",
GOOD SAMARITAN HOSPITAL ASSOCIATION,450226419,Health,2975 HIGHWAY 2 E,RUGBY,ND,58368-7801,,"Health organization in RUGBY, ND with annual revenue of approximately $36M",
SEIU 775 BENEFITS GROUP,852581812,Education,215 COLUMBIA STREET SUITE 300,SEATTLE,WA,98104-1511,,"Education organization in SEATTLE, WA with annual revenue of approximately $36M",
VOLUNTEERS OF AMERICA INC,205182627,Other,7485 OFFICE RIDGE CIR,EDEN PRAIRIE,MN,55344-3690,,"Other organization in EDEN PRAIRIE, MN with annual revenue of approximately $36M",
SAN DIEGO INTERFAITH HOUSING FOUNDATION,952593136,Other,7956 LESTER AVE,LEMON GROVE,CA,91945-1822,,"Other organization in LEMON GROVE, CA with annual revenue of approximately $36M",
INDEPENDENT OPPORTUNITIES INC OF OKLAHOMA,742547238,Other,6202 S LEWIS AVE STE P,TULSA,OK,74136-1064,,"Other organization in TULSA, OK with annual revenue of approximately $36M",
AREA AGENCY ON AGING OF CENTRAL FLORIDA INC,593144723,Human Services,3319 MAGUIRE BLVD STE 100,ORLANDO,FL,32803-3714,,"Human Services organization in ORLANDO, FL with annual revenue of approximately $36M",
HOUSTON AREA COMMUNITY SERVICES INC,760549240,Health,2150 W 18TH ST STE 300,HOUSTON,TX,77008-1289,,"Health organization in HOUSTON, TX with annual revenue of approximately $36M",
EURASIA FOUNDATION INC,521780162,International,1990 K ST NW STE 615,WASHINGTON,DC,20006-1195,,"International organization in WASHINGTON, DC with annual revenue of approximately $36M",
MEMPHIS UNIVERSITY SCHOOL,620545618,Education,6191 PARK AVE,MEMPHIS,TN,38119-5305,,"Education organization in MEMPHIS, TN with annual revenue of approximately $36M",
SOUTHEAST MICHIGAN COMMUNITY ALLIANCE INC,382675191,Human Services,25363 EUREKA RD,TAYLOR,MI,48180-5051,,"Human Services organization in TAYLOR, MI with annual revenue of approximately $36M",
MANAGEMENT LEADERSHIP FOR TOMORROW,521795164,Education,4500 E WEST HWY STE 150,BETHESDA,MD,20814-3327,,"Education organization in BETHESDA, MD with annual revenue of approximately $36M",
WHITNEY CENTER INC,060924891,Human Services,200 LEEDER HILL DR,HAMDEN,CT,06517-2758,,"Human Services organization in HAMDEN, CT with annual revenue of approximately $36M",
INSURANCE INSTITUTE FOR HIGHWAY SAFETY,530246204,Human Services,4121 WILSON BLVD 6TH FL,ARLINGTON,VA,22203-4143,,"Human Services organization in ARLINGTON, VA with annual revenue of approximately $36M",
RADIO TRAINING NETWORK INC,581585542,Religion,2420 WADE HAMPTON BLVD,GREENVILLE,SC,29615-1146,,"Religion organization in GREENVILLE, SC with annual revenue of approximately $36M",
COLUMBUS SYMPHONY ORCHESTRA INC,316402408,Arts & Culture,55 E STATE ST,COLUMBUS,OH,43215-4203,,"Arts & Culture organization in COLUMBUS, OH with annual revenue of approximately $36M",
BOYS & GIRLS CLUBS OF PUERTO RICO INC,660327584,Other,PO BOX 79526,CAROLINA,PR,00984-9526,,"Other organization in CAROLINA, PR with annual revenue of approximately $36M",
WESLEY HEALTH CARE CENTER INC,222467092,Health,131 LAWRENCE ST,SARATOGA SPGS,NY,12866-1346,,"Health organization in SARATOGA SPGS, NY with annual revenue of approximately $36M",
MADISON SURGERY CENTER INC,391940656,Health,7974 UW HEALTH CT,MIDDLETON,WI,53562-5531,,"Health organization in MIDDLETON, WI with annual revenue of approximately $36M",
COMMUNITY ACTION PARTNERSHIP OF MADERA COUNTY INC,941612823,Human Services,1225 GILL AVE,MADERA,CA,93637-5234,,"Human Services organization in MADERA, CA with annual revenue of approximately $36M",
LEES-MCRAE COLLEGE INCORPORATED,560529953,Education,PO BOX 128,BANNER ELK,NC,28604-0128,,"Education organization in BANNER ELK, NC with annual revenue of approximately $36M",
SHADY HILL SCHOOL,042103628,Education,178 COOLIDGE HL,CAMBRIDGE,MA,02138-5520,,"Education organization in CAMBRIDGE, MA with annual revenue of approximately $36M",
RUTLAND MENTAL HEALTH SERVICE INC,030210725,Health,78 S MAIN ST,RUTLAND,VT,05701-4591,,"Health organization in RUTLAND, VT with annual revenue of approximately $36M",
EARLY LEARNING COALITION OF OSCEOLA COUNTY INC,311768530,Education,1631 E VINE ST STE E,KISSIMMEE,FL,34744-3728,,"Education organization in KISSIMMEE, FL with annual revenue of approximately $36M",
PUERTO RICO SCIENCE TECHNOLOGY AND RESEARCH TRUST,660675963,Research,PO BOX 363475,SAN JUAN,PR,00936-3475,,"Research organization in SAN JUAN, PR with annual revenue of approximately $36M",
VISTA MARIA,381359262,Other,20651 W WARREN ST,DEARBORN HTS,MI,48127-2622,,"Other organization in DEARBORN HTS, MI with annual revenue of approximately $36M",
LUTHERAN HOMES OF MICHIGAN INC,381358410,Health,2825 WIENEKE RD,SAGINAW,MI,48603-2600,,"Health organization in SAGINAW, MI with annual revenue of approximately $36M",
WOMENCARE INC,550691297,Health,97 GREAT TEAYS BOULEVARD,TEAYS VALLEY,WV,25560-9815,,"Health organization in TEAYS VALLEY, WV with annual revenue of approximately $36M",
UPPER CONNECTICUT VALLEY HOSPITAL ASSOCIATION,020276210,Health,181 CORLISS LN,COLEBROOK,NH,03576-3207,,"Health organization in COLEBROOK, NH with annual revenue of approximately $36M",
THE FEDCAP GROUP INC,830765672,Human Services,633 THIRD AVENUE 6TH FL,NEW YORK,NY,10017-6733,,"Human Services organization in NEW YORK, NY with annual revenue of approximately $36M",
MICHIGAN STATE AFL-CIO HUMAN RESOURCES DEVELOPMENT INC,382795791,Human Services,419 S WASHINGTON SQ STE 300,LANSING,MI,48933-2124,,"Human Services organization in LANSING, MI with annual revenue of approximately $36M",
BAY STATE COMMUNITY SERVICES INC,042468492,Other,1120 HANCOCK ST,QUINCY,MA,02169-4313,,"Other organization in QUINCY, MA with annual revenue of approximately $36M",
LIFE CONCEPTS INC,592013160,Human Services,1509 E COLONIAL DRIVE,ORLANDO,FL,32803-4704,,"Human Services organization in ORLANDO, FL with annual revenue of approximately $36M",
DELTA PROJECTS INC,042584547,Human Services,118 ALLIED DR,DEDHAM,MA,02026-6146,,"Human Services organization in DEDHAM, MA with annual revenue of approximately $36M",
AMERICAN COUNCIL ON EDUCATION,530196573,Education,1 DUPONT CIRCLE NW,WASHINGTON,DC,20036-1110,,"Education organization in WASHINGTON, DC with annual revenue of approximately $36M",
CIRCLE HEALTH SERVICES,237078501,Other,12201 EUCLID AVE,CLEVELAND,OH,44106-4310,,"Other organization in CLEVELAND, OH with annual revenue of approximately $36M",
SJF CCRC INC,223701092,Human Services,1110 LAUREL OAK RD,VOORHEES,NJ,08043-4344,,"Human Services organization in VOORHEES, NJ with annual revenue of approximately $36M",
CHILDRENS HOME ASSOCIATION OF ILLINOIS,370662601,Human Services,2130 N KNOXVILLE AVE,PEORIA,IL,61603-2460,,"Human Services organization in PEORIA, IL with annual revenue of approximately $36M",
CROSSROADS COMMUNITY SERVICES INC,472676714,Human Services,4500 S COCKRELL HILL RD,DALLAS,TX,75236-2028,,"Human Services organization in DALLAS, TX with annual revenue of approximately $36M",
GORMAN LEARNING CENTER INC,943356128,Education,1826 ORANGE TREE LN,REDLANDS,CA,92374-2821,,"Education organization in REDLANDS, CA with annual revenue of approximately $36M",
PATRIOT SERVICES GROUP INC,264520112,Community,10151 DEERWOOD PARK BLVD BLDG 200 S,JACKSONVILLE,FL,32256-0566,,"Community organization in JACKSONVILLE, FL with annual revenue of approximately $36M",
RABUN GAP-NACOOCHEE SCHOOL,580593430,Education,339 NACOOCHEE DR,RABUN GAP,GA,30568-2200,,"Education organization in RABUN GAP, GA with annual revenue of approximately $36M",
TOTAL COMMUNITY ACTION INC,720599165,Human Services,1420 S NORMAN C FRANCIS PKWY,NEW ORLEANS,LA,70125-1744,,"Human Services organization in NEW ORLEANS, LA with annual revenue of approximately $36M",
ARKANSAS HOSPICE INC,710713134,Human Services,14 PARKSTONE CIR,N LITTLE ROCK,AR,72116-7086,,"Human Services organization in N LITTLE ROCK, AR with annual revenue of approximately $36M",
NORTHERN KENTUCKY AREA DEVELOPEMENT DISTRICT,610719369,Community,22 SPIRAL DR,FLORENCE,KY,41042-1300,,"Community organization in FLORENCE, KY with annual revenue of approximately $36M",
RIGHTNOW MINISTRIES INTERNATIONAL,752353393,Religion,6300 HENNEMAN WAY,MCKINNEY,TX,75070-3466,,"Religion organization in MCKINNEY, TX with annual revenue of approximately $36M",
CLEVELAND STATE UNIVERSITY FOUNDATION,341316665,Education,2121 EUCLID AVENUE UN 501,CLEVELAND,OH,44115-2214,,"Education organization in CLEVELAND, OH with annual revenue of approximately $36M",
NELSON GALLERY FOUNDATION,446012977,Arts & Culture,4525 OAK ST,KANSAS CITY,MO,64111-1818,,"Arts & Culture organization in KANSAS CITY, MO with annual revenue of approximately $36M",
CHESAPEAKE BAY FOUNDATION INC,526065757,Environment,6 HERNDON AVE,ANNAPOLIS,MD,21403-4503,,"Environment organization in ANNAPOLIS, MD with annual revenue of approximately $36M",
INTERNATIONAL ORTHODOX CHRISTIAN CHARITIES INC,251679348,International,110 WEST RD STE 360,BALTIMORE,MD,21204-2365,,"International organization in BALTIMORE, MD with annual revenue of approximately $36M",
VISITING NURSE ASSOCIATION OF FLORIDA INC,591814769,Other,2400 SE MONTEREY RD STE 300,STUART,FL,34996-3351,,"Other organization in STUART, FL with annual revenue of approximately $36M",
HARTFORD DISPENSARY,060646665,Other,335 BROAD STREET 3RD FL,MANCHESTER,CT,06040-4036,,"Other organization in MANCHESTER, CT with annual revenue of approximately $36M",
DONALSONVILLE HOSPITAL INC,580973772,Health,102 HOSPITAL CIR,DONALSONVILLE,GA,39845-1100,,"Health organization in DONALSONVILLE, GA with annual revenue of approximately $36M",
EAST TEXAS ADVANCED ACADEMIES,830920571,Education,PO BOX 8389,LONGVIEW,TX,75607-8389,,"Education organization in LONGVIEW, TX with annual revenue of approximately $36M",
SHATTUCK-ST MARYS SCHOOLS,410696908,Education,PO BOX 218,FARIBAULT,MN,55021-0218,,"Education organization in FARIBAULT, MN with annual revenue of approximately $36M",
HUNTINGDON COLLEGE,630288841,Education,1500 E FAIRVIEW AVE,MONTGOMERY,AL,36106-2114,,"Education organization in MONTGOMERY, AL with annual revenue of approximately $36M",
SHALEM FOUNDATION,133941865,Human Services,1216 BROADWAY 2ND FL,NEW YORK,NY,10001-4482,,"Human Services organization in NEW YORK, NY with annual revenue of approximately $36M",
ADVOCATES INC,161453716,Human Services,300 S MANLIUS ST,FAYETTEVILLE,NY,13066-2041,,"Human Services organization in FAYETTEVILLE, NY with annual revenue of approximately $36M",
JEWISH HOME AT ROCKLEIGH,223466678,Health,10 LINK DR,ROCKLEIGH,NJ,07647-2504,,"Health organization in ROCKLEIGH, NJ with annual revenue of approximately $36M",
PROVIDENCE ST VINCENT MEDICAL FOUNDATION,930575982,Health,9205 SW BARNES ROAD STE MT2111,PORTLAND,OR,97225-6603,,"Health organization in PORTLAND, OR with annual revenue of approximately $36M",
BOSTON HIGASHI SCHOOL INC,222803661,Education,800 N MAIN ST,RANDOLPH,MA,02368-3663,,"Education organization in RANDOLPH, MA with annual revenue of approximately $36M",
UNIVERSITY PREPARATORY ACADEMY,910974344,Education,8000 25TH AVE NE,SEATTLE,WA,98115-4600,,"Education organization in SEATTLE, WA with annual revenue of approximately $36M",
CAPITAL CITY PUBLIC CHARTER SCHOOL INC,522210775,Education,100 PEABODY ST NW,WASHINGTON,DC,20011-2212,,"Education organization in WASHINGTON, DC with annual revenue of approximately $36M",
SCHOLARSHIP PREP,473943780,Education,1010 W 17TH ST,SANTA ANA,CA,92706-3504,,"Education organization in SANTA ANA, CA with annual revenue of approximately $36M",
SCIENCE MUSEUM OF MINNESOTA,410706172,Arts & Culture,120 KELLOGG BLVD W,SAINT PAUL,MN,55102-1202,,"Arts & Culture organization in SAINT PAUL, MN with annual revenue of approximately $36M",
ENTERPRISE COMMUNITY LOAN FUND INC,520192004,Human Services,11000 BROKEN LAND PKWY STE 700,COLUMBIA,MD,21044-3535,,"Human Services organization in COLUMBIA, MD with annual revenue of approximately $36M",
MONTVERDE ACADEMY,590657329,Other,17235 7TH ST,MONTVERDE,FL,34756-3210,,"Other organization in MONTVERDE, FL with annual revenue of approximately $36M",
EARLY LEARNING COALITION OF MANATEE COUNTY INC,650811318,Education,PO BOX 939,PALMETTO,FL,34220-0939,,"Education organization in PALMETTO, FL with annual revenue of approximately $36M",
COMMUNITY FOUNDATION FOR PALM BEACH & MARTIN COUNTIES INC,237181875,Community,700 S DIXIE HWY STE 200,WEST PALM BCH,FL,33401-5854,,"Community organization in WEST PALM BCH, FL with annual revenue of approximately $36M",
CAMBRIDGE IN AMERICA,526071299,International,1120 AVE OF THE AMERICAS 7TH FL,NEW YORK,NY,10036-6700,,"International organization in NEW YORK, NY with annual revenue of approximately $36M",
MONTANA FOOD BANK NETWORK INC,810421243,Human Services,5625 EXPRESSWAY,MISSOULA,MT,59808-9071,,"Human Services organization in MISSOULA, MT with annual revenue of approximately $36M",
UPSTATE COMMUNITY MEDICAL P C,203889761,Health,4900 BROAD RD,SYRACUSE,NY,13215-2265,,"Health organization in SYRACUSE, NY with annual revenue of approximately $36M",
ANCHORAGE COMMUNITY MENTAL HEALTH SERVICES INC,510152394,Health,4020 FOLKER ST,ANCHORAGE,AK,99508-5321,,"Health organization in ANCHORAGE, AK with annual revenue of approximately $36M",
ST LUKES FOUNDATION INC,237099149,Education,377 N WILTON RD,NEW CANAAN,CT,06840-2317,,"Education organization in NEW CANAAN, CT with annual revenue of approximately $36M",
CORPORATE SOURCE INC,133882284,Human Services,1225 FRANKLIN AVE STE 335,GARDEN CITY,NY,11530-1659,,"Human Services organization in GARDEN CITY, NY with annual revenue of approximately $36M",
UNIVERSITY OF MARYLAND ORTHOPAEDIC ASSOCIATES P A,522122145,Education,250 W PRATT ST STE 901,BALTIMORE,MD,21201-6808,,"Education organization in BALTIMORE, MD with annual revenue of approximately $36M",
MERCY HOSPITAL OF DEVILS LAKE,450227012,Health,1037 7TH STREET NE,DEVILS LAKE,ND,58301-0000,,"Health organization in DEVILS LAKE, ND with annual revenue of approximately $36M",
VALLEY HOMES AND SERVICES,450229071,Health,2900 14TH AVE S,GRAND FORKS,ND,58201-4042,,"Health organization in GRAND FORKS, ND with annual revenue of approximately $36M",
LICK WILMERDING HIGH SCHOOL,941186156,Education,755 OCEAN AVE,SAN FRANCISCO,CA,94112-1856,,"Education organization in SAN FRANCISCO, CA with annual revenue of approximately $36M",
DEFENDERS OF WILDLIFE,530183181,Health,1130 17TH ST NW,WASHINGTON,DC,20036-4604,,"Health organization in WASHINGTON, DC with annual revenue of approximately $36M",
GUTHRIE THEATRE FOUNDATION,410854160,Arts & Culture,818 S 2ND ST,MINNEAPOLIS,MN,55415-1252,,"Arts & Culture organization in MINNEAPOLIS, MN with annual revenue of approximately $36M",
CENTERAL FLORDIA CLINICAL PRACTICE ORGANIZATION INC,611566097,Education,6850 LAKE NONA BLVD,ORLANDO,FL,32827-7408,,"Education organization in ORLANDO, FL with annual revenue of approximately $36M",
BURHANI QARDAN HASANA CORPORATION AMERICA,364109578,Religion,5177 DOUGLAS FIR RD,CALABASAS,CA,91302-1440,,"Religion organization in CALABASAS, CA with annual revenue of approximately $36M",
YOUNG MENS CHRISTIAN ASSOCIATION OF METROPOLITAN HARTFORD INC,060881325,Human Services,50 STATE HOUSE SQ,HARTFORD,CT,06103-3902,,"Human Services organization in HARTFORD, CT with annual revenue of approximately $36M",
HABITAT FOR HUMANITY OF PINELLAS,592509116,Other,13355 49TH N ST STE B,CLEARWATER,FL,33762-0000,,"Other organization in CLEARWATER, FL with annual revenue of approximately $36M",
NATIONAL DEFENSE INDUSTRIAL ASSOCIATION,530196547,International,2101 WILSON BLVD STE 700,ARLINGTON,VA,22201-3060,,"International organization in ARLINGTON, VA with annual revenue of approximately $36M",
SOUTHERN CALIFORNIA HEALTH & REHABILITATION PROGRAM,954482413,Human Services,2610 INDUSTRY WAY STE A,LYNWOOD,CA,90262-4028,,"Human Services organization in LYNWOOD, CA with annual revenue of approximately $36M",
CENTER FOR THE DEVELOPMENTALLY DISABLED,431104134,Human Services,9150 E 41ST TER,KANSAS CITY,MO,64133-1448,,"Human Services organization in KANSAS CITY, MO with annual revenue of approximately $36M",
THE COMMUNITY ACTION ORGANIZATION OF WESTERN NEW YORK INC,160911473,Other,45 JEWETT AVE STE 150,BUFFALO,NY,14214-2442,,"Other organization in BUFFALO, NY with annual revenue of approximately $36M",
COMMUNITY SCHOOL OF NAPLES INC,591920297,Education,13275 LIVINGSTON RD,NAPLES,FL,34109-3859,,"Education organization in NAPLES, FL with annual revenue of approximately $36M",
COMMUNITY OPTIONS NEW YORK INC,113414724,Human Services,16 FARBER RD,PRINCETON,NJ,08540-5913,,"Human Services organization in PRINCETON, NJ with annual revenue of approximately $36M",
RETIREMENT LIVING INC,351393773,Human Services,8140 TOWNSHIP LINE RD,INDIANAPOLIS,IN,46260-5824,,"Human Services organization in INDIANAPOLIS, IN with annual revenue of approximately $36M",
KIPP ENC PUBLIC SCHOOLS,742991314,Education,320 PLEASANT HILL RD,GASTON,NC,27832-9511,,"Education organization in GASTON, NC with annual revenue of approximately $36M",
PERSON CENTERED CARE SERVICES INC,202878791,Human Services,150 GRANITE AVE,STATEN ISLAND,NY,10303-2718,,"Human Services organization in STATEN ISLAND, NY with annual revenue of approximately $36M",
NORTH OKLAHOMA COUNTY MENTAL HEALTH CENTER,731134098,Health,2617 GENERAL PERSHING BLVD,OKLAHOMA CITY,OK,73107-6437,,"Health organization in OKLAHOMA CITY, OK with annual revenue of approximately $36M",
ST JOSEPH OF PINES INC,560694200,Other,100 GOSSMAN RD STE B,SOUTHERN PNES,NC,28387-2282,,"Other organization in SOUTHERN PNES, NC with annual revenue of approximately $36M",
THE SHELTERING ARMS,580566236,Other,385 CENTENNIAL OLYMPIC PARK DR NW,ATLANTA,GA,30313-1927,,"Other organization in ATLANTA, GA with annual revenue of approximately $36M",
VIA CHRISTI HEALTHCARE OUTREACH PROGRAM FOR ELDERS INC,481236589,Other,PO BOX 45998,SAINT LOUIS,MO,63145-5998,,"Other organization in SAINT LOUIS, MO with annual revenue of approximately $35M",
RAGIN CAJUN FACILITIES INC,680514562,Human Services,PO BOX 43646 STE 400,LAFAYETTE,LA,70504-3646,,"Human Services organization in LAFAYETTE, LA with annual revenue of approximately $35M",
MARIANA BRACETTI ACADEMY CHARTER SCHOOL,233048397,Education,1840 TORRESDALE AVE,PHILADELPHIA,PA,19124-4418,,"Education organization in PHILADELPHIA, PA with annual revenue of approximately $35M",
OCONNOR WOODS HOUSING CORPORATION,680201024,Human Services,3400 WAGNER HEIGHTS RD,STOCKTON,CA,95209-4842,,"Human Services organization in STOCKTON, CA with annual revenue of approximately $35M",
FRIEND FAMILY HEALTH CENTER INC,364161801,Health,800 E 55TH ST,CHICAGO,IL,60615-4906,,"Health organization in CHICAGO, IL with annual revenue of approximately $35M",
PETCO LOVE,330845930,Community,654 RICHLAND HILLS DR STE 145,SAN ANTONIO,TX,78245-4084,,"Community organization in SAN ANTONIO, TX with annual revenue of approximately $35M",
