name,ein,category,address,city,state,zip_code,website,description,phone
AREA AGENCY ON AGING,310887396,Human Services,710 WHEELING AVE,CAMBRIDGE,OH,43725-2332,,"Human Services organization in CAMBRIDGE, OH with annual revenue of approximately $55M",
NATIONAL AQUARIUM INC,521121163,Health,501 E PRATT ST,BALTIMORE,MD,21202-3103,,"Health organization in BALTIMORE, MD with annual revenue of approximately $55M",
NORTHWESTERN COUNSELING & SUPPORT SERVICES INC,030210542,Health,107 FISHER POND RD,ST ALBANS,VT,05478-6286,,"Health organization in ST ALBANS, VT with annual revenue of approximately $55M",
DRISCOLL HEALTHCARE SERVICES,010962276,Health,3533 S ALAMEDA ST,CORP CHRISTI,TX,78411-1721,,"Health organization in CORP CHRISTI, TX with annual revenue of approximately $55M",
ST MARKS SCHOOL OF TEXAS,750827460,Education,10600 PRESTON RD,DALLAS,TX,75230-4047,,"Education organization in DALLAS, TX with annual revenue of approximately $55M",
SOMC MEDICAL CARE FOUNDATION INC,311374523,Health,1248 KINNEYS LN,PORTSMOUTH,OH,45662-2927,,"Health organization in PORTSMOUTH, OH with annual revenue of approximately $55M",
ANTHONY WAYNE REHABILITATION CENTER FOR HANDICAPPED & BLIND,351049596,Health,8515 BLUFFTON RD,FORT WAYNE,IN,46809-3022,,"Health organization in FORT WAYNE, IN with annual revenue of approximately $55M",
PORTAGE BAY INSURANCE,010717030,Other,4333 BROOKLYN AVE NE,SEATTLE,WA,98195-1016,,"Other organization in SEATTLE, WA with annual revenue of approximately $55M",
MOMENTUM AGENCIES,951648203,Health,2400 WILLOW LN,THOUSAND OAKS,CA,91361-4958,,"Health organization in THOUSAND OAKS, CA with annual revenue of approximately $55M",
TOMPKINS CONSERVATION,943363675,Environment,PO BOX 29209,SAN FRANCISCO,CA,94129-0209,,"Environment organization in SAN FRANCISCO, CA with annual revenue of approximately $55M",
MISSOURI STATE UNIVERSITY FOUNDATION,431234200,Education,901 S NATIONAL AVE,SPRINGFIELD,MO,65897-0027,,"Education organization in SPRINGFIELD, MO with annual revenue of approximately $55M",
SIOUX VALLEY MEMORIAL HOSPITAL ASSOCIATION,420707096,Health,300 SIOUX VALLEY DR,CHEROKEE,IA,51012-1205,,"Health organization in CHEROKEE, IA with annual revenue of approximately $55M",
ALBEDO INSURANCE COMPANY IC,851454978,Other,UNIVERSITY GARDENS UGB205,LOS ANGELES,CA,90089-8003,,"Other organization in LOS ANGELES, CA with annual revenue of approximately $55M",
GILMAN SCHOOL INC,520591604,Education,5407 ROLAND AVE STE 1,BALTIMORE,MD,21210-1927,,"Education organization in BALTIMORE, MD with annual revenue of approximately $55M",
ARKANSAS ELDER OUTREACH OF LITTLE ROCK INC,611438402,Health,10632 HILLARY CT,BATON ROUGE,LA,70810-2842,,"Health organization in BATON ROUGE, LA with annual revenue of approximately $55M",
TIGER WOODS CHARITY EVENT CORP,061554474,Community,15440 LAGUNA CANYON RD STE 230,IRVINE,CA,92618-2140,,"Community organization in IRVINE, CA with annual revenue of approximately $55M",
FRANCISCAN CARE SERVICES INC,470486026,Health,430 N MONITOR ST,WEST POINT,NE,68788-1555,,"Health organization in WEST POINT, NE with annual revenue of approximately $55M",
AMERICAN INDIAN COLLEGE FUND,521573446,Education,8333 GREENWOOD BLVD,DENVER,CO,80221-4488,,"Education organization in DENVER, CO with annual revenue of approximately $55M",
RIVER CITY EDUCATION SERVICES,205773949,Education,7565 BEACH BLVD,JACKSONVILLE,FL,32216-3003,,"Education organization in JACKSONVILLE, FL with annual revenue of approximately $55M",
BLAIR ACADEMY,221500475,Education,2 PARK ST,BLAIRSTOWN,NJ,07825-2515,,"Education organization in BLAIRSTOWN, NJ with annual revenue of approximately $55M",
COVENANT COLLEGE INC,430719506,Education,14049 SCENIC HWY,LOOKOUT MTN,GA,30750-4100,,"Education organization in LOOKOUT MTN, GA with annual revenue of approximately $55M",
GULFSTREAM GOODWILL INDUSTRIES INC,591197040,Human Services,1715 E TIFFANY DR,MANGONIA PARK,FL,33407-3224,,"Human Services organization in MANGONIA PARK, FL with annual revenue of approximately $55M",
CAROLINA FAMILY HEALTH CENTERS INC,582079819,Other,303 GREEN ST E,WILSON,NC,27893-4105,,"Other organization in WILSON, NC with annual revenue of approximately $55M",
HAVERFORD SCHOOL,231352646,Education,450 LANCASTER AVE,HAVERFORD,PA,19041-1337,,"Education organization in HAVERFORD, PA with annual revenue of approximately $55M",
SOUTHERN CALIFORNIA UNIVERSITY OF HEALTH SCIENCES,950948050,Education,16200 AMBER VALLEY DR,WHITTIER,CA,90604-4051,,"Education organization in WHITTIER, CA with annual revenue of approximately $55M",
EASTSIDE RETIREMENT ASSOCIATION,911261904,Human Services,10901 176TH CIR NE,REDMOND,WA,98052-7218,,"Human Services organization in REDMOND, WA with annual revenue of approximately $55M",
FULTON COUNTY MEDICAL CENTER,231401561,Health,214 PEACH ORCHARD RD,MC CONNELLSBG,PA,17233-8559,,"Health organization in MC CONNELLSBG, PA with annual revenue of approximately $55M",
COLUMBUS AMBULATORY HEALTHCARE SERVICES INC,581719867,Other,707 CENTER STREET SUITE 110,COLUMBUS,GA,31901-1575,,"Other organization in COLUMBUS, GA with annual revenue of approximately $55M",
EAGLEVILLE HOSPITAL,231352115,Health,100 EAGLEVILLE RD,EAGLEVILLE,PA,19403-1829,,"Health organization in EAGLEVILLE, PA with annual revenue of approximately $55M",
MAHARISHI INTERNATIONAL UNIVERSITY,421315493,Education,1000 N 4TH ST,FAIRFIELD,IA,52556-5201,,"Education organization in FAIRFIELD, IA with annual revenue of approximately $55M",
THE GRATEFUL LIVES FOUNDATION,326402383,Community,BESSEMER TR 20 MONTCHANIN RD 1500,WILMINGTON,DE,19807-0000,,"Community organization in WILMINGTON, DE with annual revenue of approximately $55M",
SIENA HEIGHTS UNIVERSITY,381366958,Education,1247 E SIENA HEIGHTS DR,ADRIAN,MI,49221-1755,,"Education organization in ADRIAN, MI with annual revenue of approximately $55M",
DIVERSUS HEALTH INC,900528134,Health,675 SOUTHPOINTE CT STE 100,COLORADO SPGS,CO,80906-3887,,"Health organization in COLORADO SPGS, CO with annual revenue of approximately $55M",
APPLIED RESEARCH INSTITUTE,821443757,Community,2719 E 10TH STREET 114,BLOOMINGTON,IN,47408-2671,,"Community organization in BLOOMINGTON, IN with annual revenue of approximately $55M",
EL CAMINO REAL ALLIANCE,274855978,Other,5440 VALLEY CIRCLE BLVD,WOODLAND HLS,CA,91367-5949,,"Other organization in WOODLAND HLS, CA with annual revenue of approximately $55M",
COMMUNITY FOUNDATION FOR GREATER NEW HAVEN,066032106,Community,70 AUDUBON STREET,NEW HAVEN,CT,06510-1248,,"Community organization in NEW HAVEN, CT with annual revenue of approximately $55M",
CRESCENT VIEW SOUTH INC,770643134,Education,177 HOLSTON DR,LANCASTER,CA,93535-4570,,"Education organization in LANCASTER, CA with annual revenue of approximately $55M",
UNITED CEREBRAL PALSY OF CENTAL PENNSYLVANIA INC,231433882,Other,55 UTLEY DR,CAMP HILL,PA,17011-8028,,"Other organization in CAMP HILL, PA with annual revenue of approximately $55M",
CAL POLY HUMBOLDT SPONSORED PROGRAMS FOUNDATION,946050071,Education,1 HARPST ST,ARCATA,CA,95521-8299,,"Education organization in ARCATA, CA with annual revenue of approximately $55M",
KIPP CHICAGO SCHOOLS,300135927,Education,2007 S HALSTED ST,CHICAGO,IL,60608-3418,,"Education organization in CHICAGO, IL with annual revenue of approximately $55M",
WOODLANDS CENTER FOR THE PERFORMING ARTS,760276606,Arts & Culture,2005 LAKE ROBBINS DR,THE WOODLANDS,TX,77380-1136,,"Arts & Culture organization in THE WOODLANDS, TX with annual revenue of approximately $55M",
EAGLES TRACE INC,030498683,Human Services,813 MAIDEN CHOICE LN,CATONSVILLE,MD,21228-3679,,"Human Services organization in CATONSVILLE, MD with annual revenue of approximately $55M",
INDIANA UNIVERSITY HEALTH WHITE MEMORIAL HOSPITAL INC,273532963,Health,950 N MERIDIAN ST STE 1200,INDIANAPOLIS,IN,46204-1011,,"Health organization in INDIANAPOLIS, IN with annual revenue of approximately $55M",
METROPOLITAN WASHINGTON COUNCIL OF GOVERNMENTS,526060391,Community,777 NORTH CAPITOL ST NE,WASHINGTON,DC,20002-4239,,"Community organization in WASHINGTON, DC with annual revenue of approximately $55M",
CAROLINE KLINE GALLAND HOME,910950710,Health,7500 SEWARD PARK AVE S,SEATTLE,WA,98118-4247,,"Health organization in SEATTLE, WA with annual revenue of approximately $55M",
NATIONAL ASSOCIATION OF COMMUNITY HEALTH CENTERS INC,520939952,Health,7501 WISCONSIN AVE STE 1100W,BETHESDA,MD,20814-6593,,"Health organization in BETHESDA, MD with annual revenue of approximately $55M",
DISTINCTIVE SCHOOLS OF ILLINOIS,274967763,Education,910 W VAN BUREN ST STE 315,CHICAGO,IL,60607-3576,,"Education organization in CHICAGO, IL with annual revenue of approximately $55M",
BEHAVIORAL WELLNESS CENTER AT GIRARD,232610538,Health,801 W GIRARD AVE,PHILADELPHIA,PA,19122-4212,,"Health organization in PHILADELPHIA, PA with annual revenue of approximately $55M",
CARE PLUS NJ INC,222181654,Health,1 KALISA WAY,PARAMUS,NJ,07652-3516,,"Health organization in PARAMUS, NJ with annual revenue of approximately $55M",
FOUR OAKS FAMILY AND CHILDRENS SERVICES,420998726,Human Services,5400 KIRKWOOD BLVD SW,CEDAR RAPIDS,IA,52404-5216,,"Human Services organization in CEDAR RAPIDS, IA with annual revenue of approximately $55M",
SETI INSTITUTE,942951356,Research,339 BERNARDO AVE STE 200,MOUNTAIN VIEW,CA,94043-5232,,"Research organization in MOUNTAIN VIEW, CA with annual revenue of approximately $55M",
MCMURRY UNIVERSITY,750855633,Education,1 MCMURRY UNIVERSITY BOX 87,ABILENE,TX,79697-0001,,"Education organization in ABILENE, TX with annual revenue of approximately $55M",
PITTSBURGH SYMPHONY INC,250986052,Arts & Culture,600 PENN AVENUE,PITTSBURGH,PA,15222-3209,,"Arts & Culture organization in PITTSBURGH, PA with annual revenue of approximately $55M",
HURON REGIONAL MEDICAL CENTER INC,460345312,Health,172 4TH SE ST,HURON,SD,57350-0000,,"Health organization in HURON, SD with annual revenue of approximately $55M",
IMMACULATA UNIVERSITY,231352648,Education,1145 KING RD,IMMACULATA,PA,19345-9903,,"Education organization in IMMACULATA, PA with annual revenue of approximately $55M",
THE VILLAGE FOR FAMILIES & CHILDREN INC,060668594,Human Services,1680 ALBANY AVE,HARTFORD,CT,06105-1001,,"Human Services organization in HARTFORD, CT with annual revenue of approximately $55M",
TMC MEDICAL NETWORK,811156192,Health,5301 E GRANT RD,TUCSON,AZ,85712-2805,,"Health organization in TUCSON, AZ with annual revenue of approximately $55M",
NATCHAUG HOSPITAL INC,060966963,Health,189 STORRS RD,MANSFIELD CTR,CT,06250-1683,,"Health organization in MANSFIELD CTR, CT with annual revenue of approximately $55M",
ALPHA SUPPORTED LIVING SERVICES,910933802,Human Services,16030 JUANITA WOODINVILLE WAY NE,BOTHELL,WA,98011-5477,,"Human Services organization in BOTHELL, WA with annual revenue of approximately $55M",
ARC OF PRINCE GEORGES COUNTY INC,520715246,Other,1401 MCCORMICK DR,LARGO,MD,20774-5507,,"Other organization in LARGO, MD with annual revenue of approximately $55M",
HALLMARK HEALTH MEDICAL ASSOCIATES INC,043140938,Health,170 GOVERNORS AVE,MEDFORD,MA,02155-1643,,"Health organization in MEDFORD, MA with annual revenue of approximately $55M",
LAFAYETTE HEALTH VENTURES INC,721006966,Health,1211 COOLIDGE STREET,LAFAYETTE,LA,70503-2636,,"Health organization in LAFAYETTE, LA with annual revenue of approximately $55M",
PEKIN MEMORIAL HOSPITAL,370692351,Health,611 W PARK ST,URBANA,IL,61801-2529,,"Health organization in URBANA, IL with annual revenue of approximately $55M",
KIPP ST LOUIS,010916759,Other,1310 PAPIN ST STE 203,SAINT LOUIS,MO,63103-3132,,"Other organization in SAINT LOUIS, MO with annual revenue of approximately $54M",
COMMUNITY HEALTH CARE INC,222763588,Other,14 N PEARL ST,BRIDGETON,NJ,08302-1902,,"Other organization in BRIDGETON, NJ with annual revenue of approximately $54M",
MESSIAH HOME,231458000,Human Services,100 MT ALLEN DRIVE,MECHANICSBURG,PA,17055-6171,,"Human Services organization in MECHANICSBURG, PA with annual revenue of approximately $54M",
GOODWILL INDUSTRIES OF THE INLAND NORTHWEST,910597006,Human Services,130 E 3RD AVE,SPOKANE,WA,99202-1410,,"Human Services organization in SPOKANE, WA with annual revenue of approximately $54M",
COMMUNITY FOUNDATION FOR GREATER BUFFALO INC,222743917,Community,726 EXCHANGE ST STE 525,BUFFALO,NY,14210-1469,,"Community organization in BUFFALO, NY with annual revenue of approximately $54M",
SISKIN HOSPITAL FOR PHYSICAL REHABILITATION,621220402,Health,1 SISKIN PLZ,CHATTANOOGA,TN,37403-1306,,"Health organization in CHATTANOOGA, TN with annual revenue of approximately $54M",
MYMICHIGAN MEDICAL CENTER GLADWIN,386020434,Health,515 QUARTER ST,GLADWIN,MI,48624-1959,,"Health organization in GLADWIN, MI with annual revenue of approximately $54M",
COMMISSION ON ECONOMIC OPPORTUNITY OF LUZERNE COUNTY,231653093,Human Services,PO BOX 1127,WILKES BARRE,PA,18703-1127,,"Human Services organization in WILKES BARRE, PA with annual revenue of approximately $54M",
HEAD-ROYCE SCHOOL,941518656,Other,4315 LINCOLN AVE,OAKLAND,CA,94602-2528,,"Other organization in OAKLAND, CA with annual revenue of approximately $54M",
START CORPORATION,581687098,Human Services,PO BOX 165,HOUMA,LA,70361-0165,,"Human Services organization in HOUMA, LA with annual revenue of approximately $54M",
RURAL HEALTH GROUP INC,581640184,Health,PO BOX 640,ROANOKE RAPID,NC,27870-0640,,"Health organization in ROANOKE RAPID, NC with annual revenue of approximately $54M",
PARTNERSHIP FOR STRONG FAMILIES INC,030423150,Health,5950 NW 1ST PL STE 300,GAINESVILLE,FL,32607-6065,,"Health organization in GAINESVILLE, FL with annual revenue of approximately $54M",
INTEGRATED SERVICES FOR BEHAVIORAL HEALTH,311472366,Human Services,1950 MT ST MARYS DRIVE,NELSONVILLE,OH,45764-0000,,"Human Services organization in NELSONVILLE, OH with annual revenue of approximately $54M",
ZEARN,371665745,Education,PO BOX 20,NEW YORK,NY,10116-0020,,"Education organization in NEW YORK, NY with annual revenue of approximately $54M",
MICHIGAN PRIMARY CARE ASSOCIATION,382294018,Health,7215 WESTSHIRE DR,LANSING,MI,48917-9764,,"Health organization in LANSING, MI with annual revenue of approximately $54M",
ALL FOR KIDS ORGANIZATION,951690975,Human Services,1910 MAGNOLIA AVE,LOS ANGELES,CA,90007-1220,,"Human Services organization in LOS ANGELES, CA with annual revenue of approximately $54M",
MATTER,371441658,Human Services,7005 OXFORD ST,ST LOUIS PARK,MN,55426-4509,,"Human Services organization in ST LOUIS PARK, MN with annual revenue of approximately $54M",
CANINE COMPANIONS FOR INDEPENDENCE,942494324,Human Services,PO BOX 446,SANTA ROSA,CA,95402-0446,,"Human Services organization in SANTA ROSA, CA with annual revenue of approximately $54M",
METHODIST HOME FOR THE AGING,630376518,Human Services,1520 COOPER HILL RD,IRONDALE,AL,35210-2303,,"Human Services organization in IRONDALE, AL with annual revenue of approximately $54M",
SOLDIERS & SAILORS MEMORIAL,160743192,Health,418 N MAIN STREET,PENN YAN,NY,14527-1070,,"Health organization in PENN YAN, NY with annual revenue of approximately $54M",
FRIENDS UNIVERSITY,480547702,Education,2100 W UNIVERSITY AVE,WICHITA,KS,67213-3379,,"Education organization in WICHITA, KS with annual revenue of approximately $54M",
OAKWOOD SCHOOL,951698608,Education,11600 MAGNOLIA BLVD,N HOLLYWOOD,CA,91601-3015,,"Education organization in N HOLLYWOOD, CA with annual revenue of approximately $54M",
NOTRE DAME HEALTH SYSTEM,720786847,Health,5600 GENERAL DE GAULLE DR,NEW ORLEANS,LA,70131-7247,,"Health organization in NEW ORLEANS, LA with annual revenue of approximately $54M",
THE EARLY LEARNING COALITION OF FLAGLER AND VOLUSIA COUNTIES INC,593646549,Education,125 EXECUTIVE CIR,DAYTONA BEACH,FL,32114-1180,,"Education organization in DAYTONA BEACH, FL with annual revenue of approximately $54M",
BAPTIST MEMORIAL HOSPITAL UNION CITY INC,621138045,Health,1201 BISHOP ST,UNION CITY,TN,38261-5403,,"Health organization in UNION CITY, TN with annual revenue of approximately $54M",
BRETHREN VILLAGE,231425014,Human Services,3001 LITITZ PIKE,LITITZ,PA,17543-9414,,"Human Services organization in LITITZ, PA with annual revenue of approximately $54M",
ROCK AND ROLL HALL OF FAME AND MUSEUM INC,341520995,Arts & Culture,1100 ROCK AND ROLL BLVD,CLEVELAND,OH,44114-1023,,"Arts & Culture organization in CLEVELAND, OH with annual revenue of approximately $54M",
LIGHTHOUSE FOR THE BLIND AND VISUALLY IMPAIRED,941415317,Human Services,1155 MARKET STREET 10TH FLOOR,SAN FRANCISCO,CA,94103-1540,,"Human Services organization in SAN FRANCISCO, CA with annual revenue of approximately $54M",
DUNWOODY COLLEGE OF TECHNOLOGY,410693856,Education,818 DUNWOODY BLVD,MINNEAPOLIS,MN,55403-1141,,"Education organization in MINNEAPOLIS, MN with annual revenue of approximately $54M",
MASTERS SCHOOL,131740472,Other,49 CLINTON AVE,DOBBS FERRY,NY,10522-2201,,"Other organization in DOBBS FERRY, NY with annual revenue of approximately $54M",
MABEL PEW MYRIN TRUST,236234666,Other,GLENMEDE TR CO 1650 MKT ST 1200,PHILADELPHIA,PA,19103-0000,,"Other organization in PHILADELPHIA, PA with annual revenue of approximately $54M",
FIDELITY HEALTH CARE INC,311075381,Health,3170 KETTERING BLVD,MORAINE,OH,45439-1924,,"Health organization in MORAINE, OH with annual revenue of approximately $54M",
GREATCARE INC,202310333,Human Services,3712 PRINCE STREET,NEW YORK,NY,11354-4649,,"Human Services organization in NEW YORK, NY with annual revenue of approximately $54M",
KVC HOSPITALS INC,271672159,Health,21350 W 153RD ST,OLATHE,KS,66061-5413,,"Health organization in OLATHE, KS with annual revenue of approximately $54M",
FEEDING TEXAS,742762542,Community,PO BOX 152245,AUSTIN,TX,78715-2245,,"Community organization in AUSTIN, TX with annual revenue of approximately $54M",
CDS MONARCH INC,161089115,Human Services,860 HARD RD,WEBSTER,NY,14580-8825,,"Human Services organization in WEBSTER, NY with annual revenue of approximately $54M",
UNITED WAY OF METROPOLITAN DALLAS INC,756005352,Community,1800 N LAMAR ST,DALLAS,TX,75202-1701,,"Community organization in DALLAS, TX with annual revenue of approximately $54M",
IRI INNOVATIVE RESOURCES FOR INDEPENDENCE INC,133490223,Human Services,11240 FRANCIS LEWIS BLVD,QUEENS VLG,NY,11429-2235,,"Human Services organization in QUEENS VLG, NY with annual revenue of approximately $54M",
GOODWILL INDUSTRIES OF CENTRAL OKLAHOMA INC,730641590,Human Services,316 S BLACKWELDER AVE,OKLAHOMA CITY,OK,73108-1418,,"Human Services organization in OKLAHOMA CITY, OK with annual revenue of approximately $54M",
BATON ROUGE AREA FOUNDATION,726030391,Community,100 NORTH ST STE 900,BATON ROUGE,LA,70802-5264,,"Community organization in BATON ROUGE, LA with annual revenue of approximately $54M",
THE GUIDANCE CENTER,381621700,Health,13101 ALLEN RD,SOUTHGATE,MI,48195-2216,,"Health organization in SOUTHGATE, MI with annual revenue of approximately $54M",
BERKSHIRE SCHOOL INC,042121313,Education,245 N UNDERMOUNTAIN RD,SHEFFIELD,MA,01257-9638,,"Education organization in SHEFFIELD, MA with annual revenue of approximately $54M",
DAVID LAWRENCE MENTAL HEALTH CENTER INC,592206025,Health,6075 BATHEY LN,NAPLES,FL,34116-7536,,"Health organization in NAPLES, FL with annual revenue of approximately $54M",
SAINT ELIZABETHS HOSPITAL OF WABASHA INC,410693877,Health,1200 GRANT BLVD W,WABASHA,MN,55981-1042,,"Health organization in WABASHA, MN with annual revenue of approximately $54M",
MOUNT PROSPECT ACADEMY INC,320048804,Education,354 MAIN ST,PLYMOUTH,NH,03264-4518,,"Education organization in PLYMOUTH, NH with annual revenue of approximately $54M",
NIGHTINGALE-BAMFORD SCHOOL,131106710,Education,20 E 92ND ST,NEW YORK,NY,10128-0608,,"Education organization in NEW YORK, NY with annual revenue of approximately $54M",
CARINGHOUSE PROJECTS INCORPORATED,222464198,Other,PO BOX 964,PLEASANTVILLE,NJ,08232-0964,,"Other organization in PLEASANTVILLE, NJ with annual revenue of approximately $54M",
CLIMATE BREAKTHROUGH INC,880587390,Human Services,2625 ALCATRAZ AVE 116,BERKELEY,CA,94705-2702,,"Human Services organization in BERKELEY, CA with annual revenue of approximately $54M",
ROBERTS WESLEYAN UNIVERSITY,160743126,Education,2301 WESTSIDE DR,ROCHESTER,NY,14624-1933,,"Education organization in ROCHESTER, NY with annual revenue of approximately $54M",
TREVOR DAY SCHOOL,131635261,Education,312 EAST 95TH STREET,NEW YORK,NY,10128-5779,,"Education organization in NEW YORK, NY with annual revenue of approximately $54M",
HISPANIC SCHOLARSHIP FUND,521051044,Education,100 N PACIFIC COAST HWY STE 1900,EL SEGUNDO,CA,90245-5657,,"Education organization in EL SEGUNDO, CA with annual revenue of approximately $54M",
PIEDMONT UNIVERSITY INC,580566212,Education,PO BOX 10,DEMOREST,GA,30535-0010,,"Education organization in DEMOREST, GA with annual revenue of approximately $54M",
COMMUNITY HEALTH CONNECTIONS INC,043452697,Health,326 NICHOLS ROAD,FITCHBURG,MA,01420-1914,,"Health organization in FITCHBURG, MA with annual revenue of approximately $54M",
AMBERWELL ATCHISON ASSOCIATION,480561974,Health,800 RAVENHILL DR,ATCHISON,KS,66002-9204,,"Health organization in ATCHISON, KS with annual revenue of approximately $54M",
COLLEGIATE SCHOOL INC,131634966,Education,301 FREEDOM PL S,NEW YORK,NY,10069-0927,,"Education organization in NEW YORK, NY with annual revenue of approximately $54M",
GULF COAST COMMUNITY FOUNDATION INC,591052433,Community,601 TAMIAMI TRL S,VENICE,FL,34285-3237,,"Community organization in VENICE, FL with annual revenue of approximately $54M",
STEPHENS COUNTY HOSPITAL AUTHORITY,586001667,Health,163 HOSPITAL DR,TOCCOA,GA,30577-6820,,"Health organization in TOCCOA, GA with annual revenue of approximately $54M",
SIOUXLAND COMMUNITY HEALTH CENTER,421374894,Health,1021 NEBRASKA ST,SIOUX CITY,IA,51105-1436,,"Health organization in SIOUX CITY, IA with annual revenue of approximately $54M",
AMERICAN SOCIETY FOR MICROBIOLOGY,381616141,Research,1752 N STREET NW,WASHINGTON,DC,20036-2904,,"Research organization in WASHINGTON, DC with annual revenue of approximately $54M",
FLORIDA ASSOCIATION OF REHABILITATION FACILITIES INC,591640418,Other,1113 E TENNESSEE ST STE 100,TALLAHASSEE,FL,32308-6915,,"Other organization in TALLAHASSEE, FL with annual revenue of approximately $54M",
TRUSTEES OF ST JOSEPHS COLLEGE,010212542,Education,278 WHITES BRIDGE ROAD,STANDISH,ME,04084-5236,,"Education organization in STANDISH, ME with annual revenue of approximately $54M",
ALLIANCE FOR SAFETY AND JUSTICE,853209787,Human Services,1624 FRANKLIN STREET 11TH FLOOR,OAKLAND,CA,94612-2897,,"Human Services organization in OAKLAND, CA with annual revenue of approximately $54M",
SAMARITAN MINISTRIES INTERNATIONAL,371295601,Health,PO BOX 3618,PEORIA,IL,61612-3618,,"Health organization in PEORIA, IL with annual revenue of approximately $54M",
TAMPA METROPOLITAN AREA YOUNG MENS CHRISTIAN ASSOCIATION INC,591742909,Human Services,110 E OAK AVE,TAMPA,FL,33602-2210,,"Human Services organization in TAMPA, FL with annual revenue of approximately $54M",
DETROIT ZOOLOGICAL SOCIETY,386027356,Health,8450 W 10 MILE RD,ROYAL OAK,MI,48067-3001,,"Health organization in ROYAL OAK, MI with annual revenue of approximately $54M",
EASTERN MENNONITE UNIVERSITY,540575812,Other,1200 PARK RD,HARRISONBURG,VA,22802-2404,,"Other organization in HARRISONBURG, VA with annual revenue of approximately $54M",
GENESEE LIVINGSTON ORLEANS WYOMING COUNTIES CHAPTER NYSARC INC,161022565,Human Services,18 MAIN ST,MOUNT MORRIS,NY,14510-1036,,"Human Services organization in MOUNT MORRIS, NY with annual revenue of approximately $54M",
LAKEVIEW VILLAGE INC,480689163,Human Services,9100 PARK ST,LENEXA,KS,66215-3328,,"Human Services organization in LENEXA, KS with annual revenue of approximately $54M",
APF SUPPORT INC,842208967,Human Services,191 PEACHTREE ST NE SUITE 191,ATLANTA,GA,30303-1740,,"Human Services organization in ATLANTA, GA with annual revenue of approximately $54M",
GATEWAY REHABILITATION CENTER,251204418,Health,311 ROUSER RD,MOON TOWNSHIP,PA,15108-6801,,"Health organization in MOON TOWNSHIP, PA with annual revenue of approximately $54M",
BEHAVIORAL HEALTH SYSTEM BALTIMORE INC,521519025,Health,100 S CHARLES STREET TOWER II 8TH F,BALTIMORE,MD,21201-2725,,"Health organization in BALTIMORE, MD with annual revenue of approximately $54M",
COLORADO ACADEMY,840421874,Education,3800 S PIERCE ST,DENVER,CO,80235-2404,,"Education organization in DENVER, CO with annual revenue of approximately $54M",
AVERETT UNIVERSITY,540129860,Education,420 W MAIN ST,DANVILLE,VA,24541-3612,,"Education organization in DANVILLE, VA with annual revenue of approximately $54M",
EGER HEALTH CARE AND REHABILITATION CENTER,133524533,Health,140 MEISNER AVE,STATEN ISLAND,NY,10306-1236,,"Health organization in STATEN ISLAND, NY with annual revenue of approximately $54M",
WISCONSIN LUTHERAN COLLEGE,237179639,Other,8800 W BLUEMOUND RD,MILWAUKEE,WI,53226-4626,,"Other organization in MILWAUKEE, WI with annual revenue of approximately $54M",
NORTH CENTRAL FLORIDA HOSPICE INC,592490893,Human Services,4200 NW 90TH BLVD,GAINESVILLE,FL,32606-3809,,"Human Services organization in GAINESVILLE, FL with annual revenue of approximately $54M",
SPARTANBURG COUNTY FOUNDATION,570351398,Community,424 E KENNEDY ST,SPARTANBURG,SC,29302-1916,,"Community organization in SPARTANBURG, SC with annual revenue of approximately $54M",
COMMUNITY COUNSELING SOLUTIONS,342057513,Health,PO BOX 469,HEPPNER,OR,97836-0469,,"Health organization in HEPPNER, OR with annual revenue of approximately $54M",
UTAH ATHLETIC FOUNDATION,841367913,Human Services,PO BOX 980337,PARK CITY,UT,84098-0301,,"Human Services organization in PARK CITY, UT with annual revenue of approximately $54M",
LEMAN ACADEMY OF EXCELLENCE INC,471237723,Education,3300 E SUNRISE DR UNIT 150,TUCSON,AZ,85718-3241,,"Education organization in TUCSON, AZ with annual revenue of approximately $54M",
LENBROOK SQUARE FOUNDATION INC,581416841,Human Services,3747 PEACHTREE ROAD NE,ATLANTA,GA,30319-1360,,"Human Services organization in ATLANTA, GA with annual revenue of approximately $54M",
NONOTUCK RESOURCE ASSOCIATES,042510006,Human Services,425 PROSPECT ST,NORTHAMPTON,MA,01060-2046,,"Human Services organization in NORTHAMPTON, MA with annual revenue of approximately $54M",
COMMUNITY SERVICES FOR EVERY1 INC,161317369,Human Services,180 OAK ST,BUFFALO,NY,14203-1610,,"Human Services organization in BUFFALO, NY with annual revenue of approximately $54M",
NEXUS COMMUNITY PARTNERS,300658898,Community,2314 UNIVERSITY AVE W STE 18,SAINT PAUL,MN,55114-1863,,"Community organization in SAINT PAUL, MN with annual revenue of approximately $54M",
FEGS HOME ATTENDANT SERVICES INC,133161675,Human Services,424 E 147TH ST,BRONX,NY,10455-4104,,"Human Services organization in BRONX, NY with annual revenue of approximately $54M",
GREENVILLE COLLEGE,370681530,Education,315 E COLLEGE AVE,GREENVILLE,IL,62246-1145,,"Education organization in GREENVILLE, IL with annual revenue of approximately $54M",
FEEDING AMERICA WEST MICHIGAN,382439659,Other,3070 SHAFFER AVE SE,KENTWOOD,MI,49512-1710,,"Other organization in KENTWOOD, MI with annual revenue of approximately $54M",
BRILLA COLLEGE PREPARATORY CHARTER SCHOOLS,813081969,Other,413 E 144TH ST,BRONX,NY,10454-1004,,"Other organization in BRONX, NY with annual revenue of approximately $54M",
UCM MEDICAL GROUP INC,474221241,Health,5841 S MARYLAND AVENUE,CHICAGO,IL,60637-1443,,"Health organization in CHICAGO, IL with annual revenue of approximately $54M",
MEMORIAL COMMUNITY HOSPITAL CORPORATION,470426285,Health,810 N 22ND ST,BLAIR,NE,68008-1128,,"Health organization in BLAIR, NE with annual revenue of approximately $54M",
AMERICAN LIBRARY ASSOCIATION,362166947,Education,225 N MICHIGAN AVE STE 1300,CHICAGO,IL,60601-7616,,"Education organization in CHICAGO, IL with annual revenue of approximately $54M",
REGION VII AREA AGENCY ON AGING INC,382077462,Human Services,1615 S EUCLID AVE,BAY CITY,MI,48706-3319,,"Human Services organization in BAY CITY, MI with annual revenue of approximately $54M",
MERCY-USA FOR AID AND DEVELOPMENT INC,382846307,International,44450 PINETREE DR STE 201,PLYMOUTH,MI,48170-3869,,"International organization in PLYMOUTH, MI with annual revenue of approximately $54M",
ASSOCIATED JEWISH COMMUNITY FEDERATION OF BALTIMORE INC,520607957,Community,5700 PARK HEIGHTS AVE,BALTIMORE,MD,21215-3930,,"Community organization in BALTIMORE, MD with annual revenue of approximately $54M",
SUBURBAN ADULT SERVICES INC,161115992,Human Services,960 W MAPLE CT,ELMA,NY,14059-9397,,"Human Services organization in ELMA, NY with annual revenue of approximately $54M",
LA JOLLA COUNTRY DAY SCHOOL,951875978,Other,9409 REGENTS RD,LA JOLLA,CA,92037-1357,,"Other organization in LA JOLLA, CA with annual revenue of approximately $54M",
FLINT HILL SCHOOL,541538212,Education,3320 JERMANTOWN RD,OAKTON,VA,22124-2405,,"Education organization in OAKTON, VA with annual revenue of approximately $54M",
ZUFALL HEALTH CENTER INC,223125397,Health,18 W BLACKWELL ST,DOVER,NJ,07801-3841,,"Health organization in DOVER, NJ with annual revenue of approximately $53M",
SOUTHWEST COLORADO MENTAL HEALTH CENTER INC,840506701,Health,150 MERCURY VILLAGE DR,DURANGO,CO,81301-8955,,"Health organization in DURANGO, CO with annual revenue of approximately $53M",
C C YOUNG MEMORIAL HOME,750800694,Health,4847 W LAWTHER DR STE 100,DALLAS,TX,75214-1845,,"Health organization in DALLAS, TX with annual revenue of approximately $53M",
GOODWILL RETAIL SERVICES,451544299,Human Services,342 N SAN FERNANDO RD,LOS ANGELES,CA,90031-1730,,"Human Services organization in LOS ANGELES, CA with annual revenue of approximately $53M",
ST JOSEPHS HOSPITAL OF THE HOSPITAL SISTERS OF THE THRID ORDER OF ST F,370663568,Health,4936 LAVERNA RD,SPRINGFIELD,IL,62707-9797,,"Health organization in SPRINGFIELD, IL with annual revenue of approximately $53M",
DARE TO CARE INC,237345952,Human Services,5803 FERN VALLEY RD,LOUISVILLE,KY,40228-1051,,"Human Services organization in LOUISVILLE, KY with annual revenue of approximately $53M",
PATERSON CHARTER SCHOOL FOR SCIENCE AND TECHNOLOGY INC,223799763,Education,196 W RAILWAY AVE,PATERSON,NJ,07503-2227,,"Education organization in PATERSON, NJ with annual revenue of approximately $53M",
NYSARC INC,160835172,Health,2060 BRIGHTON-HENRIETTA TOWNLINE RD,ROCHESTER,NY,14623-2792,,"Health organization in ROCHESTER, NY with annual revenue of approximately $53M",
ROCHELLE COMMUNITY HOSPITAL ASSOCIATION,362548549,Health,900 N 2ND ST,ROCHELLE,IL,61068-1764,,"Health organization in ROCHELLE, IL with annual revenue of approximately $53M",
GOODWILL OF WESTERN AND NORTHERN CONNECTICUT INC,060662111,Human Services,165 OCEAN TER,BRIDGEPORT,CT,06605-2719,,"Human Services organization in BRIDGEPORT, CT with annual revenue of approximately $53M",
TLCS INC,942777955,Health,650 HOWE AVE BLDG 400-A,SACRAMENTO,CA,95825-4731,,"Health organization in SACRAMENTO, CA with annual revenue of approximately $53M",
KAIZEN EDUCATIONAL FOUNDATION,800197489,Arts & Culture,6150 N 16TH ST STE A,PHOENIX,AZ,85016-1774,,"Arts & Culture organization in PHOENIX, AZ with annual revenue of approximately $53M",
ARKANSAS CHILDRENS HOSPITAL RESEARCH INSTITUTE,710694931,Other,1 CHILDRENS WAY,LITTLE ROCK,AR,72202-3500,,"Other organization in LITTLE ROCK, AR with annual revenue of approximately $53M",
KODIAK AREA NATIVE ASSOCIATION,920038225,Human Services,3449 E REZANOF DR,KODIAK,AK,99615-6952,,"Human Services organization in KODIAK, AK with annual revenue of approximately $53M",
INVISION CUSTOMIZED SERVICES,251701328,Human Services,12450 PERRY HWY,WEXFORD,PA,15090-7387,,"Human Services organization in WEXFORD, PA with annual revenue of approximately $53M",
CIBOLA GENERAL HOSPITAL CORPORATION,850141285,Health,1016 E ROOSEVELT AVE,GRANTS,NM,87020-2118,,"Health organization in GRANTS, NM with annual revenue of approximately $53M",
HOSPICE OF WAKE COUNTY INC,561228779,Other,250 HOSPICE CIR,RALEIGH,NC,27607-6372,,"Other organization in RALEIGH, NC with annual revenue of approximately $53M",
NEW YORK LEGAL ASSISTANCE GROUP INCORPORATED,133505428,Other,100 PEARL STREET 19TH FLOOR,NEW YORK,NY,10004-6006,,"Other organization in NEW YORK, NY with annual revenue of approximately $53M",
BETH ISRAEL LAHEY HEALTH SPECIALTY CARE INC,043201853,Health,CO BILH TAX 529 MAIN ST 4TH FL,CHARLESTOWN,MA,02129-0000,,"Health organization in CHARLESTOWN, MA with annual revenue of approximately $53M",
NATIONAL COMPREHENSIVE CANCER NETWORK INC,232818395,Health,3025 CHEMICAL RD STE 100,PLYMOUTH MTNG,PA,19462-1736,,"Health organization in PLYMOUTH MTNG, PA with annual revenue of approximately $53M",
INDIANA ONLINE LEARNING OPTIONS INC,205905529,Education,6640 INTECH BLVD STE 101,INDIANAPOLIS,IN,46278-2012,,"Education organization in INDIANAPOLIS, IN with annual revenue of approximately $53M",
GORDON CHRISTIAN TRUST,382596725,Community,250 MONROE AVE NW STE 800,GRAND RAPIDS,MI,49503-2283,,"Community organization in GRAND RAPIDS, MI with annual revenue of approximately $53M",
MIAMI DADE COLLEGE FOUNDATION INC,596169745,Education,300 NE 2ND AVE,MIAMI,FL,33132-2204,,"Education organization in MIAMI, FL with annual revenue of approximately $53M",
CORNERSTONES OF CARE,431689138,Human Services,8150 WORNALL RD,KANSAS CITY,MO,64114-5806,,"Human Services organization in KANSAS CITY, MO with annual revenue of approximately $53M",
IOWA SOYBEAN ASSOCIATION,426127197,Other,1255 SW PRAIRIE TRAIL PKWY,ANKENY,IA,50023-7068,,"Other organization in ANKENY, IA with annual revenue of approximately $53M",
RUSSELLVILLE HOSPITAL INC,472378825,Health,PO BOX 1089,RUSSELLVILLE,AL,35653-1089,,"Health organization in RUSSELLVILLE, AL with annual revenue of approximately $53M",
CONCORD ACADEMY,041200600,Education,166 MAIN ST,CONCORD,MA,01742-2445,,"Education organization in CONCORD, MA with annual revenue of approximately $53M",
CHICAGO COMMONS ASSOCIATION,362169136,Human Services,515 E 50TH STREET SUITE 200,CHICAGO,IL,60615-2401,,"Human Services organization in CHICAGO, IL with annual revenue of approximately $53M",
COMMUNITY ACTION ORGANIZATION,930554941,Human Services,1001 SW BASELINE ST,HILLSBORO,OR,97123-3822,,"Human Services organization in HILLSBORO, OR with annual revenue of approximately $53M",
BRONXCARE DR MARTIN LUTHER KING JR HEALTH CENTER,132707945,Other,1276 FULTON AVE,BRONX,NY,10456-3467,,"Other organization in BRONX, NY with annual revenue of approximately $53M",
CATHOLIC CHARITIES OF THE ARCHDIOCESE OF MIAMI INC,591279497,Human Services,1505 NE 26TH ST,WILTON MANORS,FL,33305-1323,,"Human Services organization in WILTON MANORS, FL with annual revenue of approximately $53M",
OHIO LIVING HOLDINGS,272564811,Human Services,9200 WORTHINGTON RD STE 300,WESTERVILLE,OH,43082-7240,,"Human Services organization in WESTERVILLE, OH with annual revenue of approximately $53M",
TEXAS PREGNANCY CARE NETWORK,760802397,Human Services,1101 S CAPITAL TX HWY STE K2,AUTIN,TX,78746-6445,,"Human Services organization in AUTIN, TX with annual revenue of approximately $53M",
GREENPATH INC,386142925,Human Services,36500 CORPORATE DR,FARMINGTN HLS,MI,48331-3553,,"Human Services organization in FARMINGTN HLS, MI with annual revenue of approximately $53M",
CRESCENT CITY SCHOOLS,272811737,Education,2701 LAWRENCE ST,NEW ORLEANS,LA,70114-3013,,"Education organization in NEW ORLEANS, LA with annual revenue of approximately $53M",
LIFEWORKS NW,930502822,Health,5415 SW WESTGATE DR STE 100,PORTLAND,OR,97221-2409,,"Health organization in PORTLAND, OR with annual revenue of approximately $53M",
KEY PROGRAM INCORPORATED,042539878,Human Services,2000 WEST PARK DR,WESTBOROUGH,MA,01581-3923,,"Human Services organization in WESTBOROUGH, MA with annual revenue of approximately $53M",
CORNERSTONE UNIVERSITY,381443369,Education,1001 E BELTLINE AVE NE,GRAND RAPIDS,MI,49525-5803,,"Education organization in GRAND RAPIDS, MI with annual revenue of approximately $53M",
NORTH MISSISSIPPI PRIMARY HEALTH CARE INC,640686443,Health,15921 BOUNDARY DR,ASHLAND,MS,38603-7740,,"Health organization in ASHLAND, MS with annual revenue of approximately $53M",
COMMUNITY HEALTH ASSOCIATION,550462730,Health,112 PINNELL STREET,RIPLEY,WV,25271-0000,,"Health organization in RIPLEY, WV with annual revenue of approximately $53M",
ARCHDIOCESAN HOUSING AUTHORITY,911099134,Human Services,100 23RD AVE S,SEATTLE,WA,98144-2302,,"Human Services organization in SEATTLE, WA with annual revenue of approximately $53M",
COMMUNITY FOOD BANK OF CENTRAL ALABAMA,630837956,Human Services,107 WALTER DAVIS DR,BIRMINGHAM,AL,35209-2803,,"Human Services organization in BIRMINGHAM, AL with annual revenue of approximately $53M",
ARC RESEARCH INSTITUTE,871920284,Health,3181 PORTER DR,PALO ALTO,CA,94304-1213,,"Health organization in PALO ALTO, CA with annual revenue of approximately $53M",
HOPE FOR HAITI INC,593564329,International,1021 5TH AVE N,NAPLES,FL,34102-5818,,"International organization in NAPLES, FL with annual revenue of approximately $53M",
JGIVE-FRIENDS OF ASOR FUND USA INC,810757923,Community,JERUSALEM,ISRAEL,,00000-0000,,"Community organization in ISRAEL,  with annual revenue of approximately $53M",
HEALTH SYSTEMS FACILITIES INC,743083594,Health,1005 BOULDER DR,GRAY,GA,31032-6141,,"Health organization in GRAY, GA with annual revenue of approximately $53M",
FAMILY CARE CENTERS INC,232349341,Other,2100 MACK BLVD PO BOX 400,ALLENTOWN,PA,18105-0000,,"Other organization in ALLENTOWN, PA with annual revenue of approximately $53M",
GRANT MEDICAL CENTER INC,510156065,Health,308 E MAIN ST,MILTON,WV,25541-1508,,"Health organization in MILTON, WV with annual revenue of approximately $53M",
GOSHEN COLLEGE INC,352158366,Education,1700 S MAIN ST,GOSHEN,IN,46526-4724,,"Education organization in GOSHEN, IN with annual revenue of approximately $53M",
WILLIAM PENN CHARTER SCHOOL INC,230953760,Education,3000 W SCHOOL HOUSE LN,PHILADELPHIA,PA,19144-5412,,"Education organization in PHILADELPHIA, PA with annual revenue of approximately $53M",
EL CAMPO MEMORIAL HOSPITAL,452750258,Health,303 SANDY CORNER RD,EL CAMPO,TX,77437-9535,,"Health organization in EL CAMPO, TX with annual revenue of approximately $53M",
WEST VIRGINIA WESLEYAN COLLEGE,550357056,Education,59 COLLEGE AVE,BUCKHANNON,WV,26201-2600,,"Education organization in BUCKHANNON, WV with annual revenue of approximately $53M",
THE ASSOCIATION FOR CHOICES IN CMNTY SPPRTS EMPLMNT SVCS N J INC,222225912,Other,150 W STATE STREET SUITE 120,TRENTON,NJ,08608-1105,,"Other organization in TRENTON, NJ with annual revenue of approximately $53M",
TEXAS HEALTH HARRIS METHODIST HOSPITAL AZLE,751748586,Health,108 DENVER TRL,AZLE,TX,76020-3614,,"Health organization in AZLE, TX with annual revenue of approximately $53M",
MERCY MEDICAL CENTER-CENTERVILLE,420680308,Health,1 SAINT JOSEPH DR,CENTERVILLE,IA,52544-9017,,"Health organization in CENTERVILLE, IA with annual revenue of approximately $53M",
COMANCHE COUNTY MEDICAL CENTER COMPANY,273993262,Health,10201 HIGHWAY 16,COMANCHE,TX,76442-4462,,"Health organization in COMANCHE, TX with annual revenue of approximately $53M",
FRANKLIN COLLEGE OF INDIANA,350868086,Education,101 BRANIGIN BLVD,FRANKLIN,IN,46131-2598,,"Education organization in FRANKLIN, IN with annual revenue of approximately $53M",
BELMONT HILL SCHOOL INC,042103870,Education,350 PROSPECT ST,BELMONT,MA,02478-2656,,"Education organization in BELMONT, MA with annual revenue of approximately $53M",
CHAPEL & YORK US FOUNDATION INC,812161937,Community,1350 AVE OF THE AMERICAS FL2 STE266,NEW YORK,NY,10019-4703,,"Community organization in NEW YORK, NY with annual revenue of approximately $53M",
UNIVERSITY ENTERPRISES CORPORATION AT CSUSB,956067343,Education,5500 UNIVERSITY PKWY,SN BERNRDNO,CA,92407-2318,,"Education organization in SN BERNRDNO, CA with annual revenue of approximately $53M",
SAN DIEGO BLOOD BANK,951696732,Other,3636 GATEWAY CENTER AVE STE 100,SAN DIEGO,CA,92102-4508,,"Other organization in SAN DIEGO, CA with annual revenue of approximately $53M",
FOOD BANK OF DELAWARE INC,510258984,Human Services,222 LAKE DR,NEWARK,DE,19702-3319,,"Human Services organization in NEWARK, DE with annual revenue of approximately $53M",
ASSOCIATION OF VILLAGE COUNCIL PRESIDENTS,920064285,Human Services,PO BOX 219,BETHEL,AK,99559-0219,,"Human Services organization in BETHEL, AK with annual revenue of approximately $53M",
NATIONAL INVENTORS HALL OF FAME INC,341580038,Arts & Culture,3701 HIGHLAND PARK NW,NORTH CANTON,OH,44720-4535,,"Arts & Culture organization in NORTH CANTON, OH with annual revenue of approximately $53M",
DELAWARE VALLEY COMMUNITY HEALTH INC,232077750,Other,1412 FAIRMOUNT AVE,PHILADELPHIA,PA,19130-2908,,"Other organization in PHILADELPHIA, PA with annual revenue of approximately $53M",
MAKING OPPORTUNITY COUNT INC,042401111,Human Services,49 NURESRY LANE 2ND FLOOR,FITCHBURG,MA,01420-3576,,"Human Services organization in FITCHBURG, MA with annual revenue of approximately $53M",
FAMILY HEALTH CENTER INC,237107569,Health,117 W PATERSON ST,KALAMAZOO,MI,49007-2557,,"Health organization in KALAMAZOO, MI with annual revenue of approximately $53M",
SEATTLE AQUARIUM SOCIETY-SEAS,911189249,Health,1483 ALASKAN WAY PIER 59,SEATTLE,WA,98101-2015,,"Health organization in SEATTLE, WA with annual revenue of approximately $53M",
PROTESTANT EPISCOPAL HIGH SCHOOL IN VIRGINIA,540506326,Education,1200 N QUAKER LN,ALEXANDRIA,VA,22302-3004,,"Education organization in ALEXANDRIA, VA with annual revenue of approximately $53M",
CINCINNATI SYMPHONY ORCHESTRA,310537080,Arts & Culture,1241 ELM ST,CINCINNATI,OH,45202-7531,,"Arts & Culture organization in CINCINNATI, OH with annual revenue of approximately $53M",
THE HILL SCHOOL,231352647,Education,860 BEECH ST,POTTSTOWN,PA,19464-5700,,"Education organization in POTTSTOWN, PA with annual revenue of approximately $53M",
CENTENARY UNIVERSITY,221500484,Education,400 JEFFERSON ST,HACKETTSTOWN,NJ,07840-2184,,"Education organization in HACKETTSTOWN, NJ with annual revenue of approximately $53M",
AMERICAN SOCIETY OF CIVIL ENGINEERS,131635293,Research,1801 ALEXANDER BELL DRIVE,RESTON,VA,20191-5467,,"Research organization in RESTON, VA with annual revenue of approximately $53M",
FAMILY GUIDANCE CENTERS INC,362690275,Other,2618 PATRIOT BLVD SUITE B,GLENVIEW,IL,60026-8024,,"Other organization in GLENVIEW, IL with annual revenue of approximately $53M",
BEDFORD MEMORIAL HOSPITAL,540566100,Health,1613 OAKWOOD ST,BEDFORD,VA,24523-1213,,"Health organization in BEDFORD, VA with annual revenue of approximately $53M",
INNOVATIONS FOR POVERTY ACTION,061660068,Research,228 PARK AVE S,NEW YORK,NY,10003-1502,,"Research organization in NEW YORK, NY with annual revenue of approximately $53M",
SENIOR CARE COMMUNITIES INC,650639567,Health,161 RONDO AVE STE 825,SAINT PAUL,MN,55103-2457,,"Health organization in SAINT PAUL, MN with annual revenue of approximately $53M",
COMMUNITY SOLUTIONS FOR CHILDREN FAMILIES AND INDIVIDUALS,237351215,Other,9015 MURRAY AVE STE 100,GILROY,CA,95020-3675,,"Other organization in GILROY, CA with annual revenue of approximately $53M",
STEPFORWARD,340965350,Human Services,1801 SUPERIOR AVE E STE 400,CLEVELAND,OH,44114-2135,,"Human Services organization in CLEVELAND, OH with annual revenue of approximately $53M",
MEDICAL COLLEGE OF VIRGINIA FOUNDATION,546053660,Education,1228 E BROAD ST,RICHMOND,VA,23219-2040,,"Education organization in RICHMOND, VA with annual revenue of approximately $53M",
CENTERSTONE OF ILLINOIS INC,370916475,Health,1921 RANSOM PL,NASHVILLE,TN,37217-3841,,"Health organization in NASHVILLE, TN with annual revenue of approximately $53M",
LUTHERAN HOMES INC,350885590,Human Services,6701 S ANTHONY BLVD,FORT WAYNE,IN,46816-2012,,"Human Services organization in FORT WAYNE, IN with annual revenue of approximately $53M",
UNIVERSITY OF SAINT MARY,480547846,Education,4100 S 4TH ST,LEAVENWORTH,KS,66048-5082,,"Education organization in LEAVENWORTH, KS with annual revenue of approximately $53M",
CHILDRENS MUSEUM OF MANHATTAN,132761376,Arts & Culture,TISCH BUILDING 212 W 83RD ST,NEW YORK,NY,10024-0000,,"Arts & Culture organization in NEW YORK, NY with annual revenue of approximately $53M",
ACUMEN FUND INC,134166228,International,40 WORTH ST RM 303,NEW YORK,NY,10013-3196,,"International organization in NEW YORK, NY with annual revenue of approximately $53M",
CHILDRENS HOSPITAL PITTSBURGH FOUNDATION,251865744,Health,4401 PENN AVE,PITTSBURGH,PA,15224-1334,,"Health organization in PITTSBURGH, PA with annual revenue of approximately $53M",
ARIA COMMUNITY HEALTH CENTER,770425496,Health,PO BOX 580,LEMOORE,CA,93245-0580,,"Health organization in LEMOORE, CA with annual revenue of approximately $53M",
COMMUNITY FOUNDATION OF JACKSON HOLE,830308856,Community,PO BOX 574,JACKSON,WY,83001-0574,,"Community organization in JACKSON, WY with annual revenue of approximately $53M",
DREAM CHARTER SCHOOL,261841386,Education,1991 2ND AVE,NEW YORK,NY,10029-6302,,"Education organization in NEW YORK, NY with annual revenue of approximately $53M",
NEIGHBORHOOD IMPROVEMENT PROJECT INC,311591242,Community,2467 GOLDEN CAMP RD,AUGUSTA,GA,30906-5515,,"Community organization in AUGUSTA, GA with annual revenue of approximately $53M",
OREGON PUBLIC BROADCASTING,930814638,Arts & Culture,7140 S MACADAM AVE,PORTLAND,OR,97219-3013,,"Arts & Culture organization in PORTLAND, OR with annual revenue of approximately $53M",
WAY STATION INC,521162749,Human Services,PO BOX 3826,FREDERICK,MD,21705-3826,,"Human Services organization in FREDERICK, MD with annual revenue of approximately $53M",
ARCHBOLD MEDICAL CENTER INC,581552650,Other,PO BOX 1018,THOMASVILLE,GA,31799-1018,,"Other organization in THOMASVILLE, GA with annual revenue of approximately $53M",
THE WEST TEXAS REHABILITATION CENTER,750868320,Health,4601 HARTFORD ST,ABILENE,TX,79605-4603,,"Health organization in ABILENE, TX with annual revenue of approximately $53M",
ACCESSCNY INC,150532247,Health,1603 COURT ST,SYRACUSE,NY,13208-1834,,"Health organization in SYRACUSE, NY with annual revenue of approximately $53M",
VASSAR HEALTH CONNECTICUT INC,815056290,Health,50 HOSPITAL HILL RD,SHARON,CT,06069-2096,,"Health organization in SHARON, CT with annual revenue of approximately $53M",
MOUNT MERCY UNIVERSITY,420681046,Education,1330 ELMHURST DR NE,CEDAR RAPIDS,IA,52402-4763,,"Education organization in CEDAR RAPIDS, IA with annual revenue of approximately $53M",
CENTRAL CITY COMMUNITY HEALTH CENTER INC,954492570,Other,2019 SATURN ST,MONTEREY PARK,CA,91755-7415,,"Other organization in MONTEREY PARK, CA with annual revenue of approximately $53M",
LICKING MEMORIAL PROFESSIONAL CORPORATION,311425530,Health,1320 W MAIN ST,NEWARK,OH,43055-1822,,"Health organization in NEWARK, OH with annual revenue of approximately $53M",
MIRIAM OSBORN MEMORIAL HOME ASSOCIATION,135562312,Other,101 THEALL RD,RYE,NY,10580-1406,,"Other organization in RYE, NY with annual revenue of approximately $53M",
PASSAIC ARTS AND SCIENCE CHARTER SCHOOL,273706398,Education,33-00 BROADWAY STE 301,FAIR LAWN,NJ,07410-4603,,"Education organization in FAIR LAWN, NJ with annual revenue of approximately $53M",
TEACH FOR ALL INC,262122566,Education,25 BROADWAY 12TH FL,NEW YORK,NY,10004-1056,,"Education organization in NEW YORK, NY with annual revenue of approximately $53M",
SAY YES BUFFALO SCHOLARSHIP INC,462867677,Education,712 MAIN STREET,BUFFALO,NY,14202-1720,,"Education organization in BUFFALO, NY with annual revenue of approximately $53M",
ARARAT HOME OF LOS ANGELES INC,951809572,Health,15105 MISSION HILLS RD,MISSION HILLS,CA,91345-1103,,"Health organization in MISSION HILLS, CA with annual revenue of approximately $53M",
MILLCREEK MANOR,251619204,Health,5515 PEACH ST,ERIE,PA,16509-2603,,"Health organization in ERIE, PA with annual revenue of approximately $52M",
PRESTON MEMORIAL HOSPITAL CORPORATION,311097818,Health,150 MEMORIAL DR,KINGWOOD,WV,26537-1141,,"Health organization in KINGWOOD, WV with annual revenue of approximately $52M",
COMMUNITY HEALTH SYSTEMS INC,330056551,Other,21801 ALESSANDRO BLVD,MORENO VALLEY,CA,92553-8202,,"Other organization in MORENO VALLEY, CA with annual revenue of approximately $52M",
TAMPA BAY PERFORMING ARTS CENTER,592037085,Other,1010 N W C MACINNES PL,TAMPA,FL,33602-3720,,"Other organization in TAMPA, FL with annual revenue of approximately $52M",
UNITED FOOD BANK,860505273,Human Services,245 S NINA DR,MESA,AZ,85210-8490,,"Human Services organization in MESA, AZ with annual revenue of approximately $52M",
INDEPENDENT HEALTHCARE MANAGEMENT INC,640770155,Health,PO BOX 1460,MAGEE,MS,39111-1460,,"Health organization in MAGEE, MS with annual revenue of approximately $52M",
ST LUKES COMMUNITY HOSPITAL,810221486,Health,107 6TH AVE SW,RONAN,MT,59864-2634,,"Health organization in RONAN, MT with annual revenue of approximately $52M",
GATOR BOOSTERS INC,590737883,Other,PO BOX 13796,GAINESVILLE,FL,32604-1796,,"Other organization in GAINESVILLE, FL with annual revenue of approximately $52M",
COMPASS ROSE EDUCATION INC,475328736,Education,1777 NE LOOP 410 STE 101,SAN ANTONIO,TX,78217-5216,,"Education organization in SAN ANTONIO, TX with annual revenue of approximately $52M",
FORT WORTH ZOOLOGICAL ASSOCIATION INC,750991727,Health,1989 COLONIAL PKWY,FORT WORTH,TX,76110-6640,,"Health organization in FORT WORTH, TX with annual revenue of approximately $52M",
KYIV SCHOOL OF ECONOMICS,522264611,Education,5335 WISCONSIN AVE NW STE 440,WASHINGTON,DC,20015-2079,,"Education organization in WASHINGTON, DC with annual revenue of approximately $52M",
THE ARC BALTIMORE INC,520671428,Human Services,7215 YORK RD,BALTIMORE,MD,21212-1528,,"Human Services organization in BALTIMORE, MD with annual revenue of approximately $52M",
PACE ACADEMY INC,580706812,Education,966 W PACES FERRY RD NW,ATLANTA,GA,30327-2648,,"Education organization in ATLANTA, GA with annual revenue of approximately $52M",
ECOG-ACRIN MEDICAL RESEARCH FOUNDATION INC,460745339,Health,1818 MARKET ST STE 3000,PHILADELPHIA,PA,19103-3658,,"Health organization in PHILADELPHIA, PA with annual revenue of approximately $52M",
VERMONT COMMUNITY FOUNDATION,222712160,Community,3 COURT ST,MIDDLEBURY,VT,05753-1405,,"Community organization in MIDDLEBURY, VT with annual revenue of approximately $52M",
AFFINIA HEALTHCARE,430817642,Other,1717 BIDDLE ST,SAINT LOUIS,MO,63106-3454,,"Other organization in SAINT LOUIS, MO with annual revenue of approximately $52M",
BRAZOS HIGHER EDUCATION AUTHORITY INC,742099402,Education,5609 CROSSLAKE PKWY,WACO,TX,76712-5500,,"Education organization in WACO, TX with annual revenue of approximately $52M",
ESCAMBIA COMMUNITY CLINICS INC,593105246,Health,2315 W JACKSON ST,PENSACOLA,FL,32505-7552,,"Health organization in PENSACOLA, FL with annual revenue of approximately $52M",
SELF HELP INC,042376180,Human Services,45 PEARL STREET,BROCKTON,MA,02301-2858,,"Human Services organization in BROCKTON, MA with annual revenue of approximately $52M",
THIEL COLLEGE,250965576,Education,75 COLLEGE AVE,GREENVILLE,PA,16125-2186,,"Education organization in GREENVILLE, PA with annual revenue of approximately $52M",
REHABILITATION HOSPITAL OF THE PACIFIC,510160156,Health,226 NORTH KUAKINI STREET,HONOLULU,HI,96817-2498,,"Health organization in HONOLULU, HI with annual revenue of approximately $52M",
FRASIER MEADOWS MANOR INC,840503809,Human Services,350 PONCA PLACE,BOULDER,CO,80303-3828,,"Human Services organization in BOULDER, CO with annual revenue of approximately $52M",
CARMEL RICHMOND NURSING HOME INC,132720248,Health,205 LEXINGTON AVENUE 3RD,NEW YORK,NY,10016-6053,,"Health organization in NEW YORK, NY with annual revenue of approximately $52M",
MCCULLOUGH-HYDE MEMORIAL HOSPITAL INCORPORATED,310650283,Health,625 EDEN PARK DR 7TH FLOOR,CINCINNATI,OH,45202-6005,,"Health organization in CINCINNATI, OH with annual revenue of approximately $52M",
CARING FOR DENVER FOUNDATION,834062522,Health,1035 OSAGE ST 8TH FLOOR SUITE 825,DENVER,CO,80204-4211,,"Health organization in DENVER, CO with annual revenue of approximately $52M",
EARLY LEARNING COALITION OF NORTH FLORIDA INC,593691819,Education,2450 OLD MOULTRIE RD STE 103,ST AUGUSTINE,FL,32086-3100,,"Education organization in ST AUGUSTINE, FL with annual revenue of approximately $52M",
SOCIETY OF PHOTO OPTICAL INSTRUMENTATION ENGINEER,952142678,Other,PO BOX 10,BELLINGHAM,WA,98227-0010,,"Other organization in BELLINGHAM, WA with annual revenue of approximately $52M",
AREA AGENCY ON AGING PLANNING AND SERVICE AREA 2,311361630,Human Services,40 W SECOND STREET SUITE 400,DAYTON,OH,45402-1873,,"Human Services organization in DAYTON, OH with annual revenue of approximately $52M",
NETWORK FOR HOPE INC,611122515,Other,10301 LINN STATION ROAD,LOUISVILLE,KY,40223-3843,,"Other organization in LOUISVILLE, KY with annual revenue of approximately $52M",
TFI FAMILY SERVICES INC,480806277,Human Services,PO BOX 2224,EMPORIA,KS,66801-2224,,"Human Services organization in EMPORIA, KS with annual revenue of approximately $52M",
HEALTHPARTNERS INSTITUTE,411670163,Health,PO BOX 1309,MINNEAPOLIS,MN,55440-1309,,"Health organization in MINNEAPOLIS, MN with annual revenue of approximately $52M",
BELOVED COMMUNITY CHARTER SCHOOL INC,453689749,Education,508 GRAND ST,JERSEY CITY,NJ,07302-4103,,"Education organization in JERSEY CITY, NJ with annual revenue of approximately $52M",
UNITED COMMUNITY CENTER INC,391146191,Human Services,1028 S 9TH ST,MILWAUKEE,WI,53204-1335,,"Human Services organization in MILWAUKEE, WI with annual revenue of approximately $52M",
CEDAR CREST COLLEGE,231365953,Education,100 COLLEGE DR,ALLENTOWN,PA,18104-6132,,"Education organization in ALLENTOWN, PA with annual revenue of approximately $52M",
TUFTS MEDICINE INTEGRATED NETWORK I NC,871600172,Health,800 DISTRICT AVE STE 520,BURLINGTON,MA,01803-5060,,"Health organization in BURLINGTON, MA with annual revenue of approximately $52M",
TAMPA GENERAL HOSPITAL FOUNDATION INC,237354477,Health,PO BOX 1289,TAMPA,FL,33601-1289,,"Health organization in TAMPA, FL with annual revenue of approximately $52M",
FOSTORIA HOSPITAL ASSOCIATION,340898745,Other,100 MADISON AVE,TOLEDO,OH,43604-1516,,"Other organization in TOLEDO, OH with annual revenue of approximately $52M",
UNIVERSITY OF NEVADA-RENO FOUNDATION,942781749,Education,1664 N VIRGINIA ST,RENO,NV,89557-0162,,"Education organization in RENO, NV with annual revenue of approximately $52M",
CAMINAR,941639389,Health,411 BOREL AVE STE 101,SAN MATEO,CA,94402-3525,,"Health organization in SAN MATEO, CA with annual revenue of approximately $52M",
MCLAREN THUMB REGION,381474929,Health,1100 S VAN DYKE RD,BAD AXE,MI,48413-9615,,"Health organization in BAD AXE, MI with annual revenue of approximately $52M",
ARIZONA CHRISTIAN UNIVERSITY,860186050,Education,1 W FIRESTORM WAY,GLENDALE,AZ,85306-3216,,"Education organization in GLENDALE, AZ with annual revenue of approximately $52M",
CATHOLIC CHARITIES OF SOUTHERN NEVADA,880059425,Human Services,1501 LAS VEGAS BLVD N,LAS VEGAS,NV,89101-1120,,"Human Services organization in LAS VEGAS, NV with annual revenue of approximately $52M",
ASSOCIATION FOR INDIVIDUAL DEVELOPMENT,362472748,Human Services,309 NEW INDIAN TRAIL CT,AURORA,IL,60506-2411,,"Human Services organization in AURORA, IL with annual revenue of approximately $52M",
CUMBERLAND REST HOME TRINITY TERRACE,750891470,Human Services,1600 TEXAS STREET,FORT WORTH,TX,76102-3400,,"Human Services organization in FORT WORTH, TX with annual revenue of approximately $52M",
FAMILY HEALTH CENTER OF MARSHFIELD INC,391681547,Health,1307 N SAINT JOSEPH AVE,MARSHFIELD,WI,54449-1340,,"Health organization in MARSHFIELD, WI with annual revenue of approximately $52M",
CHIMES INC,520575305,Human Services,4815 SETON DR,BALTIMORE,MD,21215-3211,,"Human Services organization in BALTIMORE, MD with annual revenue of approximately $52M",
MOAB VALLEY HEALTHCARE INC,870543342,Health,450 W WILLIAMS WAY,MOAB,UT,84532-2185,,"Health organization in MOAB, UT with annual revenue of approximately $52M",
AMERICAN FRIENDS OF THE TEL AVIV UNIVERSITY INC,131996126,International,8 W 40TH ST FL 8,NEW YORK,NY,10018-2275,,"International organization in NEW YORK, NY with annual revenue of approximately $52M",
FIDUCIARY CHARITABLE FOUNDATION,046649138,Community,CO FIDUCIARY TRUST CO PO BOX 558,BOSTON,MA,02205-0000,,"Community organization in BOSTON, MA with annual revenue of approximately $52M",
PEOPLE INCORPORATED,042447216,Human Services,4 S MAIN ST,FALL RIVER,MA,02721-5327,,"Human Services organization in FALL RIVER, MA with annual revenue of approximately $52M",
SECOND HARVEST OF THE GREATER VALLEY,680376587,Community,1220 VANDERBILT CIR,MANTECA,CA,95337-6123,,"Community organization in MANTECA, CA with annual revenue of approximately $52M",
NEW ENGLAND DEACONESS ASSOCIATION,042104763,Health,80 DEACONESS ROAD,CONCORD,MA,01742-4168,,"Health organization in CONCORD, MA with annual revenue of approximately $52M",
TRELLIS CO,411699606,Human Services,614 N 1ST ST STE 100,MINNEAPOLIS,MN,55401-3101,,"Human Services organization in MINNEAPOLIS, MN with annual revenue of approximately $52M",
HOPE SERVICES,941399287,Human Services,30 LAS COLINAS LN,SAN JOSE,CA,95119-1212,,"Human Services organization in SAN JOSE, CA with annual revenue of approximately $52M",
COMMONBOND COMMUNITIES,411260469,Other,1080 MONTREAL AVE,ST PAUL,MN,55116-2694,,"Other organization in ST PAUL, MN with annual revenue of approximately $52M",
LIFESERVE BLOOD CENTER,272092557,Health,5625 NW JOHNSTON DR,JOHNSTON,IA,50131-1374,,"Health organization in JOHNSTON, IA with annual revenue of approximately $52M",
PROJECT HOSPITALITY INC,133234441,Other,100 PARK AVE,STATEN ISLAND,NY,10302-1440,,"Other organization in STATEN ISLAND, NY with annual revenue of approximately $52M",
JOSEPH P ADDABBO FAMILY HEALTH CENTER INC,061181226,Other,6200 BEACH CHANNEL DR,ARVERNE,NY,11692-1409,,"Other organization in ARVERNE, NY with annual revenue of approximately $52M",
MENTAL HEALTH CENTER OF BOULDER COUNTY INC,840520493,Health,1455 DIXON AVE,LAFAYETTE,CO,80026-8879,,"Health organization in LAFAYETTE, CO with annual revenue of approximately $52M",
CARLINVILLE AREA HOSPITAL ASSOCATION,370645239,Health,20733 N BROAD ST,CARLINVILLE,IL,62626-3710,,"Health organization in CARLINVILLE, IL with annual revenue of approximately $52M",
UNIVERSIDAD POLITECNICA DE PUERTO RICO INC,660362666,Education,PO BOX 192017,SAN JUAN,PR,00919-2017,,"Education organization in SAN JUAN, PR with annual revenue of approximately $52M",
PILLAR CARE CONTINUUM INC,226069076,Health,120 EAGLE ROCK AVE STE 290,EAST HANOVER,NJ,07936-3168,,"Health organization in EAST HANOVER, NJ with annual revenue of approximately $52M",
STEVENS COMMUNITY MEDICAL CENTER INC,363311936,Health,400 E 1ST ST,MORRIS,MN,56267-1408,,"Health organization in MORRIS, MN with annual revenue of approximately $52M",
GOODWILL INDUSTRIES OF FORT WORTH INC,750868393,Human Services,4200 AIRPORT FRWY,FORT WORTH,TX,76117-6262,,"Human Services organization in FORT WORTH, TX with annual revenue of approximately $52M",
LESLIE KNOTT LETCHER PERRY COMMUNITY ACTION COUNCIL,610661299,Other,398 ROY CAMPBELL DR,HAZARD,KY,41701-9486,,"Other organization in HAZARD, KY with annual revenue of approximately $52M",
EMERSON PRACTICE ASSOCIATES INC,043111240,Health,133 OLD ROAD TO NINE ACRE CORNER,CONCORD,MA,01742-0000,,"Health organization in CONCORD, MA with annual revenue of approximately $52M",
WALTON ARTS CENTER COUNCIL INC,710647212,Arts & Culture,255 N SCHOOL AVE,FAYETTEVILLE,AR,72701-5134,,"Arts & Culture organization in FAYETTEVILLE, AR with annual revenue of approximately $52M",
GARDEN SPOT VILLAGE,232640814,Human Services,433 S KINZER AVE,NEW HOLLAND,PA,17557-8736,,"Human Services organization in NEW HOLLAND, PA with annual revenue of approximately $52M",
UNION COMMUNITY HEALTH CENTER INC,134074478,Health,260 E 188TH ST,BRONX,NY,10458-5302,,"Health organization in BRONX, NY with annual revenue of approximately $52M",
HR PHYSICIAN SERVICES,232696460,Health,1648 HUNTINGDON PIKE,MEADOWBROOK,PA,19046-8001,,"Health organization in MEADOWBROOK, PA with annual revenue of approximately $52M",
CRESCENT VALLEY PUBLIC CHARTER,481272886,Education,177 HOLSTON DR,LANCASTER,CA,93535-4570,,"Education organization in LANCASTER, CA with annual revenue of approximately $52M",
MENTAL HEALTH CARE INC,590747306,Health,5707 N 22ND ST,TAMPA,FL,33610-4350,,"Health organization in TAMPA, FL with annual revenue of approximately $52M",
GOODWILL INDUSTRIES OF MICHIANA INC,351093073,Human Services,1805 W WESTERN AVE,SOUTH BEND,IN,46619-3519,,"Human Services organization in SOUTH BEND, IN with annual revenue of approximately $52M",
CONCORDIA VISITING NURSES,421704067,Health,613 N PIKE RD,CABOT,PA,16023-2215,,"Health organization in CABOT, PA with annual revenue of approximately $52M",
WARREN WILSON COLLEGE,560767736,Education,701 WARREN WILSON RD,SWANNANOA,NC,28778-2042,,"Education organization in SWANNANOA, NC with annual revenue of approximately $52M",
OCCUPATIONAL TRAINING CENTER OF BURLINGTON COUNTY INC,221735360,Human Services,2 MANHATTAN DR,BURLINGTON,NJ,08016-4120,,"Human Services organization in BURLINGTON, NJ with annual revenue of approximately $52M",
AMERICAN SOCIETY OF ANESTHESIOLOGISTS,362181944,Other,1061 AMERICAN LN,SCHAUMBURG,IL,60173-4973,,"Other organization in SCHAUMBURG, IL with annual revenue of approximately $52M",
STRATEGIC RESOURCE GROUP INC,330780945,Religion,539 W COMMERCE ST 8100,DALLAS,TX,75208-1953,,"Religion organization in DALLAS, TX with annual revenue of approximately $52M",
EASTER SEALS NEW JERSEY INC,221508591,Health,241 FORSGATE DR STE 200,JAMESBURG,NJ,08831-1385,,"Health organization in JAMESBURG, NJ with annual revenue of approximately $52M",
FOUNDCARE INC,542083748,Health,2330 S CONGRESS AVE,WEST PALM BCH,FL,33406-7608,,"Health organization in WEST PALM BCH, FL with annual revenue of approximately $52M",
UNIVERSITY OF VIRGINIA LAW SCHOOL FOUNDATION,540838566,Education,580 MASSIE RD,CHARLOTTESVLE,VA,22903-1738,,"Education organization in CHARLOTTESVLE, VA with annual revenue of approximately $52M",
CHILDRENS HEALTHCARE OF CALIFORNIA,330265266,Health,1201 W LA VETA AVE,ORANGE,CA,92868-4203,,"Health organization in ORANGE, CA with annual revenue of approximately $52M",
THE LOS ANGELES FREE CLINIC,952539105,Health,8405 BEVERLY BLVD,LOS ANGELES,CA,90048-3401,,"Health organization in LOS ANGELES, CA with annual revenue of approximately $52M",
AMERICAN FARMLAND TRUST,521190211,Human Services,2000 PENNSYLVANIA AVE NW STE 5005,WASHINGTON,DC,20006-1941,,"Human Services organization in WASHINGTON, DC with annual revenue of approximately $52M",
DETROIT RIVERFRONT CONSERVANCY INC,300125283,Human Services,600 REN CTR STE 1720,DETROIT,MI,48243-0000,,"Human Services organization in DETROIT, MI with annual revenue of approximately $52M",
P16PLUS COUNCIL OF GREATER BEXAR COUNTY FOUNDATION INC,800174484,Education,11103 WEST AVE STE 2101,SAN ANTONIO,TX,78213-1694,,"Education organization in SAN ANTONIO, TX with annual revenue of approximately $52M",
CLINICA MSR OSCAR A ROMERO,953881333,Health,123 S ALVARADO ST,LOS ANGELES,CA,90057-2201,,"Health organization in LOS ANGELES, CA with annual revenue of approximately $52M",
SOCIETY OF ST VINCENT DE PAUL SOUTH PINELLAS INC,592380770,Human Services,384 15TH ST N,ST PETERSBURG,FL,33705-2016,,"Human Services organization in ST PETERSBURG, FL with annual revenue of approximately $52M",
PACE IOWA,273635343,Health,1044 N 115TH ST STE 500,OMAHA,NE,68154-4410,,"Health organization in OMAHA, NE with annual revenue of approximately $52M",
MID-AMERICA NAZARENE UNIVERSITY,480730814,Education,2030 E COLLEGE WAY,OLATHE,KS,66062-1851,,"Education organization in OLATHE, KS with annual revenue of approximately $52M",
CALIFORNIA VIRTUAL ACADEMY-SAN DIEGO,223871537,Education,50 MORELAND RD,SIMI VALLEY,CA,93065-1659,,"Education organization in SIMI VALLEY, CA with annual revenue of approximately $52M",
SOUTHEAST INC,310940189,Health,16 W LONG ST,COLUMBUS,OH,43215-2815,,"Health organization in COLUMBUS, OH with annual revenue of approximately $52M",
WOODBURY UNIVERSITY,952786163,Education,7500 N GLENOAKS BLVD,BURBANK,CA,91504-1052,,"Education organization in BURBANK, CA with annual revenue of approximately $52M",
BAPTIST RETIREMENT HOMES OF NORTH CAROLINA INCORPORATED,560562308,Human Services,PO BOX 11024,WINSTON SALEM,NC,27116-1024,,"Human Services organization in WINSTON SALEM, NC with annual revenue of approximately $52M",
OUR LADY OF CONSOLATION NURSING & REHABILITATIVE CARE CENTER,113284066,Health,111 BEACH DR,WEST ISLIP,NY,11795-4929,,"Health organization in WEST ISLIP, NY with annual revenue of approximately $52M",
UNIVERSITY OF MARYLAND BALTIMORE FOUNDATION INC,311678679,Education,220 ARCH ST,BALTIMORE,MD,21201-1531,,"Education organization in BALTIMORE, MD with annual revenue of approximately $52M",
STEPHEN F AUSTIN COMMUNITY HEALTH CENTER INC,412273820,Health,1111 W ADOUE ST,ALVIN,TX,77511-2718,,"Health organization in ALVIN, TX with annual revenue of approximately $52M",
SHADY SIDE ACADEMY,250965561,Education,423 FOX CHAPEL RD,PITTSBURGH,PA,15238-2247,,"Education organization in PITTSBURGH, PA with annual revenue of approximately $51M",
ROYAL CHARTER PROPERTIES INC,133158502,Other,525 EAST 68TH STREET BOX 156,NEW YORK,NY,10065-4870,,"Other organization in NEW YORK, NY with annual revenue of approximately $51M",
LAUREATE PSYCHIATRIC CLINIC AND HOSPITAL INC,731308273,Health,6600 S YALE AVE STE 400,TULSA,OK,74136-3319,,"Health organization in TULSA, OK with annual revenue of approximately $51M",
FOOD IN NEED OF DISTRIBUTION INC,330006007,Human Services,83775 CITRUS AVE,INDIO,CA,92201-3456,,"Human Services organization in INDIO, CA with annual revenue of approximately $51M",
PLANNED PARENTHOOD OF ILLINOIS,362170901,Health,17 N STATE ST STE 500,CHICAGO,IL,60602-3384,,"Health organization in CHICAGO, IL with annual revenue of approximately $51M",
LUTHERAN RETIREMENT MINISTRIES OF ALAMANCE COUNTY NORTH CAROLINA,561270984,Human Services,3701 WADE COBLE DR,BURLINGTON,NC,27215-9743,,"Human Services organization in BURLINGTON, NC with annual revenue of approximately $51M",
RSF SOCIAL FINANCE INC,136082763,Research,PO BOX 2007,SAN FRANCISCO,CA,94126-2007,,"Research organization in SAN FRANCISCO, CA with annual revenue of approximately $51M",
ACDS INC,237175975,Other,4 FERN PL,PLAINVIEW,NY,11803-4725,,"Other organization in PLAINVIEW, NY with annual revenue of approximately $51M",
BEAUMONT RETIREMENT SERVICES INC,232324586,Human Services,601 N ITHAN AVE,BRYN MAWR,PA,19010-1782,,"Human Services organization in BRYN MAWR, PA with annual revenue of approximately $51M",
NYSARC INC MONTGOMERY COUNTY CHAPTER,141506257,Human Services,43 LIBERTY DR,AMSTERDAM,NY,12010-5635,,"Human Services organization in AMSTERDAM, NY with annual revenue of approximately $51M",
SECOND HARVEST FOODBANK OF SOUTHERN WISCONSIN,391490691,Human Services,2802 DAIRY DR,MADISON,WI,53718-6751,,"Human Services organization in MADISON, WI with annual revenue of approximately $51M",
MENS HEALTH FOUNDATION,470989142,Health,9220 WEST SUNSET BLVD,LOS ANGELES,CA,90069-3501,,"Health organization in LOS ANGELES, CA with annual revenue of approximately $51M",
FOOD BANK OF THE RIO GRANDE VALLEY INC,742421560,Other,PO BOX 6251,MCALLEN,TX,78502-6251,,"Other organization in MCALLEN, TX with annual revenue of approximately $51M",
SISTERS OF SAINT ANN ANNA MARIA COLLEGE,042002060,Education,50 SUNSET LN,PAXTON,MA,01612-1106,,"Education organization in PAXTON, MA with annual revenue of approximately $51M",
CENTER THEATRE GROUP OF LOS ANGELES,952466183,Arts & Culture,601 W TEMPLE ST,LOS ANGELES,CA,90012-2621,,"Arts & Culture organization in LOS ANGELES, CA with annual revenue of approximately $51M",
COMMUNITY ACCESS INC,237399839,Health,85 BROAD ST 17TH FLOOR,NEW YORK,NY,10004-2783,,"Health organization in NEW YORK, NY with annual revenue of approximately $51M",
RHG NORTH CAROLINA MR INC,581804051,Other,3350 RIVERWOOD PKWY 100 BLDG 800,ATLANTA,GA,30339-3351,,"Other organization in ATLANTA, GA with annual revenue of approximately $51M",
DENVER RESCUE MISSION,846038762,Human Services,6100 SMITH RD,DENVER,CO,80216-4631,,"Human Services organization in DENVER, CO with annual revenue of approximately $51M",
LAKE CUMBERLAND REGIONAL MENTAL HEALTH-MENTAL RETARDATION BOARD IN,610666065,Health,130 SOUTHERN SCHOOL RD,SOMERSET,KY,42501-3223,,"Health organization in SOMERSET, KY with annual revenue of approximately $51M",
AMERICAN CHARTER SCHOOLS FOUNDATION,383463353,Education,6150 N 16TH ST STE A,PHOENIX,AZ,85016-1774,,"Education organization in PHOENIX, AZ with annual revenue of approximately $51M",
TWIN CITIES PUBLIC TELEVISION INC,410769851,Arts & Culture,172 4TH ST E,SAINT PAUL,MN,55101-1492,,"Arts & Culture organization in SAINT PAUL, MN with annual revenue of approximately $51M",
RIVERVALLEY BEHAVIORAL HEALTH INC,610668290,Health,PO BOX 1637,OWENSBORO,KY,42302-1637,,"Health organization in OWENSBORO, KY with annual revenue of approximately $51M",
UNITY MEDICAL CENTER INC,825388429,Health,481 INTERSTATE DR,MANCHESTER,TN,37355-3108,,"Health organization in MANCHESTER, TN with annual revenue of approximately $51M",
CENTRAL COLLEGE,420680344,Education,812 UNIVERSITY ST,PELLA,IA,50219-1902,,"Education organization in PELLA, IA with annual revenue of approximately $51M",
BEN ARCHER HEALTH CENTER,510158976,Health,PO BOX 370,HATCH,NM,87937-0370,,"Health organization in HATCH, NM with annual revenue of approximately $51M",
LEGAL AID OF NORTH CAROLINA INC,311784161,Human Services,224 S DAWSON ST,RALEIGH,NC,27601-1306,,"Human Services organization in RALEIGH, NC with annual revenue of approximately $51M",
NETWORK RECOVERY SERVICES INC,113160901,Other,100 JERICHO QUAD STE 202,JERICHO,NY,11753-2702,,"Other organization in JERICHO, NY with annual revenue of approximately $51M",
UNIVERSITY AT BUFFALO NEUROSURGERY INC,030445678,Health,40 GEORGE KARL BOULEVARD,BUFFALO,NY,14221-7183,,"Health organization in BUFFALO, NY with annual revenue of approximately $51M",
PANDA CARES FOUNDATION INC,812094929,Education,1120 N TOWN CENTER DR STE 150,LAS VEGAS,NV,89144-6303,,"Education organization in LAS VEGAS, NV with annual revenue of approximately $51M",
CHESTER RIVER HOSPITAL CENTER,520679694,Health,900 ELKRIDGE LANDING RD 3W,LINTHICUM HEIGHTS,MD,21090-2924,,"Health organization in LINTHICUM HEIGHTS, MD with annual revenue of approximately $51M",
HOSPICE BY THE SEA INC,591952942,Other,5300 EAST AVE,WEST PALM BCH,FL,33407-2387,,"Other organization in WEST PALM BCH, FL with annual revenue of approximately $51M",
JAEB CENTER FOR HEALTH RESEARCH INC,593187624,Other,15310 AMBERLY DR STE 350,TAMPA,FL,33647-1642,,"Other organization in TAMPA, FL with annual revenue of approximately $51M",
AFRICAN PARKS FOUNDATION OF AMERICA,300241904,Human Services,2020 PENNSYLVANIA AVE NW,WASHINGTON,DC,20006-1811,,"Human Services organization in WASHINGTON, DC with annual revenue of approximately $51M",
JAWONIO INC,131761660,Human Services,260 N LITTLE TOR RD,NEW CITY,NY,10956-2627,,"Human Services organization in NEW CITY, NY with annual revenue of approximately $51M",
COMMUNITY RESIDENCE INC,061175089,Human Services,50 ROCKWELL RD,NEWINGTON,CT,06111-5526,,"Human Services organization in NEWINGTON, CT with annual revenue of approximately $51M",
COREWELL HEALTH,381411184,Health,100 MICHIGAN ST NE,GRAND RAPIDS,MI,49503-2560,,"Health organization in GRAND RAPIDS, MI with annual revenue of approximately $51M",
MARS HILL UNIVERSITY,560554207,Education,100 ATHLETIC ST,MARS HILL,NC,28754-9134,,"Education organization in MARS HILL, NC with annual revenue of approximately $51M",
LIVING RESOURCES CORP,141564208,Human Services,300 WASHINGTON AVENUE EXT,ALBANY,NY,12203-7303,,"Human Services organization in ALBANY, NY with annual revenue of approximately $51M",
GEORGIA STATE UNIVERSITY FOUNDATION INC,586033185,Education,PO BOX 2668,ATLANTA,GA,30301-2668,,"Education organization in ATLANTA, GA with annual revenue of approximately $51M",
