name,ein,category,address,city,state,zip_code,website,description,phone
EASTER SEALS SOUTHERN CALIFORNIA INC,943068149,Other,1063 MCGAW AVE STE 100,IRVINE,CA,92614-5554,,"Other organization in IRVINE, CA with annual revenue of approximately $535M",
CHRISTUS HEALTH SOUTHEAST TEXAS,760591590,Health,2830 CALDER ST,BEAUMONT,TX,77702-1809,,"Health organization in BEAUMONT, TX with annual revenue of approximately $533M",
SANDHILLS CENTER FOR MENTAL HEALTH DEVELOPMENTAL DISABILITIES & SUBST,560789563,Health,1100 7 LAKES DR,WEST END,NC,27376-9082,,"Health organization in WEST END, NC with annual revenue of approximately $532M",
BAKERRIPLEY,237062976,Human Services,4450 HARRISBURG BLVD,HOUSTON,TX,77011-4014,,"Human Services organization in HOUSTON, TX with annual revenue of approximately $532M",
COMMONWEALTH CHARTER ACADEMY CHARTER SCHOOL,743068519,Education,1 INNOVATION WAY,HARRISBURG,PA,17110-1171,,"Education organization in HARRISBURG, PA with annual revenue of approximately $531M",
STANFORD HEALTH CARE TRI-VALLEY,941429628,Health,1111 E STANLEY BLVD,LIVERMORE,CA,94550-4115,,"Health organization in LIVERMORE, CA with annual revenue of approximately $531M",
GROUP HEALTH COOPERATIVE OF SOUTH CENTRAL WI,391199466,Health,PO BOX 44971,MADISON,WI,53744-4971,,"Health organization in MADISON, WI with annual revenue of approximately $531M",
LEHIGH VALLEY HOSPITAL POCONO,240795623,Health,PO BOX 4000,ALLENTOWN,PA,18105-4000,,"Health organization in ALLENTOWN, PA with annual revenue of approximately $531M",
TIFT REGIONAL HEALTH SYSTEM INC,453072990,Health,901 18TH ST E,TIFTON,GA,31794-3648,,"Health organization in TIFTON, GA with annual revenue of approximately $531M",
HOMESTEAD HOSPITAL INC,650232993,Health,975 BAPTIST WAY,HOMESTEAD,FL,33033-7600,,"Health organization in HOMESTEAD, FL with annual revenue of approximately $529M",
MAIN LINE HEALTHCARE,232359401,Health,240 N RADNOR CHESTER RD STE170,RADNOR,PA,19087-5170,,"Health organization in RADNOR, PA with annual revenue of approximately $527M",
GENESIS HEALTHCARE SYSTEM,310885513,Other,1135 MAPLE AVE,ZANESVILLE,OH,43701-0000,,"Other organization in ZANESVILLE, OH with annual revenue of approximately $527M",
COMMUNITY MEDICAL CENTER,240862246,Health,100 N ACADEMY AVE MC 49-70,DANVILLE,PA,17822-9800,,"Health organization in DANVILLE, PA with annual revenue of approximately $527M",
SENTARA RMH MEDICAL CENTER,540506331,Health,2010 HEALTH CAMPUS DR,ROCKINGHAM,VA,22801-8679,,"Health organization in ROCKINGHAM, VA with annual revenue of approximately $527M",
UNIVERSITY OF THE PACIFIC,941156266,Education,3601 PACIFIC AVE,STOCKTON,CA,95211-0110,,"Education organization in STOCKTON, CA with annual revenue of approximately $526M",
ADVOCATE SHERMAN HOSPITAL,362167920,Health,3075 HIGHLAND PKWY FL 6,DOWNERS GROVE,IL,60515-5563,,"Health organization in DOWNERS GROVE, IL with annual revenue of approximately $526M",
WHEELING HOSPITAL INC,550357057,Health,1 MEDICAL PARK,WHEELING,WV,26003-6379,,"Health organization in WHEELING, WV with annual revenue of approximately $524M",
PROVIDENCE HEALTH & SERVICES MT,810231793,Health,PO BOX 389672,SEATTLE,WA,98138-9672,,"Health organization in SEATTLE, WA with annual revenue of approximately $524M",
CATHOLIC MEDICAL CENTER,020315693,Health,100 MCGREGOR ST,MANCHESTER,NH,03102-3770,,"Health organization in MANCHESTER, NH with annual revenue of approximately $524M",
UNIVERSITY OF MINNESOTA FOUNDATION,416042488,Education,200 OAK ST SE STE 500,MINNEAPOLIS,MN,55455-2010,,"Education organization in MINNEAPOLIS, MN with annual revenue of approximately $524M",
BELMONT UNIVERSITY,620465076,Education,1900 BELMONT BLVD,NASHVILLE,TN,37212-3758,,"Education organization in NASHVILLE, TN with annual revenue of approximately $523M",
TANNER MEDICAL CENTER,800785570,Health,705 DIXIE ST,CARROLLTON,GA,30117-3818,,"Health organization in CARROLLTON, GA with annual revenue of approximately $522M",
HAMILTON MEDICAL CENTER INC,581519911,Health,PO BOX 1168,DALTON,GA,30722-1168,,"Health organization in DALTON, GA with annual revenue of approximately $522M",
HILLCREST BAPTIST MEDICAL CENTER,741161944,Health,301 N WASHINGTON AVE,DALLAS,TX,75246-1754,,"Health organization in DALLAS, TX with annual revenue of approximately $521M",
CENTRO DE SALUD DE LA COMUNIDAD DE SAN YSIDRO INC,952801772,Health,1601 PRECISION PARK LN,SAN DIEGO,CA,92173-1345,,"Health organization in SAN DIEGO, CA with annual revenue of approximately $521M",
COOK CHILDRENS PHYSICIAN NETWORK,752485366,Health,801 7TH AVE,FORT WORTH,TX,76104-2733,,"Health organization in FORT WORTH, TX with annual revenue of approximately $521M",
AGNESIAN HEALTHCARE INC,390807236,Health,12800 CORPORATE HILL DR,SAINT LOUIS,MO,63131-1833,,"Health organization in SAINT LOUIS, MO with annual revenue of approximately $521M",
PRESIDENT & FELLOWS OF MIDDLEBURY COLLEGE,030179298,Education,152 MAPLE STREET CONTROLLERS O,MIDDLEBURY,VT,05753-1370,,"Education organization in MIDDLEBURY, VT with annual revenue of approximately $520M",
CHAMBERSBURG HOSPITAL,230465970,Health,PO BOX 2767,YORK,PA,17405-2767,,"Health organization in YORK, PA with annual revenue of approximately $520M",
NORTHERN WESTCHESTER HOSPITAL ASSOCIATION,131740118,Health,972 BRUSH HOLLOW RD 5TH FL,WESTBURY,NY,11590-1740,,"Health organization in WESTBURY, NY with annual revenue of approximately $519M",
PARKVIEW MEDICAL CENTER INC,840935136,Health,400 W 16TH ST,PUEBLO,CO,81003-2745,,"Health organization in PUEBLO, CO with annual revenue of approximately $518M",
MARIETTA MEMORIAL HOSPITAL,314379509,Health,401 MATTHEW ST,MARIETTA,OH,45750-1635,,"Health organization in MARIETTA, OH with annual revenue of approximately $518M",
VALLEY PRESBYTERIAN HOSPITAL,951945832,Health,15107 VANOWEN ST,VAN NUYS,CA,91405-4542,,"Health organization in VAN NUYS, CA with annual revenue of approximately $517M",
MCLAREN GREATER LANSING,381434090,Health,2900 COLLINS RD,LANSING,MI,48910-8394,,"Health organization in LANSING, MI with annual revenue of approximately $516M",
ST MARYS HOSPITAL AND MEDICAL CENTER INC,840425720,Health,36 S STATE ST STE 2200,SALT LAKE CTY,UT,84111-1470,,"Health organization in SALT LAKE CTY, UT with annual revenue of approximately $515M",
ST ANTHONYS HOSPITAL INC,592043026,Health,1200 7TH AVE N,ST PETERSBURG,FL,33705-1300,,"Health organization in ST PETERSBURG, FL with annual revenue of approximately $515M",
UNIVERSITY OF ST THOMAS,410693970,Education,2115 SUMMIT AVENUE AQU 202,SAINT PAUL,MN,55105-1048,,"Education organization in SAINT PAUL, MN with annual revenue of approximately $513M",
CENTRAL MAINE MEDICAL CENTER,010211494,Health,PO BOX 4500,LEWISTON,ME,04243-4500,,"Health organization in LEWISTON, ME with annual revenue of approximately $513M",
NATIONAL FISH AND WILDLIFE FOUNDATION,521384139,Health,1625 EYE STREET NW 300,WASHINGTON,DC,20006-4093,,"Health organization in WASHINGTON, DC with annual revenue of approximately $513M",
SAINT THOMAS RUTHERFORD HOSPITAL,620475842,Health,PO BOX 45998,SAINT LOUIS,MO,63145-5998,,"Health organization in SAINT LOUIS, MO with annual revenue of approximately $512M",
CENTRAL ARKANSAS RADIATION THERAPY INSTITUTE INC,710437657,Health,8901 CARTI WAY,LITTLE ROCK,AR,72205-6523,,"Health organization in LITTLE ROCK, AR with annual revenue of approximately $512M",
HENRY MAYO NEWHALL MEMORIAL HOSPITAL,952821104,Health,23845 MCBEAN PKWY,VALENCIA,CA,91355-2001,,"Health organization in VALENCIA, CA with annual revenue of approximately $512M",
JOHN D ARCHBOLD MEMORIAL HOSPITAL INC,580566121,Health,PO BOX 1018,THOMASVILLE,GA,31799-1018,,"Health organization in THOMASVILLE, GA with annual revenue of approximately $511M",
GLOBAL HEALTH SOLUTIONS INC,203674498,Health,330 W PONCE DE LEON AVE,DECATUR,GA,30030-2439,,"Health organization in DECATUR, GA with annual revenue of approximately $511M",
COVENANT MEDICAL CENTER,822913146,Health,3615 19TH ST,LUBBOCK,TX,79410-1203,,"Health organization in LUBBOCK, TX with annual revenue of approximately $510M",
UNIVERSITY OF CALIFORNIA BERKELEY FOUNDATION,946090626,Education,1995 UNIVERSITY AVE 401,BERKELEY,CA,94704-1058,,"Education organization in BERKELEY, CA with annual revenue of approximately $509M",
RENAISSANCE CHARTER SCHOOL INC,650864257,Education,800 CORPORATE DR STE 124,FT LAUDERDALE,FL,33334-3618,,"Education organization in FT LAUDERDALE, FL with annual revenue of approximately $508M",
LEGACY GOOD SAMARITAN HOSPITAL AND MEDICAL CENTER PAYROLL DEPT,930386793,Health,1015 NW 22ND AVE,PORTLAND,OR,97210-3025,,"Health organization in PORTLAND, OR with annual revenue of approximately $508M",
HIGH POINT REGIONAL HEALTH,560532309,Health,PO BOX HP5,HIGH POINT,NC,27261-1899,,"Health organization in HIGH POINT, NC with annual revenue of approximately $508M",
CHESTER COUNTY HOSPITAL,230469150,Health,701 E MARSHALL ST,WEST CHESTER,PA,19380-4412,,"Health organization in WEST CHESTER, PA with annual revenue of approximately $507M",
UNITED REGIONAL HEALTH CARE SYSTEM INC,751912147,Health,1600 11TH ST,WICHITA FALLS,TX,76301-4321,,"Health organization in WICHITA FALLS, TX with annual revenue of approximately $506M",
LEGACY HEALTH,237426300,Health,1919 NW LOVEJOY ST,PORTLAND,OR,97209-1503,,"Health organization in PORTLAND, OR with annual revenue of approximately $506M",
JEFFERSON UNIVERSITY PHYSICIANS,232809585,Education,1101 MARKET STREET SUITE 2004,PHILADELPHIA,PA,19107-2934,,"Education organization in PHILADELPHIA, PA with annual revenue of approximately $505M",
MICHAEL J FOX FOUNDATION FOR PARKINSONS RESEARCH,134141945,Health,PO BOX 4777,NEW YORK,NY,10163-4777,,"Health organization in NEW YORK, NY with annual revenue of approximately $505M",
YOUNG LIFE,840385934,Human Services,420 N CASCADE AVE,COLORADO SPGS,CO,80903-3325,,"Human Services organization in COLORADO SPGS, CO with annual revenue of approximately $505M",
PAYPAL CHARITABLE GIVING FUND,450931286,Community,1250 I ST NW STE 1202,WASHINGTON,DC,20005-3935,,"Community organization in WASHINGTON, DC with annual revenue of approximately $504M",
CENTER FOR SUSTAINABLE ENERGY,330936366,Environment,3980 SHERMAN ST STE 170,SAN DIEGO,CA,92110-4314,,"Environment organization in SAN DIEGO, CA with annual revenue of approximately $502M",
CAN COMMUNITY HEALTH INC,650278528,Health,9040 TOWN CENTER PKWY STE 200,LAKEWOOD RCH,FL,34202-5203,,"Health organization in LAKEWOOD RCH, FL with annual revenue of approximately $502M",
BRANDEIS UNIVERSITY,042103552,Education,415 SOUTH ST MSC 110,WALTHAM,MA,02453-2728,,"Education organization in WALTHAM, MA with annual revenue of approximately $502M",
SOUTHWEST LOUISIANA HOSPITAL ASSOCIATION INC,720551963,Health,1701 OAK PARK BLVD,LAKE CHARLES,LA,70601-8911,,"Health organization in LAKE CHARLES, LA with annual revenue of approximately $502M",
ST JOSEPH REGIONAL HEALTH CENTER,741282696,Health,2801 FRANCISCAN DR,BRYAN,TX,77802-2544,,"Health organization in BRYAN, TX with annual revenue of approximately $502M",
TANNER MEDICAL CENTER INC,581790149,Health,705 DIXIE ST,CARROLLTON,GA,30117-3818,,"Health organization in CARROLLTON, GA with annual revenue of approximately $501M",
LAWRENCE AND MEMORIAL HOSPITAL INC,060646704,Health,365 MONTAUK AVE,NEW LONDON,CT,06320-4700,,"Health organization in NEW LONDON, CT with annual revenue of approximately $501M",
ROCKEFELLER UNIVERSITY,131624158,Education,1230 YORK AVE,NEW YORK,NY,10065-6307,,"Education organization in NEW YORK, NY with annual revenue of approximately $501M",
ST LUKES HOSPITAL ANDERSON CAMPUS,454394739,Health,1110 ST LUKES WAY,ALLENTOWN,PA,18109-9153,,"Health organization in ALLENTOWN, PA with annual revenue of approximately $499M",
SOMERSET ACADEMY INC,311569428,Education,4802 VANCE JACKSON RD,SAN ANTONIO,TX,78230-5259,,"Education organization in SAN ANTONIO, TX with annual revenue of approximately $498M",
UNIVERSITY OF RICHMOND,540505965,Education,110 UR DR,RICHMOND,VA,23173-0008,,"Education organization in RICHMOND, VA with annual revenue of approximately $498M",
DUBOIS REGIONAL MEDICAL CENTER,251490707,Health,204 HOSPITAL AVE,DU BOIS,PA,15801-1442,,"Health organization in DU BOIS, PA with annual revenue of approximately $498M",
ST VINCENTS BIRMINGHAM,630288864,Health,500 22ND STREET SOUTH SUITE 408,BIRMINGHAM,AL,35233-3110,,"Health organization in BIRMINGHAM, AL with annual revenue of approximately $497M",
YAVAPAI COMMUNITY HOSPITAL ASSOCIATION,860098923,Health,1003 WILLOW CREEK RD,PRESCOTT,AZ,86301-1641,,"Health organization in PRESCOTT, AZ with annual revenue of approximately $497M",
UNITED STATES OLYMPIC & PARALYMPIC COMMITTEE,131548339,Human Services,1 OLYMPIC PLAZA,COLORADO SPRINGS,CO,80909-5780,,"Human Services organization in COLORADO SPRINGS, CO with annual revenue of approximately $496M",
TEXAS SCOTTISH RITE HOSPITAL FOR CHILDREN,750818178,Health,2222 WELBORN ST,DALLAS,TX,75219-3924,,"Health organization in DALLAS, TX with annual revenue of approximately $496M",
IOWA HEALTH SYSTEM,421435199,Health,1776 WESTLAKES PKWY STE 400,WDM,IA,50266-8393,,"Health organization in WDM, IA with annual revenue of approximately $495M",
BALTIMORE WASHINGTON MEDICAL CENTER INC,520689917,Health,900 ELKRIDGE LANDING RD 3W,LINTHICUM HEIGHTS,MD,21090-2924,,"Health organization in LINTHICUM HEIGHTS, MD with annual revenue of approximately $494M",
ST AGNES HEALTHCARE INC,520591657,Health,PO BOX 45998,SAINT LOUIS,MO,63145-5998,,"Health organization in SAINT LOUIS, MO with annual revenue of approximately $494M",
DEVEREUX FOUNDATION,231390618,Health,444 DEVEREUX DR,VILLANOVA,PA,19085-1932,,"Health organization in VILLANOVA, PA with annual revenue of approximately $494M",
CHRONIC DISEASE FUND INC,611462062,Health,2611 INTERNET BLVD STE 105,FRISCO,TX,75034-9094,,"Health organization in FRISCO, TX with annual revenue of approximately $493M",
THE BIG 12 CONFERENCE INC,752604555,Education,5215 N O CONNOR BLVD SUITE 1650,IRVING,TX,75039-3713,,"Education organization in IRVING, TX with annual revenue of approximately $493M",
ART INSTITUTE OF CHICAGO,362167725,Education,111 S MICHIGAN AVE,CHICAGO,IL,60603-6110,,"Education organization in CHICAGO, IL with annual revenue of approximately $493M",
MUSCULOSKELETAL TRANSPLANT FOUNDATION INC,222803458,Health,125 MAY ST,EDISON,NJ,08837-3264,,"Health organization in EDISON, NJ with annual revenue of approximately $493M",
AUGUSTA HEALTH CARE INC,541453954,Health,78 MEDICAL CENTER DR,FISHERSVILLE,VA,22939-2332,,"Health organization in FISHERSVILLE, VA with annual revenue of approximately $491M",
SUTTER VISITING NURSE ASSOCIATION AND HOSPICE,946068843,Human Services,2200 RIVER PLAZA DR,SACRAMENTO,CA,95833-4134,,"Human Services organization in SACRAMENTO, CA with annual revenue of approximately $491M",
RIDEOUT MEMORIAL HOSPITAL,941387866,Health,1 ADVENTIST HEALTH WAY,ROSEVILLE,CA,95661-3266,,"Health organization in ROSEVILLE, CA with annual revenue of approximately $491M",
SOUTH GEORGIA MEDICAL CENTER INC,874714839,Other,2501 N PATTERSON ST,VALDOSTA,GA,31602-1735,,"Other organization in VALDOSTA, GA with annual revenue of approximately $491M",
WORCESTER POLYTECHNIC INSTITUTE,042121659,Other,100 INSTITUTE RD,WORCESTER,MA,01609-2247,,"Other organization in WORCESTER, MA with annual revenue of approximately $490M",
JOHNS HOPKINS MEDICAL SERVICES CORPORATION,521232569,Health,3910 KESWICK RD SOUTH BLDG 4300A,BALTIMORE,MD,21211-2226,,"Health organization in BALTIMORE, MD with annual revenue of approximately $490M",
GOTHIC HSP CORPORATION,271325761,Health,280 S MANGUM ST STE 210,DURHAM,NC,27701-3675,,"Health organization in DURHAM, NC with annual revenue of approximately $490M",
ANCHORUM HEALTH FOUNDATION,873194433,Health,309 READ ST,SANTA FE,NM,87501-2628,,"Health organization in SANTA FE, NM with annual revenue of approximately $489M",
HIGH POINT UNIVERSITY,560529999,Education,1 UNIVERSITY PKWY,HIGH POINT,NC,27268-0002,,"Education organization in HIGH POINT, NC with annual revenue of approximately $489M",
FAIRFIELD UNIVERSITY,060646623,Education,1073 N BENSON RD,FAIRFIELD,CT,06824-5171,,"Education organization in FAIRFIELD, CT with annual revenue of approximately $489M",
SUMMIT MEDICAL GROUP INC,611300608,Health,1360 DOLWICK DR STE 200,ERLANGER,KY,41018-3159,,"Health organization in ERLANGER, KY with annual revenue of approximately $488M",
INDIANA UNIVERSITY HEALTH NORTH HOSPITAL INC,351932442,Health,950 N MERIDIAN ST STE 1200,INDIANAPOLIS,IN,46204-1011,,"Health organization in INDIANAPOLIS, IN with annual revenue of approximately $487M",
UNIVERSITY OF KENTUCKY RESEARCH FOUNDATION,616033693,Education,301 PETERSON SERVICE BUILDING,LEXINGTON,KY,40506-0001,,"Education organization in LEXINGTON, KY with annual revenue of approximately $486M",
GCU,250522060,Religion,5400 TUSCARAWAS RD,BEAVER,PA,15009-9513,,"Religion organization in BEAVER, PA with annual revenue of approximately $486M",
GUTHRIE MEDICAL GROUP PC,250815795,Health,1 GUTHRIE SQUARE,SAYRE,PA,18840-1625,,"Health organization in SAYRE, PA with annual revenue of approximately $486M",
MVHS INC,161576637,Health,111 HOSPITAL DR,UTICA,NY,13502-2517,,"Health organization in UTICA, NY with annual revenue of approximately $485M",
SENTARA HEALTH,521271901,Health,350 CENTRE POINTE DR,VIRGINIA BCH,VA,23462-4415,,"Health organization in VIRGINIA BCH, VA with annual revenue of approximately $485M",
VIRTUA OUR LADY OF LOURDES HOSPITAL INC,210635001,Health,406 LIPPINCOTT DR STE J,MARLTON,NJ,08053-4168,,"Health organization in MARLTON, NJ with annual revenue of approximately $485M",
UNITED JEWISH APPEAL FEDERATION OF JEWISH PHILANTHROPIES OF NY INC,510172429,Community,130 EAST 59TH STREET,NEW YORK,NY,10022-1302,,"Community organization in NEW YORK, NY with annual revenue of approximately $484M",
NORTH BAY DEVELOPMENTAL DISABILITIES SERVICES INC,941719894,Human Services,610 AIRPARK RD,NAPA,CA,94558-7516,,"Human Services organization in NAPA, CA with annual revenue of approximately $482M",
KIPP TEXAS INC,010639602,Education,10711 KIPP WAY DR,HOUSTON,TX,77099-2675,,"Education organization in HOUSTON, TX with annual revenue of approximately $482M",
ALEXIAN BROTHERS MEDICAL CENTER,362596381,Health,PO BOX 45998,SAINT LOUIS,MO,63145-5998,,"Health organization in SAINT LOUIS, MO with annual revenue of approximately $482M",
BLUEFORGE ALLIANCE,920431093,Research,3891 S TRADITIONS DR,BRYAN,TX,77807-7595,,"Research organization in BRYAN, TX with annual revenue of approximately $480M",
ALEGENT CREIGHTON HEALTH,470757164,Health,7500 MERCY RD,OMAHA,NE,68124-2319,,"Health organization in OMAHA, NE with annual revenue of approximately $480M",
MERCY HOSPITAL OF BUFFALO,160756336,Health,144 GENESEE STREET,BUFFALO,NY,14203-1560,,"Health organization in BUFFALO, NY with annual revenue of approximately $480M",
AMERICAN FOUNDATION FOR DONATION AND TRANSPLANTATION,540980824,Health,8154 FOREST HILL AVE STE 3,N CHESTERFLD,VA,23235-3255,,"Health organization in N CHESTERFLD, VA with annual revenue of approximately $479M",
MERCY MEDICAL CENTER,420698295,Health,701 10TH ST SE,CEDAR RAPIDS,IA,52403-1251,,"Health organization in CEDAR RAPIDS, IA with annual revenue of approximately $478M",
ELECTRIC POWER RESEARCH INSTITUTE INC,237175375,Community,3420 HILLVIEW AVE,PALO ALTO,CA,94304-1355,,"Community organization in PALO ALTO, CA with annual revenue of approximately $478M",
SAN GABRIEL POMONA VALLEYS DEVELOPMENTAL SERVICES INC,954059206,Other,75 RANCHO CAMINO DR,POMONA,CA,91766-4728,,"Other organization in POMONA, CA with annual revenue of approximately $478M",
THE CORPORATION OF MERCER UNIVERSITY,580566167,Education,1501 MERCER UNIVERSITY DR,MACON,GA,31207-1515,,"Education organization in MACON, GA with annual revenue of approximately $477M",
ST LUKES METHODIST HOSPITAL,420504780,Health,1026 A AVE NE,CEDAR RAPIDS,IA,52402-5036,,"Health organization in CEDAR RAPIDS, IA with annual revenue of approximately $477M",
THE BROOKLYN HOSPITAL CENTER,111630755,Health,255 DUFFIELD ST 3RD FL,BROOKLYN,NY,11201-5302,,"Health organization in BROOKLYN, NY with annual revenue of approximately $476M",
SOUTHEAST GEORGIA HEALTH SYSTEM INC,581911751,Health,2415 PARKWOOD DR,BRUNSWICK,GA,31520-4722,,"Health organization in BRUNSWICK, GA with annual revenue of approximately $476M",
GEORGIA TECH RESEARCH CORPORATION,580603146,Health,926 DALNEY ST NW,ATLANTA,GA,30318-6395,,"Health organization in ATLANTA, GA with annual revenue of approximately $475M",
KALISPELL REGIONAL MEDICAL CENTER INC,237293874,Health,310 SUNNYVIEW LN,KALISPELL,MT,59901-3129,,"Health organization in KALISPELL, MT with annual revenue of approximately $475M",
OSF MULTI-SPECIALTY GROUP,383852646,Health,124 SW ADAMS ST,PEORIA,IL,61602-1308,,"Health organization in PEORIA, IL with annual revenue of approximately $475M",
SAMARITAN HOSPITAL,141338544,Health,2215 BURDETT AVE,TROY,NY,12180-2466,,"Health organization in TROY, NY with annual revenue of approximately $474M",
UNIVERSITY OF FLORIDA JACKSONVILLE PHYSICIANS INC,591867557,Health,653 W 8TH ST,JACKSONVILLE,FL,32209-6511,,"Health organization in JACKSONVILLE, FL with annual revenue of approximately $474M",
APELLA HEALTH MANAGEMENT INC,814193950,Community,700 N PINE ST,SPARTANBURG,SC,29303-3769,,"Community organization in SPARTANBURG, SC with annual revenue of approximately $473M",
CHORUS COMMUNITY HEALTH PLANS INC,271494977,Health,PO BOX 1997,MILWAUKEE,WI,53201-1997,,"Health organization in MILWAUKEE, WI with annual revenue of approximately $473M",
NORTHEAST GEORGIA HEALTH SYSTEM INC,581694090,Health,743 SPRING ST NE,GAINESVILLE,GA,30501-3715,,"Health organization in GAINESVILLE, GA with annual revenue of approximately $473M",
PIEDMONT NEWNAN HOSPITAL INC,205077249,Health,745 POPLAR RD,NEWNAN,GA,30265-1618,,"Health organization in NEWNAN, GA with annual revenue of approximately $473M",
TRIHEALTH INC,311438846,Religion,625 EDEN PARK DR 7TH FLOOR,CINCINNATI,OH,45202-6005,,"Religion organization in CINCINNATI, OH with annual revenue of approximately $472M",
DUQUESNE UNIVERSITY OF THE HOLY SPIRIT,251035663,Education,600 FORBES AVE,PITTSBURGH,PA,15219-3016,,"Education organization in PITTSBURGH, PA with annual revenue of approximately $472M",
THE METHODIST HOSPITALS INC,350868133,Health,600 GRANT STREET,GARY,IN,46402-6001,,"Health organization in GARY, IN with annual revenue of approximately $472M",
CHAMPLAIN VALLEY PHYSICIANS HOSPITAL MEDICAL CENTER,141338471,Health,75 BEEKMAN ST,PLATTSBURGH,NY,12901-1438,,"Health organization in PLATTSBURGH, NY with annual revenue of approximately $469M",
OBERLIN COLLEGE,340714363,Education,173 W LORAIN ST,OBERLIN,OH,44074-1057,,"Education organization in OBERLIN, OH with annual revenue of approximately $467M",
LONG ISLAND UNIVERSITY,111633516,Other,700 NORTHERN BLVD,BROOKVILLE,NY,11548-1319,,"Other organization in BROOKVILLE, NY with annual revenue of approximately $466M",
CATHOLIC MANAGED LONG TERM CARE INC,208180809,Health,205 LEXINGTON AVENUE 3RD,NEW YORK,NY,10016-6053,,"Health organization in NEW YORK, NY with annual revenue of approximately $466M",
MERCY CORPS,911148123,International,45 SW ANKENY ST,PORTLAND,OR,97204-3504,,"International organization in PORTLAND, OR with annual revenue of approximately $465M",
ASSOCIATION OF UNIVERSITY PHYSICIANS,911220843,Education,850 REPUBLICAN STREET BLDG C,SEATTLE,WA,98109-4725,,"Education organization in SEATTLE, WA with annual revenue of approximately $465M",
JAVON BEA HOSPITAL,362167847,Health,2400 N ROCKTON AVE,ROCKFORD,IL,61103-3655,,"Health organization in ROCKFORD, IL with annual revenue of approximately $465M",
UNITED ISRAEL APPEAL INC,131760102,International,25 BROADWAY SUITE 1700,NEW YORK,NY,10004-1010,,"International organization in NEW YORK, NY with annual revenue of approximately $464M",
JUPITER MEDICAL CENTER INC,591460239,Health,1210 S OLD DIXIE HWY,JUPITER,FL,33458-7205,,"Health organization in JUPITER, FL with annual revenue of approximately $464M",
DIMENSIONS HEALTH CORPORATION,521289729,Health,900 ELKRIDGE LANDING RD 3W,LINTHICUM HEIGHTS,MD,21090-2924,,"Health organization in LINTHICUM HEIGHTS, MD with annual revenue of approximately $463M",
METHODIST MEDICAL CENTER OF ILLINOIS,370661223,Health,611 W PARK ST,URBANA,IL,61801-2529,,"Health organization in URBANA, IL with annual revenue of approximately $462M",
BAYLOR REGIONAL MEDICAL CENTER AT GRAPEVINE,751777119,Health,301 N WASHINGTON AVE,DALLAS,TX,75246-1754,,"Health organization in DALLAS, TX with annual revenue of approximately $462M",
FRANCISCAN MEDICAL GROUP,911939739,Health,1313 BROADWAY PLAZA,TACOMA,WA,98402-3400,,"Health organization in TACOMA, WA with annual revenue of approximately $462M",
GREATER KANSAS CITY COMMUNITY FOUNDATION,431152398,Community,1055 BROADWAY ST STE 130,KANSAS CITY,MO,64105-0000,,"Community organization in KANSAS CITY, MO with annual revenue of approximately $462M",
CAMDEN-CLARK MEMORIAL HOSPITAL CORPORATION,311524546,Health,800 GARFIELD AVE,PARKERSBURG,WV,26101-5376,,"Health organization in PARKERSBURG, WV with annual revenue of approximately $461M",
RAND CORPORATION,951958142,Community,1776 MAIN ST,SANTA MONICA,CA,90401-3208,,"Community organization in SANTA MONICA, CA with annual revenue of approximately $461M",
SEVEN HILLS FOUNDATION INC,911969322,Human Services,81 HOPE AVE,WORCESTER,MA,01603-2212,,"Human Services organization in WORCESTER, MA with annual revenue of approximately $461M",
VIRTUA MEDICAL GROUP PA,271348772,Health,406 LIPPINCOTT DR STE J,MARLTON,NJ,08053-4168,,"Health organization in MARLTON, NJ with annual revenue of approximately $460M",
FATHER FLANAGANS BOYS HOME,470376606,Human Services,14100 CRAWFORD ST,BOYS TOWN,NE,68010-7520,,"Human Services organization in BOYS TOWN, NE with annual revenue of approximately $460M",
SAN ANTONIO REGIONAL HOSPITAL,951183919,Health,999 SAN BERNARDINO RD,UPLAND,CA,91786-4920,,"Health organization in UPLAND, CA with annual revenue of approximately $459M",
THE VILLAGES CHARTER SCHOOL INC,593597803,Education,2210 DR RANDY MCDANIEL WAY,MIDDLETON,FL,34762-6774,,"Education organization in MIDDLETON, FL with annual revenue of approximately $459M",
USC CARE MEDICAL GROUP INC,954540991,Health,1510 SAN PABLO ST STE 649,LOS ANGELES,CA,90033-5404,,"Health organization in LOS ANGELES, CA with annual revenue of approximately $459M",
CORPORATION OF GONZAGA UNIVERSITY,910236600,Education,501 E BOONE AVE,SPOKANE,WA,99258-0001,,"Education organization in SPOKANE, WA with annual revenue of approximately $459M",
COPLEY MEMORIAL HOSPITAL INC,362170840,Health,2000 OGDEN AVE,AURORA,IL,60504-7222,,"Health organization in AURORA, IL with annual revenue of approximately $458M",
BOULDER COMMUNITY HEALTH,840175870,Health,PO BOX 9019,BOULDER,CO,80301-9019,,"Health organization in BOULDER, CO with annual revenue of approximately $457M",
RIVERSIDE MEDICAL CENTER,362414944,Health,350 N WALL ST,KANKAKEE,IL,60901-2901,,"Health organization in KANKAKEE, IL with annual revenue of approximately $457M",
ROPER HOSPITAL INC,570828733,Health,316 CALHOUN ST,CHARLESTON,SC,29401-1113,,"Health organization in CHARLESTON, SC with annual revenue of approximately $457M",
PROVIDENCE SAINT JOHNS HEALTH CENTER,951684082,Health,PO BOX 389672,SEATTLE,WA,98138-9672,,"Health organization in SEATTLE, WA with annual revenue of approximately $456M",
OHI WEST INC,845074208,Health,701 6TH ST S,ST PETERSBURG,FL,33701-4814,,"Health organization in ST PETERSBURG, FL with annual revenue of approximately $456M",
CALIFORNIA BAPTIST UNIVERSITY,951890710,Education,8432 MAGNOLIA AVE,RIVERSIDE,CA,92504-3206,,"Education organization in RIVERSIDE, CA with annual revenue of approximately $456M",
SEATTLE UNIVERSITY,910565006,Other,901 12TH AVE - PAYROLL OFFICE,SEATTLE,WA,98122-4411,,"Other organization in SEATTLE, WA with annual revenue of approximately $455M",
CHILDRENS HOSPITAL PEDIATRIC ASSOCIATES INC,431987409,Health,300 LONGWOOD AVE,BOSTON,MA,02115-5724,,"Health organization in BOSTON, MA with annual revenue of approximately $454M",
FOOD FOR THE POOR INC,592174510,International,6401 LYONS RD,COCONUT CREEK,FL,33073-3602,,"International organization in COCONUT CREEK, FL with annual revenue of approximately $453M",
ST VINCENTS MEDICAL CENTER INC,590624449,Other,PO BOX 45998,SAINT LOUIS,MO,63145-5998,,"Other organization in SAINT LOUIS, MO with annual revenue of approximately $453M",
ASCENSION MACOMB OAKLAND HOSPITAL,383322109,Health,1 FORD PLACE 4E,DETROIT,MI,48202-3450,,"Health organization in DETROIT, MI with annual revenue of approximately $453M",
VALLEY MOUNTAIN REGIONAL CENTER INC,942251069,Human Services,702 N AURORA ST,STOCKTON,CA,95202-2200,,"Human Services organization in STOCKTON, CA with annual revenue of approximately $453M",
SUCCESS ACADEMY CHARTER SCHOOLS - NYC,364629540,Education,95 PINE STREET 6TH FLOOR,NEW YORK,NY,10005-0054,,"Education organization in NEW YORK, NY with annual revenue of approximately $452M",
VIRTUA-MEMORIAL HOSPITAL BURLINGTON COUNTY INC,210634562,Health,406 LIPPINCOTT DR STE J,MARLTON,NJ,08053-4168,,"Health organization in MARLTON, NJ with annual revenue of approximately $452M",
COOK CHILDRENS HEALTH CARE SYSTEM,752705881,Health,801 7TH AVE,FORT WORTH,TX,76104-2733,,"Health organization in FORT WORTH, TX with annual revenue of approximately $451M",
UNIVERSITY OF TAMPA,590624459,Education,401 W KENNEDY BLVD,TAMPA,FL,33606-1450,,"Education organization in TAMPA, FL with annual revenue of approximately $450M",
ASSOCIATION OF UNIVERSITIES FOR,860138043,Research,1331 PENNSYLVANIA AVE NW STE 1475,WASHINGTON,DC,20004-1752,,"Research organization in WASHINGTON, DC with annual revenue of approximately $450M",
MEMORIAL HEALTH SERVICES,951643381,Health,17360 BROOKHURST ST,FOUNTAIN VLY,CA,92708-3720,,"Health organization in FOUNTAIN VLY, CA with annual revenue of approximately $450M",
WESLEYAN UNIVERSITY,060646959,Education,55 HIGH ST,MIDDLETOWN,CT,06457-3741,,"Education organization in MIDDLETOWN, CT with annual revenue of approximately $448M",
ORLANDO HEALTH CENTRAL INC,800764192,Health,10000 W COLONIAL DRIVE,OCOEE,FL,34761-3400,,"Health organization in OCOEE, FL with annual revenue of approximately $448M",
WILLIAMS COLLEGE,042104847,Education,880 MAIN ST,WILLIAMSTOWN,MA,01267-2600,,"Education organization in WILLIAMSTOWN, MA with annual revenue of approximately $447M",
INDIANA UNIVERSITY FOUNDATION,356018940,Education,PO BOX 500,BLOOMINGTON,IN,47402-0500,,"Education organization in BLOOMINGTON, IN with annual revenue of approximately $447M",
HANFORD COMMUNITY HOSPITAL,940535360,Health,1 ADVENTIST HEALTH WAY,ROSEVILLE,CA,95661-3266,,"Health organization in ROSEVILLE, CA with annual revenue of approximately $447M",
SUMMIT FOUNDATION,300595477,Other,14830 CHOATE CIR,CHARLOTTE,NC,28273-9105,,"Other organization in CHARLOTTE, NC with annual revenue of approximately $447M",
REHABILITATION INSTITUTE OF CHICAGO,362256036,Health,355 E ERIE ST,CHICAGO,IL,60611-3167,,"Health organization in CHICAGO, IL with annual revenue of approximately $446M",
WEST VIRGINIA UNITED HEALTH SYSTEM INC,550754713,Health,1085 VAN VOORHIS RD STE 500,MORGANTOWN,WV,26505-6404,,"Health organization in MORGANTOWN, WV with annual revenue of approximately $446M",
BOZEMAN HEALTH DEACONESS HOSPITAL,474717998,Health,915 HIGHLAND BLVD,BOZEMAN,MT,59715-6902,,"Health organization in BOZEMAN, MT with annual revenue of approximately $446M",
UNION MEMORIAL HOSPITAL,520591685,Health,201 E UNIVERSITY PKWY,BALTIMORE,MD,21218-2829,,"Health organization in BALTIMORE, MD with annual revenue of approximately $446M",
BAYLOR REGIONAL MEDICAL CENTER AT PLANO,820551704,Health,301 N WASHINGTON AVE,DALLAS,TX,75246-1754,,"Health organization in DALLAS, TX with annual revenue of approximately $445M",
AMERICA FOR BULGARIA FOUNDATION,208076166,International,14007 S BELL ROAD SUITE 172,HOMER GLEN,IL,60491-8463,,"International organization in HOMER GLEN, IL with annual revenue of approximately $445M",
BAYSTATE MEDICAL PRACTICES INC,042888373,Health,759 CHESTNUT ST,SPRINGFIELD,MA,01199-1001,,"Health organization in SPRINGFIELD, MA with annual revenue of approximately $444M",
ELLIS HOSPITAL,141338428,Health,1101 NOTT ST,SCHENECTADY,NY,12308-2425,,"Health organization in SCHENECTADY, NY with annual revenue of approximately $444M",
ILLINOIS INSTITUTE OF TECHNOLOGY,362170136,Education,10 W 35TH ST STE 8C8-1,CHIGAGO,IL,60616-3717,,"Education organization in CHIGAGO, IL with annual revenue of approximately $444M",
HEALTHEAST ST JOHNS HOSPITAL,411456897,Health,2450 RIVERSIDE AVE,MINNEAPOLIS,MN,55454-1450,,"Health organization in MINNEAPOLIS, MN with annual revenue of approximately $443M",
ALZHEIMERS DISEASE AND RELATED DISORDERS ASSOCIATION INC,133039601,Health,225 N MICHIGAN AVE STE 1700,CHICAGO,IL,60601-7652,,"Health organization in CHICAGO, IL with annual revenue of approximately $443M",
DUCKS UNLIMITED INC,135643799,Environment,1 WATERFOWL WAY,MEMPHIS,TN,38120-2350,,"Environment organization in MEMPHIS, TN with annual revenue of approximately $443M",
MIDSTATE MEDICAL CENTER,060646715,Health,435 LEWIS AVE,MERIDEN,CT,06451-2101,,"Health organization in MERIDEN, CT with annual revenue of approximately $443M",
TEXAS ESSENTIAL HEALTHCARE PARTNERSHIPS FOUNDATION,833382093,Health,401 W 15TH ST STE 840,AUSTIN,TX,78701-1667,,"Health organization in AUSTIN, TX with annual revenue of approximately $443M",
MERCY HOSPITAL ROGERS,710294390,Health,2710 S RIFE MEDICAL LN,ROGERS,AR,72758-1452,,"Health organization in ROGERS, AR with annual revenue of approximately $442M",
BERKLEE COLLEGE OF MUSIC INC,042300472,Education,1140 BOYLSTON ST,BOSTON,MA,02215-3631,,"Education organization in BOSTON, MA with annual revenue of approximately $441M",
WINTER HAVEN HOSPITAL INC,590724462,Health,200 AVENUE F NE,WINTER HAVEN,FL,33881-4131,,"Health organization in WINTER HAVEN, FL with annual revenue of approximately $440M",
EASTERN MAINE HEALTHCARE SYSTEMS,010527066,Other,43 WHITING HILL RD,BREWER,ME,04412-1004,,"Other organization in BREWER, ME with annual revenue of approximately $440M",
SOUTHEAST IOWA REGIONAL MEDICAL CENTER INC,420680407,Health,1221 S GEAR AVE,W BURLINGTON,IA,52655-1679,,"Health organization in W BURLINGTON, IA with annual revenue of approximately $438M",
SOUTH LAKE HOSPITAL INC,593322533,Health,1900 DON WICKHAM DRIVE,CLERMONT,FL,34711-1979,,"Health organization in CLERMONT, FL with annual revenue of approximately $437M",
INTEGRIS HEALTH INC,731192764,Health,3300 NW EXPRESSWAY,OKLAHOMA,OK,73112-4418,,"Health organization in OKLAHOMA, OK with annual revenue of approximately $437M",
PARKWEST MEDICAL CENTER,581897274,Health,1420 CENTERPOINT BLVD BLDG C,KNOXVILLE,TN,37932-1960,,"Health organization in KNOXVILLE, TN with annual revenue of approximately $437M",
TRINITY MEDICAL CENTER,362739299,Health,2701 17TH ST,ROCK ISLAND,IL,61201-5351,,"Health organization in ROCK ISLAND, IL with annual revenue of approximately $436M",
JOHN T MATHER MEMORIAL HOSPITAL,111639818,Health,972 BRUSH HOLLOW ROAD 5TH FLOOR,WESTBURY,NY,11590-1740,,"Health organization in WESTBURY, NY with annual revenue of approximately $436M",
FAMILY HEALTH CENTERS OF SAN DIEGO INC,952833205,Health,823 GATEWAY CENTER WAY,SAN DIEGO,CA,92102-4541,,"Health organization in SAN DIEGO, CA with annual revenue of approximately $436M",
RICHMOND MEDICAL CENTER,743177454,Health,355 BARD AVE,STATEN ISLAND,NY,10310-1664,,"Health organization in STATEN ISLAND, NY with annual revenue of approximately $436M",
COMPASS CONNECTIONS,461394166,Human Services,PO BOX 791090,SAN ANTONIO,TX,78279-1090,,"Human Services organization in SAN ANTONIO, TX with annual revenue of approximately $434M",
ST FRANCIS MEDICAL CENTER INC,720408970,Health,4200 ESSEN LN,BATON ROUGE,LA,70809-2158,,"Health organization in BATON ROUGE, LA with annual revenue of approximately $433M",
NORWALK HOSPITAL ASSOCIATION,066068853,Health,34 MAPLE ST,NORWALK,CT,06850-3815,,"Health organization in NORWALK, CT with annual revenue of approximately $433M",
TRUSTEES OF AMHERST COLLEGE,042103542,Education,PO BOX 5000,AMHERST,MA,01002-5000,,"Education organization in AMHERST, MA with annual revenue of approximately $433M",
SSM CARDINAL GLENNON CHILDRENS HOSPITAL,430738490,Health,12800 CORPORATE HILL DR,SAINT LOUIS,MO,63131-1833,,"Health organization in SAINT LOUIS, MO with annual revenue of approximately $432M",
BAPTIST HOSPITALS OF SOUTHEAST TEXAS,741303720,Health,PO BOX 1591,BEAUMONT,TX,77704-1591,,"Health organization in BEAUMONT, TX with annual revenue of approximately $429M",
PEW MEMORIAL TRUST,236234669,Other,GLENMEDE TR CO 1650 MKT ST 1200,PHILADELPHIA,PA,19103-0000,,"Other organization in PHILADELPHIA, PA with annual revenue of approximately $428M",
MOUNT SINAI HOSPITAL MEDICAL CENTER,361509000,Health,CALOFORNIA AVENUE AT 15TH STREET,CHICAGO,IL,60608-0000,,"Health organization in CHICAGO, IL with annual revenue of approximately $428M",
NATIONAL CENTER FOR MANUFACTURING SCIENCES,382761126,Community,3025 BOARDWALK DR,ANN ARBOR,MI,48108-3230,,"Community organization in ANN ARBOR, MI with annual revenue of approximately $427M",
FLORIDA HOSPITAL WATERMAN INC,593140669,Health,1000 WATERMAN WAY,TAVARES,FL,32778-5266,,"Health organization in TAVARES, FL with annual revenue of approximately $427M",
CARILION SERVICES INC,541190879,Health,PO BOX 12385,ROANOKE,VA,24025-2385,,"Health organization in ROANOKE, VA with annual revenue of approximately $427M",
CHRISTUS HEALTH CENTRAL LOUISIANA,720408984,Health,3330 MASONIC DR,ALEXANDRIA,LA,71301-3841,,"Health organization in ALEXANDRIA, LA with annual revenue of approximately $426M",
ONEBLOOD INC,593145469,Health,8669 COMMODITY CIR,ORLANDO,FL,32819-9003,,"Health organization in ORLANDO, FL with annual revenue of approximately $426M",
FLUSHING HOSPITAL & MEDICAL CENTER,111631781,Health,4500 PARSONS BLVD,FLUSHING,NY,11355-2205,,"Health organization in FLUSHING, NY with annual revenue of approximately $426M",
FREDERICK HEALTH HOSPITAL INC,520591612,Health,400 WEST SEVENTH STREET,FREDERICK,MD,21701-4506,,"Health organization in FREDERICK, MD with annual revenue of approximately $425M",
LUTHERAN SERVICES FLORIDA INC,592198911,Human Services,3627 W WATERS AVE,TAMPA,FL,33614-2783,,"Human Services organization in TAMPA, FL with annual revenue of approximately $425M",
SAINT JOSEPHS UNIVERSITY,231352674,Education,5600 CITY AVE,PHILADELPHIA,PA,19131-1308,,"Education organization in PHILADELPHIA, PA with annual revenue of approximately $424M",
EASTERN LOS ANGELES REGIONAL CENTER FOR DEVELOPMENTALLY DISABLED INC,237049877,Human Services,A3 UNIT 23,ALHAMBRA,CA,91803-0000,,"Human Services organization in ALHAMBRA, CA with annual revenue of approximately $424M",
NORTH SHORE-LIJ ANESTHESIOLOGY PC,461617561,Health,972 BRUSH HOLLOW RD 5TH FL,WESTBURY,NY,11590-1740,,"Health organization in WESTBURY, NY with annual revenue of approximately $424M",
FROEDTERT SOUTH INC,390816845,Health,6308 8TH AVE,KENOSHA,WI,53143-5031,,"Health organization in KENOSHA, WI with annual revenue of approximately $424M",
NUVANCE HEALTH MEDICAL PRACTICE CT INC,061137531,Other,100 RESERVE ROAD,DANBURY,CT,06810-5267,,"Other organization in DANBURY, CT with annual revenue of approximately $423M",
BUCKNELL UNIVERSITY,240772407,Education,1 DENT DR,LEWISBURG,PA,17837-2005,,"Education organization in LEWISBURG, PA with annual revenue of approximately $423M",
BRONSON HEALTHCARE GROUP INC,382418383,Health,601 JOHN STREET BOX 26,KALAMAZOO,MI,49007-5341,,"Health organization in KALAMAZOO, MI with annual revenue of approximately $423M",
MCLEOD LORIS SEACOAST HOSPITAL,453576100,Health,555 E CHEVES ST,FLORENCE,SC,29506-2617,,"Health organization in FLORENCE, SC with annual revenue of approximately $422M",
WASHINGTON REGIONAL MEDICAL CENTER,710664687,Health,3215 N NORTHHILLS BLVD,FAYETTEVILLE,AR,72703-4007,,"Health organization in FAYETTEVILLE, AR with annual revenue of approximately $422M",
STONY BROOK FOUNDATION INC,116077945,Education,STONY BROOK FOUNDATION,STONY BROOK,NY,11794-0001,,"Education organization in STONY BROOK, NY with annual revenue of approximately $421M",
COMMUNITY PHYSICIANS OF INDIANA INC,205392766,Health,7240 SHADELAND STA STE 200,INDIANAPOLIS,IN,46256-3968,,"Health organization in INDIANAPOLIS, IN with annual revenue of approximately $420M",
PHELPS MEMORIAL HOSPITAL ASSOCIATION,131725076,Health,972 BRUSH HOLLOW RD 5TH FL,WESTBURY,NY,11590-1740,,"Health organization in WESTBURY, NY with annual revenue of approximately $419M",
SOUTHWEST GENERAL HEALTH CENTER,340753531,Health,18697 BAGLEY RD,CLEVELAND,OH,44130-3417,,"Health organization in CLEVELAND, OH with annual revenue of approximately $419M",
PASCO-PINELLAS HILLSBOROUGH COMMUNITY HEALTH SYSTEM INC,208488713,Health,2600 BRUCE B DOWNS BLVD,WESLEY CHAPEL,FL,33544-9207,,"Health organization in WESLEY CHAPEL, FL with annual revenue of approximately $418M",
CHA GENERAL SERVICES INC,043561265,Health,COMMERCE PLACE 350 MAIN ST SUITE 31,MALDEN,MA,02148-0000,,"Health organization in MALDEN, MA with annual revenue of approximately $418M",
COMMONSPIRIT MOUNTAIN REGION,841335382,Health,9100 E MINERAL CIR,CENTENNIAL,CO,80112-3401,,"Health organization in CENTENNIAL, CO with annual revenue of approximately $418M",
SHEPHERD CENTER INC,510141601,Health,2020 PEACHTREE RD NW,ATLANTA,GA,30309-1426,,"Health organization in ATLANTA, GA with annual revenue of approximately $418M",
TEMPLE FACULTY PRACTICE PLAN INC,831002191,Health,3509 N BROAD ST BOYER PAV 225,PHILADELPHIA,PA,19140-4105,,"Health organization in PHILADELPHIA, PA with annual revenue of approximately $418M",
ARNOT OGDEN MEDICAL CENTER,160743905,Health,600 ROE AVE,ELMIRA,NY,14905-1629,,"Health organization in ELMIRA, NY with annual revenue of approximately $418M",
UPMC,240795508,Health,600 GRANT ST FL 56,PITTSBURGH,PA,15219-2730,,"Health organization in PITTSBURGH, PA with annual revenue of approximately $417M",
MCLAREN MACOMB,381218516,Health,1000 HARRINGTON ST,MOUNT CLEMENS,MI,48043-2920,,"Health organization in MOUNT CLEMENS, MI with annual revenue of approximately $415M",
LEGAL AID SOCIETY,135562265,Human Services,199 WATER STREET,NEW YORK,NY,10038-3526,,"Human Services organization in NEW YORK, NY with annual revenue of approximately $415M",
PARTNERSHIP FOR SUPPLY CHAIN MANAGEMENT INC,203258654,Human Services,2733 CRYSTAL DRIVE 4TH FLOOR,ARLINGTON,VA,22202-3584,,"Human Services organization in ARLINGTON, VA with annual revenue of approximately $415M",
WYCKOFF HEIGHTS MEDICAL CENTER,111631837,Health,350 STANHOPE STREET 2ND FL,BROOKLYN,NY,11237-4434,,"Health organization in BROOKLYN, NY with annual revenue of approximately $415M",
UNIVERSITY OF LOUISVILLE PHYSICIANS INC,273645560,Health,300 E MARKET ST STE 400,LOUISVILLE,KY,40202-1959,,"Health organization in LOUISVILLE, KY with annual revenue of approximately $414M",
BLANCHARD VALLEY REGIONAL HEALTH CENTER,341369963,Health,1900 S MAIN ST,FINDLAY,OH,45840-1214,,"Health organization in FINDLAY, OH with annual revenue of approximately $413M",
METHODIST CHILDRENS HOSPITAL,752428911,Health,4015 22ND PL,LUBBOCK,TX,79410-1119,,"Health organization in LUBBOCK, TX with annual revenue of approximately $413M",
ELON UNIVERSITY,560532303,Education,PO BOX 398,ELON,NC,27244-0398,,"Education organization in ELON, NC with annual revenue of approximately $412M",
CHILDRENS HEALTH CARE ASSOCIATES INC,222785804,Other,3615 CIVIC CENTER BLVD SUITE 1346,PHILADELPHIA,PA,19104-4318,,"Other organization in PHILADELPHIA, PA with annual revenue of approximately $412M",
WINCHESTER HOSPITAL,042104434,Health,CO BILH TAX 529 MAIN ST 4TH FL,CHARLESTOWN,MA,02129-0000,,"Health organization in CHARLESTOWN, MA with annual revenue of approximately $412M",
YOUTH VILLAGES INC,581716970,Human Services,3320 BROTHER BLVD,BARTLETT,TN,38133-8950,,"Human Services organization in BARTLETT, TN with annual revenue of approximately $411M",
ALBERT EINSTEIN COLLEGE OF MEDICINE,830621846,Education,1300 MORRIS PARK AVENUE,BRONX,NY,10461-1900,,"Education organization in BRONX, NY with annual revenue of approximately $411M",
HARBOR DEVLOPMENTAL DISABILITIES FOUNDATION,953131243,Human Services,21231 HAWTHORNE BLVD,TORRANCE,CA,90503-5501,,"Human Services organization in TORRANCE, CA with annual revenue of approximately $411M",
ST MARY MEDICAL CENTER,231913910,Health,1201 LANGHORN NEWTOWN ROAD,LANGHORN,PA,19047-1201,,"Health organization in LANGHORN, PA with annual revenue of approximately $411M",
ZOOLOGICAL SOCIETY OF SAN DIEGO,951648219,Health,PO BOX 120551,SAN DIEGO,CA,92112-0551,,"Health organization in SAN DIEGO, CA with annual revenue of approximately $411M",
TEXAS HEALTH HARRIS METHODIST HOSPITAL SOUTHWEST FORT WORTH,752678857,Health,6100 HARRIS PKWY,FORT WORTH,TX,76132-4101,,"Health organization in FORT WORTH, TX with annual revenue of approximately $410M",
XAVIER UNIVERSITY,310537516,Education,3800 VICTORY PARKWAY,CINCINNATI,OH,45207-1035,,"Education organization in CINCINNATI, OH with annual revenue of approximately $410M",
PROMEDICA CENTRAL PHYSICIANS LLC,341881137,Health,100 MADISON AVE,TOLEDO,OH,43604-1516,,"Health organization in TOLEDO, OH with annual revenue of approximately $410M",
AMERICAN JEWISH JOINT DISTRIBUTION COMMITTEE INC,131656634,International,220 E 42ND ST RM 400,NEW YORK,NY,10017-5833,,"International organization in NEW YORK, NY with annual revenue of approximately $409M",
MARTIN LUTHER KING JR LOS ANGELES HEALTHCARE CORPORATION,274658935,Health,1680 E 120TH ST,LOS ANGELES,CA,90059-3026,,"Health organization in LOS ANGELES, CA with annual revenue of approximately $409M",
SRI INTERNATIONAL,941160950,Research,333 RAVENSWOOD AVE,MENLO PARK,CA,94025-3453,,"Research organization in MENLO PARK, CA with annual revenue of approximately $409M",
SENTARA PRINCESS ANNE HOSPITAL,273208969,Health,1300 SENTARA PARK,VIRGINIA BCH,VA,23464-5884,,"Health organization in VIRGINIA BCH, VA with annual revenue of approximately $409M",
ALAMANCE REGIONAL MEDICAL CENTER,560529994,Health,1200 N ELM ST,GREENSBORO,NC,27401-1004,,"Health organization in GREENSBORO, NC with annual revenue of approximately $409M",
PEW CHARITABLE TRUSTS,562307147,Community,901 E STREET NW,WASHINGTON,DC,20004-2037,,"Community organization in WASHINGTON, DC with annual revenue of approximately $408M",
FEED THE CHILDREN INC,736108657,International,333 N MERIDIAN AVE,OKLAHOMA CITY,OK,73107-6507,,"International organization in OKLAHOMA CITY, OK with annual revenue of approximately $408M",
CATHOLIC UNIVERSITY OF AMERICA,530196583,Education,620 MICHIGAN AVE NE,WASHINGTON,DC,20064-0001,,"Education organization in WASHINGTON, DC with annual revenue of approximately $408M",
HENRY FORD WYANDOTTE HOSPITAL CORPORATION,382791823,Health,ONE FORD PLACE 5F,DETROIT,MI,48202-3450,,"Health organization in DETROIT, MI with annual revenue of approximately $407M",
COLGATE UNIVERSITY TREASURERS OFFICE,150532078,Education,13 OAK DR,HAMILTON,NY,13346-1338,,"Education organization in HAMILTON, NY with annual revenue of approximately $407M",
KINGMAN HEALTHCARE INC,942916102,Health,3269 N STOCKTON HILL RD,KINGMAN,AZ,86409-3619,,"Health organization in KINGMAN, AZ with annual revenue of approximately $407M",
REDLANDS COMMUNITY HOSPITAL,951643347,Health,350 TERRACINA BLVD,REDLANDS,CA,92373-4850,,"Health organization in REDLANDS, CA with annual revenue of approximately $407M",
BAPTIST MEMORIAL HOSPITAL TIPTON,621113167,Health,1995 HIGHWAY 51 SOUTH,COVINGTON,TN,38019-3635,,"Health organization in COVINGTON, TN with annual revenue of approximately $407M",
UPMC WESTERN MARYLAND CORPORATION,520591531,Health,600 GRANT ST FL 56,PITTSBURGH,PA,15219-2730,,"Health organization in PITTSBURGH, PA with annual revenue of approximately $407M",
TOWER HEALTH,232201344,Health,PO BOX 16052,READING,PA,19612-6052,,"Health organization in READING, PA with annual revenue of approximately $406M",
MARTHA JEFFERSON HOSPITAL,540261840,Health,1300 SENTARA PARK,VIRGINIA BCH,VA,23464-5884,,"Health organization in VIRGINIA BCH, VA with annual revenue of approximately $406M",
CARSON TAHOE REGIONAL HEALTHCARE,880502320,Health,1600 MEDICAL PKWY,CARSON CITY,NV,89703-4625,,"Health organization in CARSON CITY, NV with annual revenue of approximately $404M",
SOUTHEAST ALASKA REGIONAL HEALTH CONSORTIUM,920056274,Health,3100 CHANNEL DR STE 300,JUNEAU,AK,99801-7837,,"Health organization in JUNEAU, AK with annual revenue of approximately $404M",
U S COMMITTEE FOR REFUGEES AND IMMIGRANTS INC,131878704,Other,2231 CRYSTAL DR STE 350,ARLINGTON,VA,22202-3794,,"Other organization in ARLINGTON, VA with annual revenue of approximately $403M",
PORTLAND ADVENTIST MEDICAL CENTER,930429015,Health,1 ADVENTIST HEALTH WAY,ROSEVILLE,CA,95661-3266,,"Health organization in ROSEVILLE, CA with annual revenue of approximately $403M",
FROEDTERT & THE MEDICAL COLLEGE OF WISCONSIN COMMUNITY PHYSICIANS INC,272042610,Health,W126 N7338 FLINT DRIVE,MENOMONEE FALLS,WI,53051-4532,,"Health organization in MENOMONEE FALLS, WI with annual revenue of approximately $402M",
ASCENSION BORGESS HOSPITAL,381360526,Health,PO BOX 45998,SAINT LOUIS,MO,63145-5998,,"Health organization in SAINT LOUIS, MO with annual revenue of approximately $402M",
COVENANT MEDICAL CENTER INC,421264647,Health,3421 W 9TH ST,WATERLOO,IA,50702-5401,,"Health organization in WATERLOO, IA with annual revenue of approximately $401M",
HERITAGE VALLEY HEALTH SYSTEM INC,251801532,Health,720 BLACKBURN RD,SEWICKLEY,PA,15143-1459,,"Health organization in SEWICKLEY, PA with annual revenue of approximately $401M",
UNIVERSITY HEALTH SYSTEMS OF EASTERN CAROLINA INC,562141073,Health,2100 STANTONSBURG RD,GREENVILLE,NC,27834-2818,,"Health organization in GREENVILLE, NC with annual revenue of approximately $401M",
NATIONAL JEWISH HEALTH,742044647,Health,1400 JACKSON ST,DENVER,CO,80206-2761,,"Health organization in DENVER, CO with annual revenue of approximately $401M",
CATALIGHT FOUNDATION,943120231,Health,2730 SHADELANDS DR,WALNUT CREEK,CA,94598-2515,,"Health organization in WALNUT CREEK, CA with annual revenue of approximately $400M",
UNIVERSITY OF NORTHUMBRIA AT NEWCASTLE,981705457,Education,NEWCASTLE NE1 8ST,UNITED KINGDOM,,00000-0000,,"Education organization in UNITED KINGDOM,  with annual revenue of approximately $400M",
FORT SANDERS REGIONAL MEDICAL CENTER,620528340,Health,1420 CENTERPOINT BLVD BLDG C,KNOXVILLE,TN,37932-1960,,"Health organization in KNOXVILLE, TN with annual revenue of approximately $399M",
CH ALLIED SERVICES INC,431279063,Health,1600 E BROADWAY,COLUMBIA,MO,65201-5844,,"Health organization in COLUMBIA, MO with annual revenue of approximately $398M",
LOS ANGELES COUNTY DEVELOPMENTAL SERVICE FOUNDATION,953374648,Human Services,3303 WILSHIRE BLVD 7TH FLOOR,LOS ANGELES,CA,90010-1704,,"Human Services organization in LOS ANGELES, CA with annual revenue of approximately $398M",
PRATT INSTITUTE,111630822,Education,200 WILLOUGHBY AVE,BROOKLYN,NY,11205-3817,,"Education organization in BROOKLYN, NY with annual revenue of approximately $398M",
DEACONESS HEALTH SYSTEM INC,351532889,Health,600 MARY ST,EVANSVILLE,IN,47710-1658,,"Health organization in EVANSVILLE, IN with annual revenue of approximately $398M",
LOMA LINDA UNIVERSITY,951816009,Education,11145 ANDERSON STREET 205,LOMA LINDA,CA,92350-1734,,"Education organization in LOMA LINDA, CA with annual revenue of approximately $397M",
OROVILLE HOSPITAL,941634554,Health,2767 OLIVE HWY,OROVILLE,CA,95966-6103,,"Health organization in OROVILLE, CA with annual revenue of approximately $397M",
THE TRUSTEES OF GRINNELL COLLEGE,420680387,Education,733 BROAD ST,GRINNELL,IA,50112-2227,,"Education organization in GRINNELL, IA with annual revenue of approximately $397M",
THE NEW YORK PUBLIC LIBRARY ASTOR LENOX AND TILDEN FOUNDATIONS,131887440,Education,270 MADISON AVENUE 11TH FLOOR,NEW YORK,NY,10016-0601,,"Education organization in NEW YORK, NY with annual revenue of approximately $397M",
RWJBH MEDICAL GROUP PC,842840311,Health,C/O CORP FINANCE 2 CRESCENT PLACE,OCEANPORT,NJ,07757-0000,,"Health organization in OCEANPORT, NJ with annual revenue of approximately $397M",
UNIVERSITY OF CINCINNATI PHYSICIANS INC,311246809,Other,260 STETSON ST,CINCINNATI,OH,45219-2498,,"Other organization in CINCINNATI, OH with annual revenue of approximately $396M",
CALSTART INC,954375022,Other,48 S CHESTER AVE,PASADENA,CA,91106-3105,,"Other organization in PASADENA, CA with annual revenue of approximately $396M",
ST MARY MEDICAL CENTER,951914489,Health,18300 US HIGHWAY 18,APPLE VALLEY,CA,92307-2206,,"Health organization in APPLE VALLEY, CA with annual revenue of approximately $395M",
INSTITUTE OF INTERNATIONAL EDUCATION INC,131624046,International,1 WORLD TRADE CTR FL 36,NEW YORK,NY,10007-0090,,"International organization in NEW YORK, NY with annual revenue of approximately $395M",
SUBURBAN HOSPITAL INCORPORATED,520610545,Health,8600 OLD GEORGETOWN RD,BETHESDA,MD,20814-1497,,"Health organization in BETHESDA, MD with annual revenue of approximately $394M",
YESHIVA UNIVERSITY,131624225,Education,500 W 185TH ST,NEW YORK,NY,10033-3201,,"Education organization in NEW YORK, NY with annual revenue of approximately $394M",
HILLSDALE COLLEGE,381374230,Education,33 E COLLEGE ST,HILLSDALE,MI,49242-1205,,"Education organization in HILLSDALE, MI with annual revenue of approximately $394M",
METHODIST HEALTHCARE MINISTRIES OF SOUTH TEXAS INC,741287016,Health,4507 MEDICAL DR,SAN ANTONIO,TX,78229-4401,,"Health organization in SAN ANTONIO, TX with annual revenue of approximately $393M",
MONTEFIORE HEALTH SYSTEM INC,201615393,Health,111 E 210TH ST,BRONX,NY,10467-2401,,"Health organization in BRONX, NY with annual revenue of approximately $393M",
PLANNED PARENTHOOD FEDERATION OF,131644147,Health,123 WILLIAM STREET,NEW YORK,NY,10038-3804,,"Health organization in NEW YORK, NY with annual revenue of approximately $392M",
UNIVERSITY MEDICAL SERVICE ASSOCIATION INC,237313346,Education,12901 BRUCE B DOWNS BLVD FA MDC6,TAMPA,FL,33612-4742,,"Education organization in TAMPA, FL with annual revenue of approximately $391M",
SISTERS OF CHARITY HOSPITAL OF BUFFALO NEW YORK,160743187,Health,144 GENESEE STREET,BUFFALO,NY,14203-1560,,"Health organization in BUFFALO, NY with annual revenue of approximately $391M",
PIH HEALTH GOOD SAMARITAN HOSPITAL,951656366,Health,1225 WILSHIRE BLVD,LOS ANGELES,CA,90017-1901,,"Health organization in LOS ANGELES, CA with annual revenue of approximately $391M",
TRUSTEES OF THE SMITH COLLEGE,041843040,Education,COLLEGE HALL 204 10 ELM STREET,NORTHAMPTON,MA,01063-0001,,"Education organization in NORTHAMPTON, MA with annual revenue of approximately $390M",
EPISCOPAL HEALTH SERVICES INC,111665825,Health,377 OAK ST STE 302,GARDEN CITY,NY,11530-6542,,"Health organization in GARDEN CITY, NY with annual revenue of approximately $389M",
BETH ISRAEL DEACONESS HOSPITAL PLYMOUTH INC,222667354,Health,CO BILH TAX 529 MAIN ST 4TH FL,CHARLESTOWN,MA,02129-0000,,"Health organization in CHARLESTOWN, MA with annual revenue of approximately $389M",
MEDICAL FACULTY ASSOCIATES INC,522220700,Health,2150 PENNSYLVANIA AVE NW,WASHINGTON,DC,20037-3201,,"Health organization in WASHINGTON, DC with annual revenue of approximately $389M",
WILDLIFE CONSERVATION SOCIETY,131740011,Health,2300 SOUTHERN BOULEVARD ATTENTION P,BRONX,NY,10460-1068,,"Health organization in BRONX, NY with annual revenue of approximately $389M",
UPPER CHESAPEAKE MEDICAL CENTER INC,521253920,Health,900 ELKRIDGE LANDING RD 3W,LINTHICUM HEIGHTS,MD,21090-2924,,"Health organization in LINTHICUM HEIGHTS, MD with annual revenue of approximately $389M",
UVA PRINCE WILLIAM MEDICAL CENTER,540696355,Health,8700 SUDLEY RD,MANASSAS,VA,20110-4418,,"Health organization in MANASSAS, VA with annual revenue of approximately $388M",
ASCENSION SE WISCONSIN HOSPITAL INC,390816857,Health,PO BOX 45998,SAINT LOUIS,MO,63145-5998,,"Health organization in SAINT LOUIS, MO with annual revenue of approximately $388M",
VAIL CLINIC INC,840563230,Health,PO BOX 40000,VAIL,CO,81658-7520,,"Health organization in VAIL, CO with annual revenue of approximately $388M",
WELLSTAR NORTH FULTON HOSPITAL INC,810851756,Health,793 SAWYER RD,MARIETTA,GA,30062-2222,,"Health organization in MARIETTA, GA with annual revenue of approximately $388M",
SAINT JOSEPH REGIONAL MEDICAL CENTER-SOUTH BEND CAMPUS INC,350868157,Health,5215 HOLY CROSS PKWY,MISHAWAKA,IN,46545-1469,,"Health organization in MISHAWAKA, IN with annual revenue of approximately $387M",
INGALLS MEMORIAL HOSPITAL,362170866,Health,1 INGALLS DR,HARVEY,IL,60426-3558,,"Health organization in HARVEY, IL with annual revenue of approximately $387M",
EMERSON HOSPITAL,042103565,Health,133 OLD ROAD TO NINE ACRE CORNER,CONCORD,MA,01742-0000,,"Health organization in CONCORD, MA with annual revenue of approximately $387M",
COASTAL DEVELOPMENTAL SERVICES FOUNDATION,953822105,Other,5901 GREEN VALLEY CIRCLE,CULVER CITY,CA,90230-6938,,"Other organization in CULVER CITY, CA with annual revenue of approximately $387M",
SANSUM CLINIC,956419205,Health,470 S PATTERSON AVE,SANTA BARBARA,CA,93111-2404,,"Health organization in SANTA BARBARA, CA with annual revenue of approximately $387M",
THE OJC FUND,113618879,Education,1303- 53RD ST STE 303,BROOKLYN,NY,11219-3823,,"Education organization in BROOKLYN, NY with annual revenue of approximately $386M",
KENTUCKY MEDICAL SERVICES FOUNDATION INC,610945743,Education,2317 ALUMNI PARK PLZ STE 300,LEXINGTON,KY,40517-4291,,"Education organization in LEXINGTON, KY with annual revenue of approximately $386M",
PRISMA HEALTH MEDICAL GROUP-MIDLANDS,471345819,Education,300 EAST MCBEE AVENUE SUITE 500,GREENVILLE,SC,29601-2842,,"Education organization in GREENVILLE, SC with annual revenue of approximately $386M",
THE UNIVERSITY OF VERMONT HEALTH NETWORK MEDICAL GROUP INC,030225105,Health,111 COLCHESTER AVE,BURLINGTON,VT,05401-1473,,"Health organization in BURLINGTON, VT with annual revenue of approximately $385M",
WOUNDED WARRIOR PROJECT INC,202370934,Human Services,4899 BELFORT RD STE 300,JACKSONVILLE,FL,32256-6033,,"Human Services organization in JACKSONVILLE, FL with annual revenue of approximately $385M",
MENNONITE GENERAL HOSPITAL INC,660219758,Health,PO BOX 1379,AIBONITO,PR,00705-1379,,"Health organization in AIBONITO, PR with annual revenue of approximately $384M",
BENTLEY UNIVERSITY,041081650,Education,175 FOREST STPAYROLL DEPARTMENT,WALTHAM,MA,02452-0000,,"Education organization in WALTHAM, MA with annual revenue of approximately $384M",
CENTRASTATE MEDICAL CENTER INC,221750190,Health,901 W MAIN ST,FREEHOLD,NJ,07728-2537,,"Health organization in FREEHOLD, NJ with annual revenue of approximately $384M",
MONONGALIA COUNTY GENERAL HOSPITAL COMPANY,237441353,Health,1200 J D ANDERSON DR,MORGANTOWN,WV,26505-3494,,"Health organization in MORGANTOWN, WV with annual revenue of approximately $384M",
PROVIDENCE COLLEGE,050258932,Education,1 CUNNINGHAM SQ,PROVIDENCE,RI,02918-7001,,"Education organization in PROVIDENCE, RI with annual revenue of approximately $383M",
ELDERHOSTEL INC,042632526,Human Services,PO BOX 56033,BOSTON,MA,02205-6033,,"Human Services organization in BOSTON, MA with annual revenue of approximately $383M",
INDIANA UNIVERSITY HEALTH WEST HOSPITAL INC,351814660,Health,950 N MERIDIAN ST STE 1200,INDIANAPOLIS,IN,46204-1011,,"Health organization in INDIANAPOLIS, IN with annual revenue of approximately $383M",
SALINA REGIONAL HEALTH CENTER INC,481169103,Health,400 S SANTA FE AVE,SALINA,KS,67401-4144,,"Health organization in SALINA, KS with annual revenue of approximately $383M",
COMMUNITY HOSPITAL OF SAN BERNARDINO,951643373,Health,1805 MEDICAL CENTER DR,SN BERNRDNO,CA,92411-1217,,"Health organization in SN BERNRDNO, CA with annual revenue of approximately $382M",
TOURO UNIVERSITY,132676570,Education,50 WEST 47TH 12TH FL,NEW YORK,NY,10036-8687,,"Education organization in NEW YORK, NY with annual revenue of approximately $382M",
LAKELAND CARE INCORPORATED,813724993,Health,N6654 ROLLING MEADOWS DR,FOND DU LAC,WI,54937-9471,,"Health organization in FOND DU LAC, WI with annual revenue of approximately $382M",
WAYNE MEMORIAL HOSPITAL INC,561484844,Health,2700 WAYNE MEMORIAL DR,GOLDSBORO,NC,27534-9494,,"Health organization in GOLDSBORO, NC with annual revenue of approximately $382M",
BROCKTON HOSPITAL INC,222472997,Health,680 CENTRE ST,BROCKTON,MA,02302-3308,,"Health organization in BROCKTON, MA with annual revenue of approximately $381M",
GETTYSBURG HOSPITAL,231352220,Health,PO BOX 2767,YORK,PA,17405-2767,,"Health organization in YORK, PA with annual revenue of approximately $381M",
NEW YORK INSTITUTE OF TECHNOLOGY,111788788,Education,NORTHERN BOULEVARD,OLD WESTBURY,NY,11568-0000,,"Education organization in OLD WESTBURY, NY with annual revenue of approximately $381M",
SENTARA MEDICAL GROUP,541217184,Health,1300 SENTARA PARK,VIRGINIA BCH,VA,23464-5884,,"Health organization in VIRGINIA BCH, VA with annual revenue of approximately $381M",
SAN JUAN REGIONAL MEDICAL CENTER INC,850127924,Health,801 W MAPLE ST,FARMINGTON,NM,87401-5630,,"Health organization in FARMINGTON, NM with annual revenue of approximately $381M",
DOYLESTOWN HOSPITAL,231352174,Health,595 W STATE ST,DOYLESTOWN,PA,18901-2554,,"Health organization in DOYLESTOWN, PA with annual revenue of approximately $380M",
SOUTHERN NEW HAMPSHIRE MEDICAL CENTER,020483054,Health,8 PROSPECT ST,NASHUA,NH,03060-3925,,"Health organization in NASHUA, NH with annual revenue of approximately $380M",
FRONT PORCH COMMUNITIES AND SERVICES,954538269,Human Services,800 N BRAND BLVD FL 19,GLENDALE,CA,91203-1231,,"Human Services organization in GLENDALE, CA with annual revenue of approximately $380M",
COMMUNITY MERCY HEALTH PARTNERS,310785684,Health,100 MEDICAL CENTER DR,SPRINGFIELD,OH,45504-2687,,"Health organization in SPRINGFIELD, OH with annual revenue of approximately $380M",
UNIVERSITY OF NEW HAVEN,060761704,Education,300 BOSTON POST RD,WEST HAVEN,CT,06516-1916,,"Education organization in WEST HAVEN, CT with annual revenue of approximately $379M",
PRESIDENT & TRUSTEES OF COLBY COLLEGE,010211497,Education,4130 MAYFLOWER HL,WATERVILLE,ME,04901-8841,,"Education organization in WATERVILLE, ME with annual revenue of approximately $379M",
MARIST UNIVERSITY,141442493,Education,3399 NORTH RD,POUGHKEEPSIE,NY,12601-1350,,"Education organization in POUGHKEEPSIE, NY with annual revenue of approximately $379M",
AMERICAN SOCIETY FOR THE PREVENTION OF CRUELTY TO ANIMALS,131623829,Health,424 E 92ND ST,NEW YORK,NY,10128-6804,,"Health organization in NEW YORK, NY with annual revenue of approximately $379M",
WELLESLEY COLLEGE,042103637,Education,106 CENTRAL ST,WELLESLEY,MA,02481-8203,,"Education organization in WELLESLEY, MA with annual revenue of approximately $379M",
ST MARY MEDICAL CENTER INC,352007327,Health,10010 DONALD S POWERS DR,MUNSTER,IN,46321-4054,,"Health organization in MUNSTER, IN with annual revenue of approximately $378M",
ASCENSION GENESYS HOSPITAL,382377821,Health,1 FORD PLACE 4E,DETROIT,MI,48202-3450,,"Health organization in DETROIT, MI with annual revenue of approximately $377M",
ACTION FOR BOSTON COMMUNITY DEVELOPMENT,042304133,Human Services,0 00,BOSTON,MA,02111-0000,,"Human Services organization in BOSTON, MA with annual revenue of approximately $377M",
ST ALEXIUS MEDICAL CENTER,364251846,Health,PO BOX 45998,SAINT LOUIS,MO,63145-5998,,"Health organization in SAINT LOUIS, MO with annual revenue of approximately $377M",
NORTHEAST GEORGIA PHYSICIANS GROUP INC,582078064,Health,743 SPRING ST NE,GAINESVILLE,GA,30501-3715,,"Health organization in GAINESVILLE, GA with annual revenue of approximately $376M",
LAHEY CLINIC INC,042704683,Health,CO BILH TAX 529 MAIN ST 4TH FL,CHARLESTOWN,MA,02129-0000,,"Health organization in CHARLESTOWN, MA with annual revenue of approximately $376M",
SAINT LUKES EAST HOSPITAL,562488077,Health,100 NE SAINT LUKES BLVD,LEES SUMMIT,MO,64086-6000,,"Health organization in LEES SUMMIT, MO with annual revenue of approximately $376M",
NEW YORK-PRESBYTERIAN FUND INC,133160356,Health,525 EAST 68TH STREET BOX 156,NEW YORK,NY,10065-4870,,"Health organization in NEW YORK, NY with annual revenue of approximately $375M",
CITY HOSPITAL INC,550383321,Health,2500 HOSPITAL DR,MARTINSBURG,WV,25401-3402,,"Health organization in MARTINSBURG, WV with annual revenue of approximately $374M",
WORLD WILDLIFE FUND INC,521693387,Environment,1250 24TH ST NW,WASHINGTON,DC,20037-1124,,"Environment organization in WASHINGTON, DC with annual revenue of approximately $374M",
MOSAIC,113669999,Human Services,4980 S 118TH ST A,OMAHA,NE,68137-2200,,"Human Services organization in OMAHA, NE with annual revenue of approximately $374M",
THE CONSERVATION FUND A NONPROFIT CORPORATION,521388917,Environment,1655 FORT MYER DR STE 1300,ARLINGTON,VA,22209-3199,,"Environment organization in ARLINGTON, VA with annual revenue of approximately $373M",
LOCAL INITIATIVES SUPPORT CORPORATION,133030229,Community,28 LIBERTY ST 34TH FL,NEW YORK,NY,10005-1526,,"Community organization in NEW YORK, NY with annual revenue of approximately $373M",
STEPHEN SILLER TUNNEL TO TOWERS FOUNDATION,020554654,Education,2361 HYLAN BLVD,STATEN ISLAND,NY,10306-3159,,"Education organization in STATEN ISLAND, NY with annual revenue of approximately $373M",
UMA EDUCATION INC,472578950,Education,9309 NORTH FLORIDA AVENUE,TAMPA,FL,33612-7237,,"Education organization in TAMPA, FL with annual revenue of approximately $371M",
ALLEN MEMORIAL HOSPITAL CORPORATION,420698265,Health,1825 LOGAN AVE,WATERLOO,IA,50703-1916,,"Health organization in WATERLOO, IA with annual revenue of approximately $371M",
LEGACY COMMUNITY HEALTH SERVICES INC,760009637,Health,1415 CALIFORNIA ST,HOUSTON,TX,77006-2602,,"Health organization in HOUSTON, TX with annual revenue of approximately $370M",
ANCHORUM ST VINCENT,261592592,Health,309 READ ST,SANTA FE,NM,87501-2628,,"Health organization in SANTA FE, NM with annual revenue of approximately $370M",
CLEVELAND FOUNDATION,340714588,Community,6601 EUCLID AVE,CLEVELAND,OH,44103-3905,,"Community organization in CLEVELAND, OH with annual revenue of approximately $370M",
ST PETERS HEALTH,810233121,Health,2475 E BROADWAY ST,HELENA,MT,59601-4928,,"Health organization in HELENA, MT with annual revenue of approximately $370M",
LONG ISLAND COMMUNITY HOSPITAL AT NYU LANGONE HEALTH,111704595,Health,101 HOSPITAL RD,PATCHOGUE,NY,11772-4870,,"Health organization in PATCHOGUE, NY with annual revenue of approximately $370M",
ESSENTIA HEALTH,200360007,Health,502 E 2ND ST,DULUTH,MN,55805-1913,,"Health organization in DULUTH, MN with annual revenue of approximately $369M",
BOWDOIN COLLEGE,010215213,Education,5400 COLLEGE STA,BRUNSWICK,ME,04011-8445,,"Education organization in BRUNSWICK, ME with annual revenue of approximately $369M",
ITHACA COLLEGE,150532204,Education,325 PRW BLDG 953 DANBY ROAD,ITHACA,NY,14850-0000,,"Education organization in ITHACA, NY with annual revenue of approximately $369M",
FRANCISCAN MISSIONARIES OF OUR LADY HEALTH SYSTEM INC,721028323,Health,4200 ESSEN LN,BATON ROUGE,LA,70809-2158,,"Health organization in BATON ROUGE, LA with annual revenue of approximately $368M",
LEUKEMIA & LYMPHOMA SOCIETY INC,135644916,Health,3 INTERNATIONAL DR STE 200,RYE BROOK,NY,10573-7501,,"Health organization in RYE BROOK, NY with annual revenue of approximately $368M",
LOYOLA UNIVERSITY MARYLAND INC,520591623,Other,4501 N CHARLES ST,BALTIMORE,MD,21210-2601,,"Other organization in BALTIMORE, MD with annual revenue of approximately $368M",
HOUSTON FOOD BANK,742181456,Other,535 PORTWALL ST,HOUSTON,TX,77029-1332,,"Other organization in HOUSTON, TX with annual revenue of approximately $366M",
ELKHART GENERAL HOSPITAL INC,350877574,Health,600 EAST BLVD,ELKHART,IN,46514-2483,,"Health organization in ELKHART, IN with annual revenue of approximately $365M",
MCLAREN HEALTH CARE CORPORATION,382397643,Health,1 MCLAREN PKWY,GRAND BLANC,MI,48439-7471,,"Health organization in GRAND BLANC, MI with annual revenue of approximately $365M",
EAST TENNESSEE CHILDRENS HOSPITAL ASSOCIATION INC,626002604,Health,2018 W CLINCH AVE,KNOXVILLE,TN,37916-0000,,"Health organization in KNOXVILLE, TN with annual revenue of approximately $365M",
CRYSTAL STAIRS INC,953510046,Arts & Culture,5110 W GOLDLEAF CIR STE 150,LOS ANGELES,CA,90056-1287,,"Arts & Culture organization in LOS ANGELES, CA with annual revenue of approximately $365M",
PROVIDENCE FACEY MEDICAL FOUNDATION,954322584,Other,15451 SFV MISSION BLVD STE 300,MISSION HILLS,CA,91345-0000,,"Other organization in MISSION HILLS, CA with annual revenue of approximately $365M",
JSI RESEARCH & TRAINING INSTITUTE INC,042679824,Other,44 FARNSWORTH STREET,BOSTON,MA,02210-1209,,"Other organization in BOSTON, MA with annual revenue of approximately $364M",
STC HEALTHCARE PARTNERS LLC,843467958,Health,PO BOX 16052,READING,PA,19612-6052,,"Health organization in READING, PA with annual revenue of approximately $364M",
RUTLAND HOSPITAL INC,030183483,Health,160 ALLEN ST,RUTLAND,VT,05701-4560,,"Health organization in RUTLAND, VT with annual revenue of approximately $363M",
MEDSTAR HEALTH INC,522087445,Health,10980 GRANTCHESTER WAY,COLUMBIA,MD,21044-6097,,"Health organization in COLUMBIA, MD with annual revenue of approximately $363M",
DECHOMAI FOUNDATION INC,061676688,Community,245 RIVERSIDE AVE,JACKSONVILLE,FL,32202-4924,,"Community organization in JACKSONVILLE, FL with annual revenue of approximately $363M",
ASCENSION NE WISCONSIN INC,390816818,Health,PO BOX 45998,SAINT LOUIS,MO,63145-5998,,"Health organization in SAINT LOUIS, MO with annual revenue of approximately $363M",
TRINITY HEALTH & AFFILIATES,331007002,Health,PO BOX 5020,MINOT,ND,58702-5020,,"Health organization in MINOT, ND with annual revenue of approximately $362M",
SWARTHMORE COLLEGE,231352683,Education,500 COLLEGE AVE,SWARTHMORE,PA,19081-1306,,"Education organization in SWARTHMORE, PA with annual revenue of approximately $361M",
ABILENE CHRISTIAN UNIVERSITY,750851900,Other,ACU BOX 29120,ABILENE,TX,79699-0001,,"Other organization in ABILENE, TX with annual revenue of approximately $361M",
CO-IMPACT PHILANTHROPIC FUNDS INC,882408684,Community,1178 BROADWAY 3RD FLOOR 144,NEW YORK,NY,10001-5666,,"Community organization in NEW YORK, NY with annual revenue of approximately $360M",
PECKHAM VOCATIONAL INDUSTRIES INC,382322117,Human Services,3510 CAPITAL CITY BLVD,LANSING,MI,48906-2102,,"Human Services organization in LANSING, MI with annual revenue of approximately $359M",
MOUNT AUBURN HOSPITAL,042103606,Health,CO BILH TAX 529 MAIN ST 4TH FL,CHARLESTOWN,MA,02129-0000,,"Health organization in CHARLESTOWN, MA with annual revenue of approximately $359M",
METROPOLITAN BOSTON HOUSING PARTNERSHIP INC,042775991,Human Services,1411 TREMONT ST,BOSTON,MA,02120-3401,,"Human Services organization in BOSTON, MA with annual revenue of approximately $359M",
L C IND INC,560686307,Human Services,4500 EMPEROR BLVD,DURHAM,NC,27703-8420,,"Human Services organization in DURHAM, NC with annual revenue of approximately $359M",
LIFEBRIDGE HEALTH INC,521402373,Health,10090 RED RUN BLVD,OWINGS MILLS,MD,21117-4827,,"Health organization in OWINGS MILLS, MD with annual revenue of approximately $358M",
HOLLAND COMMUNITY HOSPITAL,382800065,Health,602 MICHIGAN AVE,HOLLAND,MI,49423-4918,,"Health organization in HOLLAND, MI with annual revenue of approximately $358M",
BABSON COLLEGE,042103544,Education,231 FOREST STREET ROOM 161 NIC,WELLESLEY,MA,02481-6834,,"Education organization in WELLESLEY, MA with annual revenue of approximately $358M",
