name,ein,category,address,city,state,zip_code,website,description,phone
FLORIDA COMMUNITY HEALTH CENTERS INC,591671640,Other,5827 CORPORATE WAY,WEST PALM BEACH,FL,33407-2000,,"Other organization in WEST PALM BEACH, FL with annual revenue of approximately $48M",
COMMUNITY SYSTEMS INC,510281350,Human Services,2 PENNS WAY STE 301,NEW CASTLE,DE,19720-2407,,"Human Services organization in NEW CASTLE, DE with annual revenue of approximately $48M",
KENAN-FLAGLER BUSINESS SCHOOL FOUNDATION,560771850,Education,205 KENAN CENTER CB 3490,CHAPEL HILL,NC,27599-3490,,"Education organization in CHAPEL HILL, NC with annual revenue of approximately $48M",
UNITED JEWISH FOUNDATION,381360585,Community,6735 TELEGRAPH ROAD,BLOOMFIELD HILLS,MI,48301-3141,,"Community organization in BLOOMFIELD HILLS, MI with annual revenue of approximately $48M",
LIFESHARE BLOOD CENTER,720511367,Other,8910 LINWOOD AVE,SHREVEPORT,LA,71106-6508,,"Other organization in SHREVEPORT, LA with annual revenue of approximately $48M",
KING SCHOOL INCORPORATED,061229222,Education,1450 NEWFIELD AVE,STAMFORD,CT,06905-1501,,"Education organization in STAMFORD, CT with annual revenue of approximately $48M",
DTCARE,833344803,Human Services,301 MOON CLINTON RD,MOON TOWNSHIP,PA,15108-2431,,"Human Services organization in MOON TOWNSHIP, PA with annual revenue of approximately $47M",
MIAMI VALLEY CHILD DEVELOPMENT CENTERS INC,310713127,Human Services,215 HORACE ST,DAYTON,OH,45402-8318,,"Human Services organization in DAYTON, OH with annual revenue of approximately $47M",
SOUTHEASTERN OHIO REGIONAL MEDICAL CENTER,314391798,Health,1341 CLARK ST,CAMBRIDGE,OH,43725-9614,,"Health organization in CAMBRIDGE, OH with annual revenue of approximately $47M",
SUSTAINABLE MARKETS FOUNDATION,134188834,Environment,40 W 37TH ST RM 1000,NEW YORK,NY,10018-7311,,"Environment organization in NEW YORK, NY with annual revenue of approximately $47M",
PRESTERA CENTER FOR MENTAL HEALTH,550492369,Health,55 DONOHOE DR,HUNTINGTON,WV,25705-8887,,"Health organization in HUNTINGTON, WV with annual revenue of approximately $47M",
SOUTHERN APPALACHIAN HIGHLANDS CONSERVANCY,621098890,Environment,372 MERRIMON AVE,ASHEVILLE,NC,28801-1222,,"Environment organization in ASHEVILLE, NC with annual revenue of approximately $47M",
HIVELY,942379571,Human Services,213 E PACIFIC AVE,FAIRFIELD,CA,94533-2253,,"Human Services organization in FAIRFIELD, CA with annual revenue of approximately $47M",
COLBY-SAWYER COLLEGE,020222120,Education,541 MAIN ST,NEW LONDON,NH,03257-7818,,"Education organization in NEW LONDON, NH with annual revenue of approximately $47M",
GOOD SHEPHERD HOSPICE,112958438,Other,110 BI COUNTY BLVD STE 114,FARMINGDALE,NY,11735-3923,,"Other organization in FARMINGDALE, NY with annual revenue of approximately $47M",
NORTHERN CALIFORNIA RETIRED OFFICERS COMMUNITY,680317185,Human Services,2600 ESTATES DR,FAIRFIELD,CA,94533-9711,,"Human Services organization in FAIRFIELD, CA with annual revenue of approximately $47M",
ROCHESTER AREA COMMUNITY FOUNDATION,237250641,Community,500 EAST AVENUE,ROCHESTER,NY,14607-1949,,"Community organization in ROCHESTER, NY with annual revenue of approximately $47M",
JOHN KNOX VILLAGE OF CENTRAL FLORIDA INC,591831906,Human Services,101 NORTHLAKE DR,ORANGE CITY,FL,32763-6167,,"Human Services organization in ORANGE CITY, FL with annual revenue of approximately $47M",
NORTH CAROLINA COMMUNITY FOUNDATION INC,581661700,Community,3737 GLENWOOD AVE STE 460,RALEIGH,NC,27612-5505,,"Community organization in RALEIGH, NC with annual revenue of approximately $47M",
LANCASTER BIBLE COLLEGE,231484178,Education,901 EDEN RD,LANCASTER,PA,17601-5036,,"Education organization in LANCASTER, PA with annual revenue of approximately $47M",
PACIFIC LEGAL FOUNDATION,942197343,Human Services,555 CAPITOL MALL STE 1290,SACRAMENTO,CA,95814-4605,,"Human Services organization in SACRAMENTO, CA with annual revenue of approximately $47M",
EDEN AUTISM SERVICES INC,222069597,Other,2 MERWICK RD,PRINCETON,NJ,08540-5730,,"Other organization in PRINCETON, NJ with annual revenue of approximately $47M",
SERENITY CARE INC,680620485,Human Services,PO BOX 2006,ANDOVER,MA,01810-0106,,"Human Services organization in ANDOVER, MA with annual revenue of approximately $47M",
VIRGINIA GAY HOSPITAL INC,421231996,Health,504 N 9TH AVE,VINTON,IA,52349-2254,,"Health organization in VINTON, IA with annual revenue of approximately $47M",
UNIVERSITY OF MOBILE INC,630417508,Education,5375 COLLEGE PARKWAY,MOBILE,AL,36613-0000,,"Education organization in MOBILE, AL with annual revenue of approximately $47M",
VISTA DEL MAR CHILD AND FAMILY SERVICES,951647832,Human Services,5 GREENWICH OFFICE PARK STE 440,GREENWICH,CT,06831-5192,,"Human Services organization in GREENWICH, CT with annual revenue of approximately $47M",
CATHOLIC CHARITIES OF DIOCESE OF ALBANY,141340033,Other,40 N MAIN AVE,ALBANY,NY,12203-1481,,"Other organization in ALBANY, NY with annual revenue of approximately $47M",
THE WRIGHT CENTER FOR GRADUATE MEDICAL EDUCATION,232007832,Health,501 S WASHINGTON AVE STE 1000,SCRANTON,PA,18505-3805,,"Health organization in SCRANTON, PA with annual revenue of approximately $47M",
YOUNG MENS CHRISTIAN ASSOCIATION OF SNOHOMISH COUNTY,910565561,Other,PO BOX 419,EVERETT,WA,98206-0419,,"Other organization in EVERETT, WA with annual revenue of approximately $47M",
PLANNED PARENTHOOD OF NORTHERN CENTRAL AND SOUTHERN NEW JERSEY IN,221643997,Health,196 SPEEDWELL AVE,MORRISTOWN,NJ,07960-2934,,"Health organization in MORRISTOWN, NJ with annual revenue of approximately $47M",
FIVE RIVERS HEALTH CENTERS,450914398,Health,721 MIAMI CHAPEL RD,DAYTON,OH,45417-4650,,"Health organization in DAYTON, OH with annual revenue of approximately $47M",
ELECTRICAL TRAINING ALLIANCE,530212938,Human Services,5001 HOWERTON WAY,BOWIE,MD,20715-4459,,"Human Services organization in BOWIE, MD with annual revenue of approximately $47M",
FORT LOUDOUN MEDICAL CENTER,621373691,Health,1420 CENTERPOINT BLVD BLDG C,KNOXVILLE,TN,37932-1960,,"Health organization in KNOXVILLE, TN with annual revenue of approximately $47M",
ALL MY CHILDREN DAY CARE AND NURSERY SCHOOL,113371679,Human Services,800 EMPIRE BLVD,BROOKLYN,NY,11213-5627,,"Human Services organization in BROOKLYN, NY with annual revenue of approximately $47M",
JEWISH FEDERATION OF GREATER PITTSBURGH,251017602,Community,2000 TECHNOLOGY DR FL 1,PITTSBURGH,PA,15219-3112,,"Community organization in PITTSBURGH, PA with annual revenue of approximately $47M",
PRINCETON DAY SCHOOL INC,210727645,Education,PO BOX 75,PRINCETON,NJ,08542-0075,,"Education organization in PRINCETON, NJ with annual revenue of approximately $47M",
EASTCONN REGIONAL EDUCATIONAL SERVICE CENTER INCORPORATED,061023768,Other,376 HARTFORD TPKE,HAMPTON,CT,06247-1320,,"Other organization in HAMPTON, CT with annual revenue of approximately $47M",
PROVISION MINISTRY INC,815481524,Community,7 THOMAS NEWTON DR,WESTBOROUGH,MA,01581-1753,,"Community organization in WESTBOROUGH, MA with annual revenue of approximately $47M",
OPPORTUNITY INTERNATIONAL INC,540907624,International,101 N WACKER DR STE 1150,CHICAGO,IL,60606-7304,,"International organization in CHICAGO, IL with annual revenue of approximately $47M",
DISCOVERY HEALTH SCIENCES FOUNDATION INC,453761886,Education,3837 LOYOLA DR,KENNER,LA,70065-7703,,"Education organization in KENNER, LA with annual revenue of approximately $47M",
COSTA SALUD COMMUNITY HEALTH CENTERS INC,660428488,Health,PO BOX 638,RINCON,PR,00677-0638,,"Health organization in RINCON, PR with annual revenue of approximately $47M",
CENTRACARE HEALTH SYSTEM SAUK CENTRE,452438973,Health,425 ELM ST N,SAUK CENTRE,MN,56378-1010,,"Health organization in SAUK CENTRE, MN with annual revenue of approximately $47M",
UNITED WAY OF SAN ANTONIO & BEXAR COUNTY,741272381,Community,700 S ALAMO ST,SAN ANTONIO,TX,78205-3404,,"Community organization in SAN ANTONIO, TX with annual revenue of approximately $47M",
UNIVERSITY AT ALBANY FOUNDATION,141503972,Education,1400 WASHINGTON AVE UAB226,ALBANY,NY,12222-0100,,"Education organization in ALBANY, NY with annual revenue of approximately $47M",
BENEVOLENT & PROTECTIVE ORDER OF ELKS OF THE USA,360793011,Other,2750 N LAKEVIEW AVE,CHICAGO,IL,60614-2256,,"Other organization in CHICAGO, IL with annual revenue of approximately $47M",
WEST SIDE COMMUNITY HEALTH SERVICES INC,237156236,Health,380 E LAFAYETTE RD SUITE 200,ST PAUL,MN,55107-1216,,"Health organization in ST PAUL, MN with annual revenue of approximately $47M",
BAKER UNIVERSITY,480543766,Education,PO BOX 65,BALDWIN CITY,KS,66006-0065,,"Education organization in BALDWIN CITY, KS with annual revenue of approximately $47M",
YOUNG MENS CHRISTIAN ASSOCIATION OF GREATER LONG BEACH,951643396,Human Services,3605 LONG BEACH BLVD,LONG BEACH,CA,90807-4013,,"Human Services organization in LONG BEACH, CA with annual revenue of approximately $47M",
NORTHERN KENTUCKY MENTAL HEALTH MENTAL RETARDATION REGIONAL BOARD,610661458,Health,503 FARRELL DR,COVINGTON,KY,41011-3775,,"Health organization in COVINGTON, KY with annual revenue of approximately $47M",
LOWER CAPE FEAR HOSPICE INCORPORATED,561216682,Human Services,1414 PHYSICIANS DR,WILMINGTON,NC,28401-7335,,"Human Services organization in WILMINGTON, NC with annual revenue of approximately $47M",
PARK CENTER INC,351135451,Health,909 E STATE BLVD,FORT WAYNE,IN,46805-3404,,"Health organization in FORT WAYNE, IN with annual revenue of approximately $47M",
NATIONAL PARKS CONSERVATION ASSOCIATION,530225165,Environment,777 6TH ST NW STE 700,WASHINGTON,DC,20001-4835,,"Environment organization in WASHINGTON, DC with annual revenue of approximately $47M",
MOSES LAKE COMMUNITY HEALTH CENTER,911537371,Health,605 S COOLIDGE ST,MOSES LAKE,WA,98837-1873,,"Health organization in MOSES LAKE, WA with annual revenue of approximately $47M",
SACRED HEART COMMUNITY SERVICE,237179787,Human Services,1381 S 1ST ST,SAN JOSE,CA,95110-3431,,"Human Services organization in SAN JOSE, CA with annual revenue of approximately $47M",
WILLIAM JEWELL COLLEGE,440545914,Education,500 COLLEGE HL,LIBERTY,MO,64068-1843,,"Education organization in LIBERTY, MO with annual revenue of approximately $47M",
INCEPTIA,920907062,Education,PO BOX 82507,LINCOLN,NE,68501-2507,,"Education organization in LINCOLN, NE with annual revenue of approximately $47M",
FAMILY HEALTH CENTER,610716483,Health,2215 PORTLAND AVE,LOUISVILLE,KY,40212-1033,,"Health organization in LOUISVILLE, KY with annual revenue of approximately $47M",
VIECARE BEAVER LLC,260363509,Human Services,191 SCHARBERRY LN,MARS,PA,16046-2429,,"Human Services organization in MARS, PA with annual revenue of approximately $47M",
LANTERN HILL INC,371742780,Human Services,813 MAIDEN CHOICE LN,CATONSVILLE,MD,21228-3679,,"Human Services organization in CATONSVILLE, MD with annual revenue of approximately $47M",
MERIDIAN INTERNATIONAL CENTER,530259663,International,1630 CRESCENT PL NW,WASHINGTON,DC,20009-4004,,"International organization in WASHINGTON, DC with annual revenue of approximately $47M",
POST GRADUATE CENTER FOR MENTAL HEALTH,131656681,Other,158 E 35TH ST,NEW YORK,NY,10016-4102,,"Other organization in NEW YORK, NY with annual revenue of approximately $47M",
HOUSING ASSISTANCE CORPORATION,237431255,Human Services,255 INDEPENDENCE DR,HYANNIS,MA,02601-1854,,"Human Services organization in HYANNIS, MA with annual revenue of approximately $47M",
LEGACY TRADITIONAL SCHOOLS - NEVADA INC,811370901,Education,3125 S GILBERT RD,CHANDLER,AZ,85286-5194,,"Education organization in CHANDLER, AZ with annual revenue of approximately $47M",
NEW JERSEY INSTITUTE FOR DISABILITIES INC,221554528,Health,ROOSEVELT PARK 10-A OAK DR,EDISON,NJ,08837-0000,,"Health organization in EDISON, NJ with annual revenue of approximately $47M",
FRANZISKA RACKER CENTERS INC,150581887,Human Services,3226 WILKINS RD,ITHACA,NY,14850-9568,,"Human Services organization in ITHACA, NY with annual revenue of approximately $47M",
SOUTH METRO HUMAN SERVICES,411712779,Human Services,166 4TH ST E,SAINT PAUL,MN,55101-1400,,"Human Services organization in SAINT PAUL, MN with annual revenue of approximately $47M",
NORTHEAST PROFESSIONAL REGISTRY OF NURSES INC,201287349,Health,CO BILH TAX 529 MAIN ST 4TH FL,CHARLESTOWN,MA,02129-0000,,"Health organization in CHARLESTOWN, MA with annual revenue of approximately $47M",
INTERCOMMUNITY INC,060954809,Health,800 CONNECTICUT BLVD FL 4,EAST HARTFORD,CT,06108-3239,,"Health organization in EAST HARTFORD, CT with annual revenue of approximately $47M",
THE ACCREDITATION COMMISSION FOR HEALTH CARE INC,561540225,Human Services,139 WESTON OAKS CT,CARY,NC,27513-2256,,"Human Services organization in CARY, NC with annual revenue of approximately $47M",
EDP UNIVERSITY OF PUERTO RICO INC,660277132,Education,PO BOX 192303,SAN JUAN,PR,00919-2303,,"Education organization in SAN JUAN, PR with annual revenue of approximately $47M",
LANDON SCHOOL CORPORATION,520635092,Education,6101 WILSON LN,BETHESDA,MD,20817-3107,,"Education organization in BETHESDA, MD with annual revenue of approximately $47M",
C2C INNOVATIVE SOLUTIONS INC,473641754,Health,3107 OAK CREEK DR STE 200,AUSTIN,TX,78727-3107,,"Health organization in AUSTIN, TX with annual revenue of approximately $47M",
MORRIS HALL ST LAWRENCE INC,223227943,Health,2381 LAWRENCE RD,LAWRENCEVILLE,NJ,08648-2025,,"Health organization in LAWRENCEVILLE, NJ with annual revenue of approximately $47M",
EMERALD DEVELOPMENT AND ECONOMIC,341667990,Human Services,7812 MADISON AVE,CLEVELAND,OH,44102-4056,,"Human Services organization in CLEVELAND, OH with annual revenue of approximately $47M",
AMERICAN INSTITUTE OF CHEMICAL ENGINEERS,131623892,Other,120 WALL ST FL 23,NEW YORK,NY,10005-4020,,"Other organization in NEW YORK, NY with annual revenue of approximately $47M",
COMIC RELIEF INC,010885377,Community,120 BROADWAY 22ND FLOOR,NEW YORK,NY,10271-0042,,"Community organization in NEW YORK, NY with annual revenue of approximately $47M",
TEJANO CENTER FOR COMMUNITY CONCERNS INC,760377101,Human Services,2950 BROADWAY ST,HOUSTON,TX,77017-1706,,"Human Services organization in HOUSTON, TX with annual revenue of approximately $47M",
BAPTIST MEMORIAL HEALTH CARE FOUNDATION,581544781,Health,350 N HUMPHREYS BLVD,MEMPHIS,TN,38120-2177,,"Health organization in MEMPHIS, TN with annual revenue of approximately $47M",
TOLEDO ZOOLOGICAL SOCIETY,344440256,Health,PO BOX 140130,TOLEDO,OH,43614-0130,,"Health organization in TOLEDO, OH with annual revenue of approximately $47M",
PIERCE COUNTY RURAL LIBRARY DISTRICT,911098071,Education,3005 112TH ST E,TACOMA,WA,98446-2215,,"Education organization in TACOMA, WA with annual revenue of approximately $47M",
ORANGE COUNTY SCHOOL OF THE ARTS,330891574,Education,1010 N MAIN ST,SANTA ANA,CA,92701-3602,,"Education organization in SANTA ANA, CA with annual revenue of approximately $47M",
KIPP TECH VALLEY CHARTER SCHOOL,201347748,Education,321 NORTHERN BLVD,ALBANY,NY,12210-2635,,"Education organization in ALBANY, NY with annual revenue of approximately $47M",
CEN-CLEAR CHILD SERVICES INC,251378446,Human Services,50 BIGLER RD,WOODLAND,PA,16881-8102,,"Human Services organization in WOODLAND, PA with annual revenue of approximately $47M",
ANABAPTIST FINANCIAL,320158554,Community,55 WHISPER CREEK DR,LEWISBURG,PA,17837-7771,,"Community organization in LEWISBURG, PA with annual revenue of approximately $47M",
EAST VALLEY COMMUNITY HEALTH CENTER INC,237068586,Other,420 S GLENDORA AVE,WEST COVINA,CA,91790-3001,,"Other organization in WEST COVINA, CA with annual revenue of approximately $47M",
INSTITUTE FOR STUDY ABROAD INC,621355896,International,6201 CORPORATE DR STE 200,INDIANAPOLIS,IN,46278-2944,,"International organization in INDIANAPOLIS, IN with annual revenue of approximately $47M",
GOODWILL OF THE GREAT PLAINS,420727509,Human Services,3100 W 4TH ST,SIOUX CITY,IA,51103-3202,,"Human Services organization in SIOUX CITY, IA with annual revenue of approximately $47M",
NASHVILLE ZOO INC,621411210,Health,3777 NOLENSVILLE ROAD,NASHVILLE,TN,37211-3324,,"Health organization in NASHVILLE, TN with annual revenue of approximately $47M",
NORTH CAROLINA WESLEYAN UNIVERSITY,560686603,Education,3400 N WESLEYAN BLVD,ROCKY MOUNT,NC,27804-8699,,"Education organization in ROCKY MOUNT, NC with annual revenue of approximately $47M",
HAWAII FOODBANK,990220699,Human Services,2611 KILIHAU ST,HONOLULU,HI,96819-2021,,"Human Services organization in HONOLULU, HI with annual revenue of approximately $47M",
GODS LOVE WE DELIVER INC,133366846,Human Services,166 AVENUE OF THE AMERICAS,NEW YORK,NY,10013-1207,,"Human Services organization in NEW YORK, NY with annual revenue of approximately $47M",
HUNTINGTON MEDICAL FOUNDATION,954434428,Health,100 W CALIFORNIA BLVD,PASADENA,CA,91105-3010,,"Health organization in PASADENA, CA with annual revenue of approximately $47M",
MHT HOUSING IV INC,383384042,Human Services,32500 TELEGRAPH RD STE 100,BINGHAM FARMS,MI,48025-2462,,"Human Services organization in BINGHAM FARMS, MI with annual revenue of approximately $47M",
VIRGINIA INNOVATION PARTNERSHIP CORPORATION,541282820,Research,2214 ROCK HILL RD STE 600,HERNDON,VA,20170-4228,,"Research organization in HERNDON, VA with annual revenue of approximately $47M",
CARNEGIE LIBRARY OF PITTSBURGH,250965281,Education,4400 FORBES AVE,PITTSBURGH,PA,15213-4007,,"Education organization in PITTSBURGH, PA with annual revenue of approximately $47M",
SAN DOMENICO SCHOOL,946080077,Education,1500 BUTTERFIELD RD,SAN ANSELMO,CA,94960-1057,,"Education organization in SAN ANSELMO, CA with annual revenue of approximately $47M",
HOOSIER CARE INC,311262572,Other,103 POWELL CT STE 460,BRENTWOOD,TN,37027-7046,,"Other organization in BRENTWOOD, TN with annual revenue of approximately $47M",
BUCKLEY SCHOOL,951750023,Other,3900 STANSBURY AVE,SHERMAN OAKS,CA,91423-4618,,"Other organization in SHERMAN OAKS, CA with annual revenue of approximately $47M",
LANTERN COMMUNITY SERVICES INC,133910692,Human Services,575 8TH AVE,NEW YORK,NY,10018-3011,,"Human Services organization in NEW YORK, NY with annual revenue of approximately $47M",
COMMUNITY ACTION PARTNERSHIP OF ORANGE COUNTY,952452787,Other,11870 MONARCH ST,GARDEN GROVE,CA,92841-2113,,"Other organization in GARDEN GROVE, CA with annual revenue of approximately $47M",
NAVOS,910848698,Health,PO BOX 46420,SEATTLE,WA,98146-0420,,"Health organization in SEATTLE, WA with annual revenue of approximately $47M",
GAINESVILLE COMMUNITY HOSPITAL INC,831683025,Health,1900 HOSPITAL BLVD,GAINESVILLE,TX,76240-2002,,"Health organization in GAINESVILLE, TX with annual revenue of approximately $47M",
MICHIGAN HEALTH INFORMATION TECHNOLOGY NETWORK SHARED SERVICE,273871301,Health,120 N WASHINGTON SQUARE STE 316,LANSING,MI,48933-1617,,"Health organization in LANSING, MI with annual revenue of approximately $47M",
YOUNG HARRIS COLLEGE,580593414,Education,PO BOX 68,YOUNG HARRIS,GA,30582-0068,,"Education organization in YOUNG HARRIS, GA with annual revenue of approximately $47M",
STUDENT CONSERVATION ASSOCIATION INC,910880684,Other,1310 N COURTHOUSE RD STE 110,ARLINGTON,VA,22201-2594,,"Other organization in ARLINGTON, VA with annual revenue of approximately $47M",
DALLAS COLLEGE FOUNDATION INC,237326612,Education,1601 BOTHAM JEAN BLVD,DALLAS,TX,75215-1816,,"Education organization in DALLAS, TX with annual revenue of approximately $47M",
NYSARC INC,141563885,Human Services,10 ST PATRICK PL,PORT HENRY,NY,12974-1200,,"Human Services organization in PORT HENRY, NY with annual revenue of approximately $47M",
BIG SANDY HEALTH CARE INC,610849776,Other,1709 KY ROUTE 321 STE 3,PRESTONSBURG,KY,41653-9097,,"Other organization in PRESTONSBURG, KY with annual revenue of approximately $47M",
COMMUNITY ACTION COMMITTEE OF THE LEHIGH VALLEY INC,231669589,Other,1337 E 5TH ST,BETHLEHEM,PA,18015-2103,,"Other organization in BETHLEHEM, PA with annual revenue of approximately $47M",
ST NICKS ALLIANCE CORP,510192170,Community,2 KINGSLAND AVE,BROOKLYN,NY,11211-1695,,"Community organization in BROOKLYN, NY with annual revenue of approximately $47M",
C40 CITIES CLIMATE LEADERSHIP GROUP INC,900634376,Environment,120 PARK AVENUE FLOOR 23,NEW YORK,NY,10017-5577,,"Environment organization in NEW YORK, NY with annual revenue of approximately $47M",
MENTAL HEALTH RESOURCE CENTER INC,591905344,Health,PO BOX 19249,JACKSONVILLE,FL,32245-9249,,"Health organization in JACKSONVILLE, FL with annual revenue of approximately $47M",
SEATTLE INDIAN HEALTH BOARD,910869056,Health,611 12TH AVE S,SEATTLE,WA,98144-2007,,"Health organization in SEATTLE, WA with annual revenue of approximately $47M",
HOMEBOY INDUSTRIES,954800735,Human Services,130 BRUNO ST,LOS ANGELES,CA,90012-1815,,"Human Services organization in LOS ANGELES, CA with annual revenue of approximately $47M",
THE CONNECTION INC,060886125,Health,100 ROSCOMMON DR STE 203,MIDDLETOWN,CT,06457-7558,,"Health organization in MIDDLETOWN, CT with annual revenue of approximately $47M",
SCHUYLER HOSPITAL INC,150533564,Health,220 STEUBEN ST,MONTOUR FALLS,NY,14865-9740,,"Health organization in MONTOUR FALLS, NY with annual revenue of approximately $47M",
CITY UNIVERSITY OF SEATTLE,237421224,Education,521 WALL ST STE 100,SEATTLE,WA,98121-1851,,"Education organization in SEATTLE, WA with annual revenue of approximately $47M",
LIFE CARE PONTE VEDRA INC,592555812,Human Services,1000 VICARS LANDING WAY,PONTE VEDRA BEACH,FL,32082-3151,,"Human Services organization in PONTE VEDRA BEACH, FL with annual revenue of approximately $47M",
STARFISH FAMILY SERVICES INC,382230416,Human Services,30000 HIVELEY ST,INKSTER,MI,48141-1089,,"Human Services organization in INKSTER, MI with annual revenue of approximately $47M",
BASSETT HOSPITAL OF SCHOHARIE COUNTY,141772971,Health,41 GRANDVIEW DR,COBLESKILL,NY,12043-1533,,"Health organization in COBLESKILL, NY with annual revenue of approximately $47M",
PROVIDENCE ST JOSEPH MEDICAL CENTER,810463482,Health,PO BOX 389672,SEATTLE,WA,98138-9672,,"Health organization in SEATTLE, WA with annual revenue of approximately $47M",
IMMANUEL RETIREMENT COMMUNITIES,470799108,Human Services,1044 N 115TH ST STE 500,OMAHA,NE,68154-4410,,"Human Services organization in OMAHA, NE with annual revenue of approximately $47M",
PALISADES CHARTER HIGH SCHOOL,920184898,Education,15777 BOWDOIN ST,PACIFIC PLSDS,CA,90272-3523,,"Education organization in PACIFIC PLSDS, CA with annual revenue of approximately $47M",
THE HUN SCHOOL OF PRINCETON,210639868,Education,176 EDGERSTOUNE RD,PRINCETON,NJ,08540-6778,,"Education organization in PRINCETON, NJ with annual revenue of approximately $47M",
BROOKLYN ACADEMY OF MUSIC INC,112201344,Other,30 LAFAYETTE AVE,BROOKLYN,NY,11217-1430,,"Other organization in BROOKLYN, NY with annual revenue of approximately $47M",
DEER RIVER HEALTH CARE CENTER INC,410844574,Health,115 10TH AVE NE,DEER RIVER,MN,56636-8795,,"Health organization in DEER RIVER, MN with annual revenue of approximately $47M",
JEWISH FEDERATION OF SOUTHERN NEW JERSEY,210634489,Community,1301 SPRINGDALE RD,CHERRY HILL,NJ,08003-2763,,"Community organization in CHERRY HILL, NJ with annual revenue of approximately $47M",
PANCREATIC CANCER ACTION NETWORK INC,330841281,Health,2101 ROSECRANS AVE STE 3200,EL SEGUNDO,CA,90245-7512,,"Health organization in EL SEGUNDO, CA with annual revenue of approximately $47M",
INDIANA UNIVERSITY HEALTH TIPTON HOSPITAL INC,262772226,Health,950 N MERIDIAN ST STE 1200,INDIANAPOLIS,IN,46204-1011,,"Health organization in INDIANAPOLIS, IN with annual revenue of approximately $47M",
SPORTS LEADERSHIP AND MANAGEMENT INC,271604001,Education,604 NW 12TH AVE,MIAMI,FL,33136-3610,,"Education organization in MIAMI, FL with annual revenue of approximately $47M",
MEMORIAL HEALTH CARE SYSTEMS,470375220,Health,300 N COLUMBIA AVE,SEWARD,NE,68434-2228,,"Health organization in SEWARD, NE with annual revenue of approximately $47M",
PLANNED PARENTHOOD SOUTH ATLANTIC,561282557,Health,100 S BOYLAN AVE,RALEIGH,NC,27603-1802,,"Health organization in RALEIGH, NC with annual revenue of approximately $47M",
SPALDING UNIVERSITY,610444780,Education,845 S 3RD ST,LOUISVILLE,KY,40203-2213,,"Education organization in LOUISVILLE, KY with annual revenue of approximately $47M",
CAMFED U S A FOUNDATION,542033897,International,1 EMBARCADERO CTR STE 1200,SAN FRANCISCO,CA,94111-3617,,"International organization in SAN FRANCISCO, CA with annual revenue of approximately $47M",
CHRISTIAN SOCIAL SERVICE OF ILLINOIS,370661500,Human Services,8601 WEST MAIN STREET SUITE 20,BELLEVILLE,IL,62223-1719,,"Human Services organization in BELLEVILLE, IL with annual revenue of approximately $47M",
LIMESTONE UNIVERSITY,570314402,Education,1115 COLLEGE DR,GAFFNEY,SC,29340-3778,,"Education organization in GAFFNEY, SC with annual revenue of approximately $47M",
UNITED METHODIST HOMES OF NEW JERSEY,210634464,Human Services,205 JUMPING BROOK RD,NEPTUNE,NJ,07753-3197,,"Human Services organization in NEPTUNE, NJ with annual revenue of approximately $47M",
CHILD & FAMILY SERVICES INC,042104754,Other,3057 ACUSHNET AVE,NEW BEDFORD,MA,02745-3636,,"Other organization in NEW BEDFORD, MA with annual revenue of approximately $47M",
MOORE CENTER SERVICES INC,020261136,Human Services,195 MCGREGOR ST STE 400,MANCHESTER,NH,03102-3779,,"Human Services organization in MANCHESTER, NH with annual revenue of approximately $47M",
NORTHWEST UNIVERSITY,910615846,Other,PO BOX 579,KIRKLAND,WA,98083-0579,,"Other organization in KIRKLAND, WA with annual revenue of approximately $47M",
SOUTHCOAST VISITING NURSE ASSOCIATION INC,042105745,Health,200 MILL RD STE 120,FAIRHAVEN,MA,02719-5252,,"Health organization in FAIRHAVEN, MA with annual revenue of approximately $47M",
INTEGRATION CHARTER SCHOOLS,472459523,Education,ONE TELEPORT DRIVE,STATEN ISLAND,NY,10311-1007,,"Education organization in STATEN ISLAND, NY with annual revenue of approximately $46M",
AMERICA CAN,752251099,Education,325 W 12TH ST,DALLAS,TX,75208-6502,,"Education organization in DALLAS, TX with annual revenue of approximately $46M",
SUN BELT CONFERENCE,582085078,Human Services,1500 SUGAR BOWL DR,NEW ORLEANS,LA,70112-1255,,"Human Services organization in NEW ORLEANS, LA with annual revenue of approximately $46M",
MOUNT VERNON NEIGHBORHOOD HEALTH CENTER INC,133315508,Health,107 W 4TH ST,MT VERNON,NY,10550-4002,,"Health organization in MT VERNON, NY with annual revenue of approximately $46M",
COMPASS INC,522112412,Human Services,12400 KILN CT STE A,BELTSVILLE,MD,20705-1317,,"Human Services organization in BELTSVILLE, MD with annual revenue of approximately $46M",
MEETING STREET SCHOOLS,204587841,Education,200 MEETING ST STE 206,CHARLESTON,SC,29401-3187,,"Education organization in CHARLESTON, SC with annual revenue of approximately $46M",
FRONTIER NURSING UNIVERSITY INC,611124267,Education,2050 LEXINGTON RD,VERSAILLES,KY,40383-1738,,"Education organization in VERSAILLES, KY with annual revenue of approximately $46M",
MANN CENTER FOR THE PERFORMING ARTS,231473884,Arts & Culture,123 S BROAD ST STE 815,PHILADELPHIA,PA,19109-1048,,"Arts & Culture organization in PHILADELPHIA, PA with annual revenue of approximately $46M",
CARING HEALTH CENTER INC,042620040,Health,1049 MAIN ST,SPRINGFIELD,MA,01103-2114,,"Health organization in SPRINGFIELD, MA with annual revenue of approximately $46M",
VISITING NURSE SERVICE OF NEW YORK,133189926,Health,220 E 42ND ST,NEW YORK,NY,10017-5835,,"Health organization in NEW YORK, NY with annual revenue of approximately $46M",
LOUISIANA ORGAN PROCUREMENT AGENCY,721110932,Health,68190 HIGHWAY 190 SERVICE RD,COVINGTON,LA,70433-5271,,"Health organization in COVINGTON, LA with annual revenue of approximately $46M",
MHS PHYSICIANS OF TEXAS,760385980,Health,929 GESSNER RD STE 1900,HOUSTON,TX,77024-2317,,"Health organization in HOUSTON, TX with annual revenue of approximately $46M",
UNITED HOSPITAL DISTRICT INC,454165628,Health,515 S MOORE ST,BLUE EARTH,MN,56013-2158,,"Health organization in BLUE EARTH, MN with annual revenue of approximately $46M",
READYONE INDUSTRIES INC,742544266,Human Services,1414 ABILITY DR,EL PASO,TX,79936-6415,,"Human Services organization in EL PASO, TX with annual revenue of approximately $46M",
INTRAHEALTH INTERNATIONAL INC,550825466,Health,6340 QUADRANGLE DR STE 200,CHAPEL HILL,NC,27517-7891,,"Health organization in CHAPEL HILL, NC with annual revenue of approximately $46M",
CHILD PARENT CENTERS INC,860204557,Education,602 E 22ND ST,TUCSON,AZ,85713-1701,,"Education organization in TUCSON, AZ with annual revenue of approximately $46M",
KNOX AREA RESCUE MINISTRIES,620670972,Human Services,418 N BROADWAY ST,KNOXVILLE,TN,37917-7401,,"Human Services organization in KNOXVILLE, TN with annual revenue of approximately $46M",
ALABAMA CHILDRENS HOSPITAL FOUNDATION,630879471,Health,1600 7TH AVE S,BIRMINGHAM,AL,35233-1711,,"Health organization in BIRMINGHAM, AL with annual revenue of approximately $46M",
GRACELAND UNIVERSITY,420707114,Education,1 UNIVERSITY PL,LAMONI,IA,50140-1641,,"Education organization in LAMONI, IA with annual revenue of approximately $46M",
AMERICAN FRIENDS OF RABBINICAL COLLEGE OF TELZSTONE INC,133503955,Education,510 2ND ST,LAKEWOOD,NJ,08701-2533,,"Education organization in LAKEWOOD, NJ with annual revenue of approximately $46M",
COASTLINE ELDERLY SERVICES INC,042622121,Human Services,863 BELLEVILLE AVE,NEW BEDFORD,MA,02745-6209,,"Human Services organization in NEW BEDFORD, MA with annual revenue of approximately $46M",
SUMMIT ACADEMY MANAGEMENT,341938197,Education,2791 MOGADORE RD,AKRON,OH,44312-1504,,"Education organization in AKRON, OH with annual revenue of approximately $46M",
LINBECK FAMILY CHARITABLE TR,277099515,Community,515 POST OAK BLVD 1000,HOUSTON,TX,77027-9482,,"Community organization in HOUSTON, TX with annual revenue of approximately $46M",
MAPLE KNOLL COMMUNITIES INC,310544277,Human Services,11100 SPRINGFIELD PIKE,CINCINNATI,OH,45246-4112,,"Human Services organization in CINCINNATI, OH with annual revenue of approximately $46M",
REHABILITATION HOSPITAL OF INDIANA INC,351786005,Health,4141 SHORE DR,INDIANAPOLIS,IN,46254-2607,,"Health organization in INDIANAPOLIS, IN with annual revenue of approximately $46M",
KINGS COMMUNITY ACTION ORGANIZATION INC,941604455,Human Services,1130 N 11TH AVE,HANFORD,CA,93230-3608,,"Human Services organization in HANFORD, CA with annual revenue of approximately $46M",
NEW AMERICA FOUNDATION,522096845,Other,740 15TH ST NW STE 900,WASHINGTON,DC,20005-1031,,"Other organization in WASHINGTON, DC with annual revenue of approximately $46M",
SOUTH SHORE HOSPITAL CORPORATION,361799520,Health,8012 S CRANDON AVE,CHICAGO,IL,60617-1124,,"Health organization in CHICAGO, IL with annual revenue of approximately $46M",
HOME BUILDERS INSTITUTE,521266885,Human Services,1201 15TH ST NW FL 6,WASHINGTON,DC,20005-2899,,"Human Services organization in WASHINGTON, DC with annual revenue of approximately $46M",
BOISE STATE UNIVERSITY FOUNDATION INC,826010706,Education,1173 W UNIVERSITY DR,BOISE,ID,83706-3009,,"Education organization in BOISE, ID with annual revenue of approximately $46M",
LEGAL FOUNDATION OF WASHINGTON,911263533,Human Services,500 UNION ST,SEATTLE,WA,98101-4073,,"Human Services organization in SEATTLE, WA with annual revenue of approximately $46M",
CHRISTIAN RELIEF SERVICES CHARITIES INC,541884868,International,8301 RICHMOND HIGHWAY 900,ALEXANDRIA,VA,22309-2324,,"International organization in ALEXANDRIA, VA with annual revenue of approximately $46M",
GOLDEN GATE UNIVERSITY,941585735,Education,536 MISSION ST,SAN FRANCISCO,CA,94105-2921,,"Education organization in SAN FRANCISCO, CA with annual revenue of approximately $46M",
WILLIAMSBURG LANDING INC,521305909,Human Services,5700 WILLIAMSBURG LANDING DR,WILLIAMSBURG,VA,23185-3779,,"Human Services organization in WILLIAMSBURG, VA with annual revenue of approximately $46M",
PETIT JEAN ELECTRIC COOPERATIVE CORPORATION,710139955,Other,PO BOX 37,CLINTON,AR,72031-0037,,"Other organization in CLINTON, AR with annual revenue of approximately $46M",
ANDERSON CENTER FOR AUTISM,141598279,Education,PO BOX 367,STAATSBURG,NY,12580-0367,,"Education organization in STAATSBURG, NY with annual revenue of approximately $46M",
STEP UP ON SECOND STREET INC,954109386,Human Services,1328 2ND STREET,SANTA MONICA,CA,90401-1122,,"Human Services organization in SANTA MONICA, CA with annual revenue of approximately $46M",
LOGAN UNIVERSITY,430746185,Education,1851 SCHOETTLER RD,CHESTERFIELD,MO,63017-5529,,"Education organization in CHESTERFIELD, MO with annual revenue of approximately $46M",
PEW RESEARCH CENTER,200881724,Research,901 E STREET NW,WASHINGTON,DC,20004-2037,,"Research organization in WASHINGTON, DC with annual revenue of approximately $46M",
BANCO DE ALIMENTOS PUERTO RICO INC,660444882,Human Services,PO BOX 3990,CAROLINA,PR,00984-3990,,"Human Services organization in CAROLINA, PR with annual revenue of approximately $46M",
SUNSET COMMUNITY HEALTH CENTER,860893305,Health,2060 W 24TH ST,YUMA,AZ,85364-6123,,"Health organization in YUMA, AZ with annual revenue of approximately $46M",
HEALTH HELP INCORPORATED,610843731,Other,401 HIGHLAND PARK DR,RICHMOND,KY,40475-3839,,"Other organization in RICHMOND, KY with annual revenue of approximately $46M",
DIRECTION HOME OF EASTERN OHIO INC,341194060,Human Services,1030 N MERIDIAN RD,YOUNGSTOWN,OH,44509-4017,,"Human Services organization in YOUNGSTOWN, OH with annual revenue of approximately $46M",
J A & LETA M CHAPMAN CHARITABLE TR,736112228,Community,PO BOX 1620,TULSA,OK,74101-1620,,"Community organization in TULSA, OK with annual revenue of approximately $46M",
YOUNG MENS CHRISTIAN ASSOCIATION,530207403,Human Services,1112 16TH STREET NW,WASHINGTON,DC,20036-4823,,"Human Services organization in WASHINGTON, DC with annual revenue of approximately $46M",
CHILDRENS BUREAU INC,351061264,Human Services,1575 DR MARTIN LUTHER KING JR ST,INDIANAPOLIS,IN,46202-2250,,"Human Services organization in INDIANAPOLIS, IN with annual revenue of approximately $46M",
GIVE LIVELY FOUNDATION INC,810693451,Community,CO JSCM 888 7TH AVENUE 40TH FL,NEW YORK,NY,10106-0000,,"Community organization in NEW YORK, NY with annual revenue of approximately $46M",
RHA HEALTH SERVICES INC,581863838,Human Services,211 PERIMETER CENTER PKWY 750,ATLANTA,GA,30346-1318,,"Human Services organization in ATLANTA, GA with annual revenue of approximately $46M",
NATIONAL KIDNEY FOUNDATION INC,131673104,Health,30 EAST 33RD STREET,NEW YORK,NY,10016-5337,,"Health organization in NEW YORK, NY with annual revenue of approximately $46M",
UCSF HEALTH MEDICAL FOUNDATION,861175591,Health,6425 CHRISTIE AVE STE 220,EMERYVILLE,CA,94608-1073,,"Health organization in EMERYVILLE, CA with annual revenue of approximately $46M",
ROBERT F KENNEDY COMMUNITY ALLIANCE,042103834,Education,971 MAIN ST,LANCASTER,MA,01523-2569,,"Education organization in LANCASTER, MA with annual revenue of approximately $46M",
HUDSON VALLEY HOSPICE INC,141638619,Human Services,374 VIOLET AVE,POUGHKEEPSIE,NY,12601-1034,,"Human Services organization in POUGHKEEPSIE, NY with annual revenue of approximately $46M",
AMERICAN ACADEMY OF DERMATOLOGY INC,410793046,Health,9500 W BRYN MAWRSUITE500,ROSEMONT,IL,60018-0000,,"Health organization in ROSEMONT, IL with annual revenue of approximately $46M",
SERV CENTERS OF NEW JERSEY INC,222090976,Other,3 AAA DRIVE,HAMILTON TOWNSHIP,NJ,08691-1814,,"Other organization in HAMILTON TOWNSHIP, NJ with annual revenue of approximately $46M",
DANA HALL SCHOOLS,042103562,Education,PO BOX 9010,WELLESLEY,MA,02482-9010,,"Education organization in WELLESLEY, MA with annual revenue of approximately $46M",
GOODWILL INDUSTRIES OF EASTERN NORTH CAROLINA INC,560861003,Human Services,1701 TW ALEXANDER DR,DURHAM,NC,27703-9252,,"Human Services organization in DURHAM, NC with annual revenue of approximately $46M",
ELDER SERVICES OF WORCESTER AREA INC,042545221,Health,67 MILLBROOK ST STE 100,WORCESTER,MA,01606-2842,,"Health organization in WORCESTER, MA with annual revenue of approximately $46M",
PIEDMONT ACCESS TO HEALTH SERVICES INC,542026502,Health,705 MAIN ST,DANVILLE,VA,24541-1803,,"Health organization in DANVILLE, VA with annual revenue of approximately $46M",
NU-WAY HOUSE INC,416052957,Other,2217 NICOLLET AVE,MINNEAPOLIS,MN,55404-3302,,"Other organization in MINNEAPOLIS, MN with annual revenue of approximately $46M",
NEIGHBORHOOD DEFENDER SERVICE INC,061296692,Other,317 LENOX AVE 10TH FL,NEW YORK,NY,10027-4461,,"Other organization in NEW YORK, NY with annual revenue of approximately $46M",
CHILDRENS CARE HOSPITAL & SCHOOL,460233030,Other,2501 W 26TH ST,SIOUX FALLS,SD,57105-2446,,"Other organization in SIOUX FALLS, SD with annual revenue of approximately $46M",
LOS ANGELES OPERA COMPANY,952096402,Arts & Culture,135 N GRAND AVE,LOS ANGELES,CA,90012-3013,,"Arts & Culture organization in LOS ANGELES, CA with annual revenue of approximately $46M",
AMERICAN BOARD OF PEDIATRICS INC,231417504,Health,111 SILVER CEDAR CT,CHAPEL HILL,NC,27514-1692,,"Health organization in CHAPEL HILL, NC with annual revenue of approximately $46M",
VERMONT HOUSING FINANCE AGENCY,030239902,Human Services,164 ST PAUL ST POBOX 408,BURLINGTON,VT,05401-4634,,"Human Services organization in BURLINGTON, VT with annual revenue of approximately $46M",
SECOND HARVEST FOOD BANK OF EAST TENNESSEE,581450139,Other,136 HARVEST LN,MARYVILLE,TN,37801-3930,,"Other organization in MARYVILLE, TN with annual revenue of approximately $46M",
MERAKEY IDD PHILADELPHIA,222454140,Other,620 GERMANTOWN PIKE,LAFAYETTE HL,PA,19444-1810,,"Other organization in LAFAYETTE HL, PA with annual revenue of approximately $46M",
CRYSTAL SPRINGS UPLANDS SCHOOL,941247265,Education,400 UPLANDS DR,HILLSBOROUGH,CA,94010-6946,,"Education organization in HILLSBOROUGH, CA with annual revenue of approximately $46M",
PATH INC,237313698,Other,1919 COTTMAN AVE,PHILADELPHIA,PA,19111-3816,,"Other organization in PHILADELPHIA, PA with annual revenue of approximately $46M",
ERSKINE COLLEGE,570314390,Education,PO BOX 338,DUE WEST,SC,29639-0338,,"Education organization in DUE WEST, SC with annual revenue of approximately $46M",
MARLETTE REGIONAL HOSPITAL,381507302,Health,PO BOX 307,MARLETTE,MI,48453-0307,,"Health organization in MARLETTE, MI with annual revenue of approximately $46M",
THE CHILDRENS CLINIC SERVING CHILDREN AND THEIR FAMILIES,951643332,Other,701 E 28TH ST STE 200,LONG BEACH,CA,90806-2784,,"Other organization in LONG BEACH, CA with annual revenue of approximately $46M",
ACADEMIC MEDICINE SERVICES INC,161455134,Health,4498 MAIN ST STE 23,AMHERST,NY,14226-3826,,"Health organization in AMHERST, NY with annual revenue of approximately $46M",
NINTH DISTRICT OPPORTUNITY INC,580974656,Community,PO BOX L,GAINESVILLE,GA,30503-1912,,"Community organization in GAINESVILLE, GA with annual revenue of approximately $46M",
ATLANTA-FULTON COUNTY ZOO INC,581655184,Health,800 CHEROKEE AVE SE,ATLANTA,GA,30315-1470,,"Health organization in ATLANTA, GA with annual revenue of approximately $46M",
AMERICAN ACADEMY OF ORTHOPEDIC SURGEONS,362110592,Health,9400 W HIGGINS RD STE 500,ROSEMONT,IL,60018-4976,,"Health organization in ROSEMONT, IL with annual revenue of approximately $46M",
OCEANA INC,510401308,Environment,1025 CT AVENUE NW 200,WASHINGTON,DC,20036-0000,,"Environment organization in WASHINGTON, DC with annual revenue of approximately $46M",
ROANE COUNTY MEDICAL CENTER,680673354,Health,1420 CENTERPOINT BLVD BLDG C,KNOXVILLE,TN,37932-1960,,"Health organization in KNOXVILLE, TN with annual revenue of approximately $46M",
UNION COMMUNITY CARE,231909490,Health,454 NEW HOLLAND AVE,LANCASTER,PA,17602-2289,,"Health organization in LANCASTER, PA with annual revenue of approximately $46M",
BRONX FAMILY NETWORK INC,824893510,Human Services,255 BRONX RIVER RD APT 8M,YONKERS,NY,10704-3728,,"Human Services organization in YONKERS, NY with annual revenue of approximately $46M",
MARYVILLE ACADEMY,362170873,Human Services,1150 N RIVER RD,DES PLAINES,IL,60016-1214,,"Human Services organization in DES PLAINES, IL with annual revenue of approximately $46M",
TRI-COUNTY BEHAVIORAL HEALTHCARE,760032662,Other,233 SGT ED HOLCOMB BLVD S,CONROE,TX,77304-1990,,"Other organization in CONROE, TX with annual revenue of approximately $46M",
LITTLE RIVER MEDICAL CENTER INC,570672117,Health,PO BOX 547,LITTLE RIVER,SC,29566-0547,,"Health organization in LITTLE RIVER, SC with annual revenue of approximately $46M",
MAB COMMUNITY SERVICES INC,042109859,Health,200 IVY ST,BROOKLINE,MA,02446-3907,,"Health organization in BROOKLINE, MA with annual revenue of approximately $46M",
ST ANDREWS EPISCOPAL SCHOOL INC,746003626,Education,1112 W 31ST ST,AUSTIN,TX,78705-1902,,"Education organization in AUSTIN, TX with annual revenue of approximately $46M",
GREATER LAWRENCE COMMUNITY ACTION COUNCIL INC,042397449,Other,305 ESSEX STREET 4TH FLOOR,LAWRENCE,MA,01840-1445,,"Other organization in LAWRENCE, MA with annual revenue of approximately $46M",
THOMPSON CHILD & FAMILY FOCUS,560547460,Other,6800 SAINT PETERS LN,MATTHEWS,NC,28105-8458,,"Other organization in MATTHEWS, NC with annual revenue of approximately $46M",
KIDS IN NEED FOUNDATION,821078462,Education,200 S OWASSO BLVD E,LITTLE CANADA,MN,55117-1082,,"Education organization in LITTLE CANADA, MN with annual revenue of approximately $46M",
MONMOUTH MEDICAL CENTER FOUNDATION INC,222456079,Health,300 2ND AVE,LONG BRANCH,NJ,07740-6303,,"Health organization in LONG BRANCH, NJ with annual revenue of approximately $46M",
HOSPICE CARE OF SOUTHWEST MICHIGAN,382293985,Human Services,7100 STADIUM DR,KALAMAZOO,MI,49009-9423,,"Human Services organization in KALAMAZOO, MI with annual revenue of approximately $46M",
CNS HEALTHCARE,431969008,Health,24230 KARIM BLVD STE 100,NOVI,MI,48375-2960,,"Health organization in NOVI, MI with annual revenue of approximately $46M",
HEALTHY START MOMCARE NETWORK INC,461801239,Human Services,NETWORK INC 2002 OLD ST AUGUSTINE R,TALLAHASSEE,FL,32301-0000,,"Human Services organization in TALLAHASSEE, FL with annual revenue of approximately $46M",
CASA DE LAS CAMPANAS INC,330371280,Human Services,18655 WEST BERNARDO DR,SAN DIEGO,CA,92127-3002,,"Human Services organization in SAN DIEGO, CA with annual revenue of approximately $46M",
LEGAL AID BUREAU INC,520591621,Human Services,500 E LEXINGTON ST,BALTIMORE,MD,21202-3559,,"Human Services organization in BALTIMORE, MD with annual revenue of approximately $46M",
NEW YORK INSTITUTE FOR SPECIAL EDUCATION,131740010,Education,999 PELHAM PKWY N,BRONX,NY,10469-4905,,"Education organization in BRONX, NY with annual revenue of approximately $46M",
PGP CHARITABLE FUND,921414477,Human Services,1055 BROADWAY BLVD STE 130,KANSAS CITY,MO,64105-1595,,"Human Services organization in KANSAS CITY, MO with annual revenue of approximately $46M",
ICNA RELIEF USA PROGRAMS INC,043810161,Human Services,1529 JERICHO TPKE,NEW HYDE PARK,NY,11040-4712,,"Human Services organization in NEW HYDE PARK, NY with annual revenue of approximately $46M",
INGLEWOOD PARK CEMETERY,953755235,Other,720 E FLORENCE AVE,INGLEWOOD,CA,90301-1406,,"Other organization in INGLEWOOD, CA with annual revenue of approximately $46M",
HOUSTON BALLET FOUNDATION,741394920,Arts & Culture,601 PRESTON ST,HOUSTON,TX,77002-1605,,"Arts & Culture organization in HOUSTON, TX with annual revenue of approximately $46M",
GUIDING EYES FOR THE BLIND INC,131854606,Human Services,611 GRANITE SPRINGS RD,YORKTOWN HTS,NY,10598-3411,,"Human Services organization in YORKTOWN HTS, NY with annual revenue of approximately $46M",
WINSTON PREPARATORY SCHOOL,133085860,Education,135 WEST 41ST ST 5TH FL,NEW YORK,NY,10036-7320,,"Education organization in NEW YORK, NY with annual revenue of approximately $46M",
COMPREHENSIVE COMMUNITY ACTION INC,056018801,Human Services,311 DORIC AVENUE,CRANSTON,RI,02910-2903,,"Human Services organization in CRANSTON, RI with annual revenue of approximately $46M",
STRATUM HEALTH SYSTEM INC,472508009,Health,6310 CAPITAL DRIVE,LAKEWOOD RANCH,FL,34202-5013,,"Health organization in LAKEWOOD RANCH, FL with annual revenue of approximately $46M",
TIDES NETWORK,203395198,Community,1012 TORNEY AVE,SAN FRANCISCO,CA,94129-1704,,"Community organization in SAN FRANCISCO, CA with annual revenue of approximately $46M",
NORTH CAROLINA CHARTER EDUCATIONAL FOUNDATION INC,455348770,Education,154 FOUNDATION CT,MOORESVILLE,NC,28117-9606,,"Education organization in MOORESVILLE, NC with annual revenue of approximately $46M",
NATIONAL CABLE SATELLITE CORPORATION,840751854,Arts & Culture,400 NORTH CAPITOL ST NW,WASHINGTON,DC,20001-1511,,"Arts & Culture organization in WASHINGTON, DC with annual revenue of approximately $46M",
CALIFORNIA UNIVERSITY OF SCIENCE AND MEDICINE,464141445,Education,1501 VIOLET ST,COLTON,CA,92324-1603,,"Education organization in COLTON, CA with annual revenue of approximately $46M",
ILLUMINATIONS FOUNDATION INC,833552306,Community,PO BOX 511,ALPHARETTA,GA,30009-0511,,"Community organization in ALPHARETTA, GA with annual revenue of approximately $46M",
COMMUNITY ACTION PIONEER VALLEY INC,042384972,Other,393 MAIN STREET,GREENFIELD,MA,01301-3320,,"Other organization in GREENFIELD, MA with annual revenue of approximately $46M",
NEW YORK FOUNDATION FOR SENIOR CITIZENS HOME ATTENDANT SERVICES I,133083582,Other,11 PARK PL RM 1416,NEW YORK,NY,10007-2817,,"Other organization in NEW YORK, NY with annual revenue of approximately $46M",
MADERA COMMUNITY HOSPITAL,237429117,Health,700 17TH ST,MODESTO,CA,95354-1247,,"Health organization in MODESTO, CA with annual revenue of approximately $46M",
CLEAN AIR TASK FORCE INC,043512550,Environment,114 STATE STREET 6TH FL,BOSTON,MA,02109-2421,,"Environment organization in BOSTON, MA with annual revenue of approximately $46M",
HOSANNA,850223225,Religion,2421 AZTEC RD NE,ALBUQUERQUE,NM,87107-4224,,"Religion organization in ALBUQUERQUE, NM with annual revenue of approximately $46M",
INSTITUTE FOR SENIOR LIVING OF FLORIDA INC,200904526,Human Services,TWO BALA CYNWYD PLAZA 300,BALA CYNWYD,PA,19004-0000,,"Human Services organization in BALA CYNWYD, PA with annual revenue of approximately $46M",
CENTRAL MISSIONARY CLEARINGHOUSE INC,510138300,Other,PO BOX 219228,HOUSTON,TX,77218-9228,,"Other organization in HOUSTON, TX with annual revenue of approximately $46M",
HMONG ACADEMY,651180277,Education,1515 BREWSTER ST,SAINT PAUL,MN,55108-2612,,"Education organization in SAINT PAUL, MN with annual revenue of approximately $46M",
SAGE HILL SCHOOL,330729698,Education,20402 NEWPORT COAST DR,NEWPORT BEACH,CA,92657-0300,,"Education organization in NEWPORT BEACH, CA with annual revenue of approximately $46M",
THANKSGIVING POINT INSTITUTE INC,841416158,Environment,3003 N THANKSGIVING WAY,LEHI,UT,84048-4268,,"Environment organization in LEHI, UT with annual revenue of approximately $46M",
EASTERSEALS BLAKE FOUNDATION,860093224,Human Services,7750 E BROADWAY BLVD STE A200,TUCSON,AZ,85710-3903,,"Human Services organization in TUCSON, AZ with annual revenue of approximately $46M",
MCGUIRE MEMORIAL,251126488,Human Services,2119 MERCER RD,NEW BRIGHTON,PA,15066-3421,,"Human Services organization in NEW BRIGHTON, PA with annual revenue of approximately $46M",
UNITED WAY OF MIDDLE TENNESSEE INC,620533104,Community,250 VENTURE CIR,NASHVILLE,TN,37228-1604,,"Community organization in NASHVILLE, TN with annual revenue of approximately $46M",
COMMUNITY DEVELOPMENT INSTITUTE HEAD START,841548541,Education,10065 E HARVARD AVE STE 700,DENVER,CO,80231-5915,,"Education organization in DENVER, CO with annual revenue of approximately $46M",
AMERICAS SECOND HARVEST OF THE BIG BEND INC,592610345,Human Services,4446 ENTREPOT BLVD,TALLAHASSEE,FL,32310-8740,,"Human Services organization in TALLAHASSEE, FL with annual revenue of approximately $46M",
RICHMOND CHILDREN CENTER INC,132736761,Health,272 NORTH BEDFORD RD,MOUNT KISCO,NY,10549-1166,,"Health organization in MOUNT KISCO, NY with annual revenue of approximately $46M",
SAN LUIS WALK-IN CLINIC INC,651170616,Health,1896 E BABBIT LN,SAN LUIS,AZ,85336-7820,,"Health organization in SAN LUIS, AZ with annual revenue of approximately $46M",
WATERFORD INSTITUTE INC,510202349,Research,4246 S RIVERBOAT RD STE 150,TAYLORSVILLE,UT,84123-2701,,"Research organization in TAYLORSVILLE, UT with annual revenue of approximately $46M",
GOVERNMENTAL AND EDUCATIONAL ASSISTANCE CORPORATION,621691489,Human Services,11180 ZEALAND AVE N,CHAMPLIN,MN,55316-3594,,"Human Services organization in CHAMPLIN, MN with annual revenue of approximately $46M",
FOODSHARE INC,770018162,Human Services,4156 SOUTHBANK RD,OXNARD,CA,93036-1002,,"Human Services organization in OXNARD, CA with annual revenue of approximately $46M",
NORTH AMERICAN FAMILY INSTITUTE INC,043161042,Human Services,40 PARK LN,CONTOOCOOK,NH,03229-3101,,"Human Services organization in CONTOOCOOK, NH with annual revenue of approximately $46M",
CALIFORNIA WESTERN SCHOOL OF LAW,952944594,Education,225 CEDAR ST,SAN DIEGO,CA,92101-3046,,"Education organization in SAN DIEGO, CA with annual revenue of approximately $46M",
GOODWILL CENTRAL COAST,941254638,Human Services,1566 MOFFETT ST,SALINAS,CA,93905-3342,,"Human Services organization in SALINAS, CA with annual revenue of approximately $46M",
KING FARM PRESBYTERIAN RETIREMENT,202004162,Human Services,701 KING FARM BOULEVARD,ROCKVILLE,MD,20850-6165,,"Human Services organization in ROCKVILLE, MD with annual revenue of approximately $46M",
PARTNERS FOR RURAL IMPACT INC,872937264,Education,439 WALNUT MEADOW RD,BEREA,KY,40403-9774,,"Education organization in BEREA, KY with annual revenue of approximately $46M",
ALPHA PROJECT FOR THE HOMELESS,330215585,Other,3737 FIFTH AVE 203,SAN DIEGO,CA,92103-4217,,"Other organization in SAN DIEGO, CA with annual revenue of approximately $46M",
PHALEN LEADERSHIP ACADEMIES INDIANA,364729586,Education,2323 N ILLINOIS ST,INDIANAPOLIS,IN,46208-5760,,"Education organization in INDIANAPOLIS, IN with annual revenue of approximately $46M",
NATIONAL TRUST FOR LOCAL NEWS,862022385,Arts & Culture,750 W HAMPDEN AVE,ENGLEWOOD,CO,80110-2165,,"Arts & Culture organization in ENGLEWOOD, CO with annual revenue of approximately $46M",
MOUNT ALOYSIUS COLLEGE,251114320,Education,7373 ADMIRAL PEARY HWY,CRESSON,PA,16630-1902,,"Education organization in CRESSON, PA with annual revenue of approximately $46M",
WORK SERVICES CORPORATION,752247311,Human Services,1343 HATTON RD,WICHITA FALLS,TX,76302-3007,,"Human Services organization in WICHITA FALLS, TX with annual revenue of approximately $46M",
CENTER FOR AMERICAN PROGRESS,300126510,Religion,1333 H STREET NW SUITE 100 B,WASHINGTON,DC,20005-4707,,"Religion organization in WASHINGTON, DC with annual revenue of approximately $46M",
HISTORIC HAYMARKET MILWAUKEE I INC,871376165,Arts & Culture,800 W WELLS ST,MILWAUKEE,WI,53233-1404,,"Arts & Culture organization in MILWAUKEE, WI with annual revenue of approximately $46M",
EQUITAS ACADEMY CHARTER SCHOOL INC,262439216,Education,1700 W PICO BLVD,LOS ANGELES,CA,90015-2412,,"Education organization in LOS ANGELES, CA with annual revenue of approximately $46M",
VISITING NURSE ASSOCIATION HEALTH GROUP INC,222500029,Other,3600 STATE ROUTE 66,NEPTUNE,NJ,07753-2645,,"Other organization in NEPTUNE, NJ with annual revenue of approximately $46M",
ATHOL MEMORIAL HOSPITAL INCORPORATED,042126583,Health,2033 MAIN ST,ATHOL,MA,01331-3535,,"Health organization in ATHOL, MA with annual revenue of approximately $46M",
BIRCH TREE COMMUNITIES INC,710680117,Health,PO BOX 1589,BENTON,AR,72018-1589,,"Health organization in BENTON, AR with annual revenue of approximately $46M",
EARLY LEARNING COALITION OF PASCO AND HERNANDO COUNTIES INC,593639528,Education,12107 MAJESTIC BLVD,HUDSON,FL,34667-2455,,"Education organization in HUDSON, FL with annual revenue of approximately $46M",
METROPOLITAN NEW YORK COORDINATING COUNCIL ON JEWISH POVERTY,132738818,Human Services,1 STATE ST FL 24,NEW YORK,NY,10004-1561,,"Human Services organization in NEW YORK, NY with annual revenue of approximately $46M",
MORNINGSIDE MINISTRIES,741388420,Human Services,137 W FRENCH PL,SAN ANTONIO,TX,78212-5804,,"Human Services organization in SAN ANTONIO, TX with annual revenue of approximately $46M",
WORKING AMERICA EDUCATION FUND,202035052,Education,815 16TH ST NW,WASHINGTON,DC,20006-4101,,"Education organization in WASHINGTON, DC with annual revenue of approximately $46M",
APPALACHIAN MOUNTAIN CLUB,046001677,Environment,10 CITY SQUARE,CHARLESTOWN,MA,02129-3740,,"Environment organization in CHARLESTOWN, MA with annual revenue of approximately $46M",
RONALD REAGAN PRESIDENTIAL FOUNDATION AND INSTITUTE,770054631,Education,40 PRESIDENTIAL DRIVE 200,SIMI VALLEY,CA,93065-0600,,"Education organization in SIMI VALLEY, CA with annual revenue of approximately $46M",
GRHS FOUNDATION INC,223378111,Community,100 KINGS HIGHWAY SOUTH,ROCHESTER,NY,14617-5504,,"Community organization in ROCHESTER, NY with annual revenue of approximately $45M",
RADIOLOGY ASSOCIATES OF CHILDRENS HOSPITAL INC,232665855,Health,3401 CIVIC CENTER BLVD SUITE 3NW17,PHILADELPHIA,PA,19104-4319,,"Health organization in PHILADELPHIA, PA with annual revenue of approximately $45M",
DISABILITY SERVICES OF THE SOUTHWEST,752483918,Human Services,6243 IH-10 WEST SUITE 375,SAN ANTONIO,TX,78201-2098,,"Human Services organization in SAN ANTONIO, TX with annual revenue of approximately $45M",
CALIFORNIA HEALTH FOUNDATION AND TRUST,941498697,Community,1215 K ST STE 700,SACRAMENTO,CA,95814-3946,,"Community organization in SACRAMENTO, CA with annual revenue of approximately $45M",
SAN FRANCISCO SOCIETY FOR THE PREVENTION OF CRUELTY TO ANIMALS,940836580,Health,201 ALABAMA ST,SAN FRANCISCO,CA,94103-4217,,"Health organization in SAN FRANCISCO, CA with annual revenue of approximately $45M",
AMERICAN COUNCIL OF LEARNED SOCIETIES,131851145,Arts & Culture,633 3RD AVE 8TH FLOOR,NEW YORK,NY,10017-6706,,"Arts & Culture organization in NEW YORK, NY with annual revenue of approximately $45M",
ODYSSEY HOUSE INC,136217765,Health,95 PINE ST 17TH FLR,NEW YORK,NY,10005-0054,,"Health organization in NEW YORK, NY with annual revenue of approximately $45M",
MISSOURI SLOPE LUTHERAN CARE CENTER,450279210,Health,4916 N WASHINGTON ST,BISMARCK,ND,58503-0559,,"Health organization in BISMARCK, ND with annual revenue of approximately $45M",
DALLAS MUSEUM OF ART,750808774,Arts & Culture,1717 N HARWOOD ST,DALLAS,TX,75201-2315,,"Arts & Culture organization in DALLAS, TX with annual revenue of approximately $45M",
NEW OPPORTUNITIES INC,066071847,Other,232 N ELM ST,WATERBURY,CT,06702-1516,,"Other organization in WATERBURY, CT with annual revenue of approximately $45M",
PANORAMA GLOBAL,814204119,International,2101 4TH AVE STE 2100,SEATTLE,WA,98121-2359,,"International organization in SEATTLE, WA with annual revenue of approximately $45M",
DIRNE HEALTH CENTERS INC,943036820,Other,PO BOX 1387,HAYDEN,ID,83835-1387,,"Other organization in HAYDEN, ID with annual revenue of approximately $45M",
MCAULEY-SETON HOME CARE INC,161310062,Health,144 GENESEE STREET,BUFFALO,NY,14203-1560,,"Health organization in BUFFALO, NY with annual revenue of approximately $45M",
FOUNDATION FOR ADVANCED EDUCATION IN THE SCIENCES INC,520743814,Education,10 CENTER DR RM 1N241,BETHESDA,MD,20892-0004,,"Education organization in BETHESDA, MD with annual revenue of approximately $45M",
LOUISIANA UNITED METHODIST CHILDREN AND FAMILY SERVICES INC,720435081,Human Services,PO BOX 929,RUSTON,LA,71273-0929,,"Human Services organization in RUSTON, LA with annual revenue of approximately $45M",
COMMUNITY SCHOOL FOR APPRENTICESHIP LEARNING INC,721358672,Education,4962 FLORIDA BLVD,BATON ROUGE,LA,70806-4031,,"Education organization in BATON ROUGE, LA with annual revenue of approximately $45M",
PRESBYTERIAN VILLAGE NORTH FOREFRONT LIVING,510190369,Human Services,8600 SKYLINE DRIVE,DALLAS,TX,75243-4198,,"Human Services organization in DALLAS, TX with annual revenue of approximately $45M",
HOLTON-ARMS SCHOOL INC,530196507,Education,7303 RIVER RD,BETHESDA,MD,20817-4640,,"Education organization in BETHESDA, MD with annual revenue of approximately $45M",
JACKSON HOLE CLASSICAL SCHOOL INC,452795231,Education,2500 S PARK LOOP RD,JACKSON,WY,83001-0000,,"Education organization in JACKSON, WY with annual revenue of approximately $45M",
BETHEL UNIVERSITY,620548913,Education,325 CHERRY AVE,MC KENZIE,TN,38201-1769,,"Education organization in MC KENZIE, TN with annual revenue of approximately $45M",
MINNESOTA MASTERPIECE HALL,881081197,Arts & Culture,PO BOX 322,WINONA,MN,55987-0322,,"Arts & Culture organization in WINONA, MN with annual revenue of approximately $45M",
SCUS HEAD START PROGRAMS INC,453672468,Education,501 KINGS HWY E STE 400,FAIRFIELD,CT,06825-4861,,"Education organization in FAIRFIELD, CT with annual revenue of approximately $45M",
YOUNG MENS CHRISTIAN ASSOCIATION OF GREATER CINCINNATI,310537178,Community,1105 ELM ST,CINCINNATI,OH,45202-7513,,"Community organization in CINCINNATI, OH with annual revenue of approximately $45M",
ROCKFORD UNIVERSITY,362167842,Education,5050 E STATE ST,ROCKFORD,IL,61108-2311,,"Education organization in ROCKFORD, IL with annual revenue of approximately $45M",
PROMEDICA INDEMNITY INSURANCE CORPORATION,341931936,Health,30 MAIN ST STE 330,BURLINGTON,VT,05401-8427,,"Health organization in BURLINGTON, VT with annual revenue of approximately $45M",
SLIPSTREAM GROUP INC,391356152,Environment,431 CATALYST WAY,MADISON,WI,53719-1241,,"Environment organization in MADISON, WI with annual revenue of approximately $45M",
HEART OF FLORIDA HEALTH CENTER INC,593060378,Health,2553 E SILVER SPRINGS BLVD,OCALA,FL,34470-7009,,"Health organization in OCALA, FL with annual revenue of approximately $45M",
MINNEAPOLIS COLLEGE OF ART & DESIGN,411607453,Education,2501 STEVENS AVE,MINNEAPOLIS,MN,55404-4347,,"Education organization in MINNEAPOLIS, MN with annual revenue of approximately $45M",
SOUTH BAY WORKFORCE INVESTMENT BOARD INC,010611872,Education,11539 HAWTHORNE BLVD STE 500,HAWTHORNE,CA,90250-2353,,"Education organization in HAWTHORNE, CA with annual revenue of approximately $45M",
NATIONAL MIGRANT AND SEASONAL HEAD START ASSOCIATION,300086410,Education,611 PENNSYLVANIA AVE SE STE 132,WASHINGTON,DC,20003-4303,,"Education organization in WASHINGTON, DC with annual revenue of approximately $45M",
LOUISIANA TECH UNIVERSITY FOUNDATION INC,726021176,Education,PO BOX 3183,RUSTON,LA,71270-0000,,"Education organization in RUSTON, LA with annual revenue of approximately $45M",
WILLISTON NORTHAMPTON SCHOOL,041975990,Education,19 PAYSON AVE,EASTHAMPTON,MA,01027-2286,,"Education organization in EASTHAMPTON, MA with annual revenue of approximately $45M",
SERVICES FOR CHILDREN WITH HIDDEN INTELLIGENCE INC,223301312,Education,1416 MONMOUTH AVE,LAKEWOOD,NJ,08701-1933,,"Education organization in LAKEWOOD, NJ with annual revenue of approximately $45M",
SOUTH CAROLINA EPISCOPAL HOME AT STILL HOPES,510175068,Health,1 STILL HOPES DR,WEST COLUMBIA,SC,29169-7164,,"Health organization in WEST COLUMBIA, SC with annual revenue of approximately $45M",
GOODWILL INDUSTRIES OF THE COLUMBIA,237071436,Human Services,815 N KELLOGG ST STE A,KENNEWICK,WA,99336-8007,,"Human Services organization in KENNEWICK, WA with annual revenue of approximately $45M",
INDIANA UNIVERSITY HEALTH FOUNDATION INC,356043086,Health,1633 N CAPITOL AVE 1200,INDIANAPOLIS,IN,46202-1261,,"Health organization in INDIANAPOLIS, IN with annual revenue of approximately $45M",
ST PAUL ACADEMY AND SUMMIT SCHOOL,410943433,Education,1712 RANDOLPH AVE,SAINT PAUL,MN,55105-2159,,"Education organization in SAINT PAUL, MN with annual revenue of approximately $45M",
THE CENTER FOR EMPLOYMENT SECURITY EDUCATION AND RESEARCH INC,521902649,Research,444 NORTH CAPITOL STREET NW 300,WASHINGTON,DC,20001-1512,,"Research organization in WASHINGTON, DC with annual revenue of approximately $45M",
HORIZON HEALTH SERVICES INC,166198498,Health,55 DODGE RD,GETZVILLE,NY,14068-1205,,"Health organization in GETZVILLE, NY with annual revenue of approximately $45M",
WILLIAM NEWTON MEMORIAL HOSPITAL,486005089,Health,1300 E 5TH AVE,WINFIELD,KS,67156-2407,,"Health organization in WINFIELD, KS with annual revenue of approximately $45M",
SOUTHLAKE COMMUNITY MENTAL HEALTH CENTER INC,351375696,Health,8555 TAFT ST,MERRILLVILLE,IN,46410-6123,,"Health organization in MERRILLVILLE, IN with annual revenue of approximately $45M",
WOODFORDS FAMILY SERVICE,010278395,Education,15 SAUNDERS WAY STE 900,WESTBROOK,ME,04092-4836,,"Education organization in WESTBROOK, ME with annual revenue of approximately $45M",
PATHSTONE CORPORATION,160984913,Community,400 EAST AVE,ROCHESTER,NY,14607-1910,,"Community organization in ROCHESTER, NY with annual revenue of approximately $45M",
NATIONAL ASSOCIATION OF CHILDRENS HOSPITAL AND RELATED INSTITUTIONS,510120256,Other,600 13TH NW ST STE 500,WASHINGTON,DC,20005-0000,,"Other organization in WASHINGTON, DC with annual revenue of approximately $45M",
GOODWILL INDUSTRIES OF GREATER GRAND RAPIDS INC,386113049,Human Services,3035 PRAIRIE ST SW,GRANDVILLE,MI,49418-2000,,"Human Services organization in GRANDVILLE, MI with annual revenue of approximately $45M",
MOSAIC HEALTH SYSTEM,431283316,Health,5325 FARAON ST,SAINT JOSEPH,MO,64506-3488,,"Health organization in SAINT JOSEPH, MO with annual revenue of approximately $45M",
KIPP COLORADO SCHOOLS,800037534,Education,1390 LAWRENCE ST,DENVER,CO,80204-2080,,"Education organization in DENVER, CO with annual revenue of approximately $45M",
MARCUS JEWISH COMMUNITY CENTER OF ATLANTA INC,580566126,Human Services,5342 TILLY MILL RD,ATLANTA,GA,30338-4426,,"Human Services organization in ATLANTA, GA with annual revenue of approximately $45M",
UNITED CEREBRAL PALSY OF CENTRAL FLORIDA INC,590799925,Health,4780 DATA CT,ORLANDO,FL,32817-8331,,"Health organization in ORLANDO, FL with annual revenue of approximately $45M",
ACCESS COMMUNITY HEALTH CENTERS INC,391391134,Other,2901 W BELTLINE HWY STE 120,MADISON,WI,53713-4231,,"Other organization in MADISON, WI with annual revenue of approximately $45M",
DEERFIELD EPISCOPAL RETIREMENT COMM INC,560614176,Human Services,1617 HENDERSONVILLE RD,ASHEVILLE,NC,28803-4129,,"Human Services organization in ASHEVILLE, NC with annual revenue of approximately $45M",
UNITED WAY OF LEE COUNTY INC,591005169,Community,7273 CONCOURSE DR,FORT MYERS,FL,33908-2604,,"Community organization in FORT MYERS, FL with annual revenue of approximately $45M",
REACH RESILIENCE,871424761,Human Services,6363 DE ZAVALA RD,SAN ANTONIO,TX,78249-2101,,"Human Services organization in SAN ANTONIO, TX with annual revenue of approximately $45M",
BETHANY COLLEGE,550356985,Education,31 E CAMPUS DR,BETHANY,WV,26032-3002,,"Education organization in BETHANY, WV with annual revenue of approximately $45M",
MULTI-STATE LOTTERY ASSOCIATION,421302701,Community,8101 BIRCHWOOD COURT,JOHNSTON,IA,50131-2930,,"Community organization in JOHNSTON, IA with annual revenue of approximately $45M",
THE CENTER FOR DEVELOPMENTAL DISABILITIES INC,111874383,Human Services,221 N SUNRISE SERVICE RD,MANORVILLE,NY,11949-9604,,"Human Services organization in MANORVILLE, NY with annual revenue of approximately $45M",
THE HIGH DESERT PARTNERSHIP IN ACADEMIC EXCELLENCE FOUNDATION INC,330542733,Education,17500 MANA RD,APPLE VALLEY,CA,92307-2181,,"Education organization in APPLE VALLEY, CA with annual revenue of approximately $45M",
EMERGE INC,521073386,Human Services,9180 RUMSEY RD D-2,COLUMBIA,MD,21045-1938,,"Human Services organization in COLUMBIA, MD with annual revenue of approximately $45M",
POLISH NATIONAL ALLIANCE OF THE UNITED STATES OF NORTH AMERICA,361635410,Other,6100 N CICERO AVE,CHICAGO,IL,60646-4304,,"Other organization in CHICAGO, IL with annual revenue of approximately $45M",
ASSOCIATION OF THE UNITED STATES ARMY INC,530193361,Community,2425 WILSON BLVD,ARLINGTON,VA,22201-3876,,"Community organization in ARLINGTON, VA with annual revenue of approximately $45M",
HORIZON HOME CARE & HOSPICE INC,391171298,Health,11002 W PARK PL,MILWAUKEE,WI,53224-3615,,"Health organization in MILWAUKEE, WI with annual revenue of approximately $45M",
LANDMARK COLLEGE INC,222586208,Other,19 RIVER RD S,PUTNEY,VT,05346-8517,,"Other organization in PUTNEY, VT with annual revenue of approximately $45M",
SYSTEMS UNLIMITED INC,420985205,Human Services,2533 SCOTT BLVD SE,IOWA CITY,IA,52240-8195,,"Human Services organization in IOWA CITY, IA with annual revenue of approximately $45M",
TRUSTEES OF WESTMINSTER SCHOOL INC,060646960,Education,995 HOPMEADOW ST,SIMSBURY,CT,06070-1812,,"Education organization in SIMSBURY, CT with annual revenue of approximately $45M",
MEADOWOOD CORPORATION,222229486,Human Services,3205 SKIPPACK PIKE,LANSDALE,PA,19446-5774,,"Human Services organization in LANSDALE, PA with annual revenue of approximately $45M",
ASIAN COUNSELING AND REFERRAL SERVICE,910916176,Human Services,3639 MARTIN LUTHER KING JR WAY S,SEATTLE,WA,98144-6847,,"Human Services organization in SEATTLE, WA with annual revenue of approximately $45M",
ST AUGUSTINE MANOR,341040692,Human Services,7801 DETROIT AVE,CLEVELAND,OH,44102-2813,,"Human Services organization in CLEVELAND, OH with annual revenue of approximately $45M",
IROQUOIS MEMORIAL HOSPITAL AND RESIDENT HOME,370673512,Health,200 E FAIRMAN AVE,WATSEKA,IL,60970-1644,,"Health organization in WATSEKA, IL with annual revenue of approximately $45M",
FAMILY LIFE ACADEMY CHARTER SCHOOL,134170389,Education,316 E 165TH ST,BRONX,NY,10456-6009,,"Education organization in BRONX, NY with annual revenue of approximately $45M",
ARC HUMAN SERVICE INC,251663522,Human Services,111 W PIKE ST,CANONSBURG,PA,15317-1315,,"Human Services organization in CANONSBURG, PA with annual revenue of approximately $45M",
CHILDRENS HOSPITAL AND HEALTHCARE SERVICES FOUNDATION,510220692,Health,PO BOX 980693,RICHMOND,VA,23298-0693,,"Health organization in RICHMOND, VA with annual revenue of approximately $45M",
OPTIONS FOR YOUTH - ACTON,822272612,Education,320 N HALSTEAD STREETSUITE 280,PASADENA,CA,91107-0000,,"Education organization in PASADENA, CA with annual revenue of approximately $45M",
HAMASPIK OF ORANGE COUNTY INC,141711583,Other,1 HAMASPIK WAY 3RD FLOOR,MONROE,NY,10950-8451,,"Other organization in MONROE, NY with annual revenue of approximately $45M",
TRIANGLE COMMUNITY FOUNDATION,561380796,Community,PO BOX 12729,DURHAM,NC,27709-2729,,"Community organization in DURHAM, NC with annual revenue of approximately $45M",
FALLON HEALTH WEINBERG INC,161580245,Human Services,2700 NORTH FOREST ROAD,GETZVILLE,NY,14068-1527,,"Human Services organization in GETZVILLE, NY with annual revenue of approximately $45M",
CO-MHAR INC,237418921,Health,100 W LEHIGH AVE,PHILADELPHIA,PA,19133-4039,,"Health organization in PHILADELPHIA, PA with annual revenue of approximately $45M",
YOUNG MENS CHRISTIAN ASSOCIATION,741193464,Human Services,55 N INTERSTATE 35,AUSTIN,TX,78702-5209,,"Human Services organization in AUSTIN, TX with annual revenue of approximately $45M",
LIGHTHOUSE GUILD INTERNATIONAL INC,464215298,Community,250 W 64TH ST,NEW YORK,NY,10023-6402,,"Community organization in NEW YORK, NY with annual revenue of approximately $45M",
RAYMOND F KRAVIS CENTER FOR THE PERFORMING ARTS INC,592245054,Arts & Culture,701 OKEECHOBEE BLVD,WEST PALM BCH,FL,33401-6323,,"Arts & Culture organization in WEST PALM BCH, FL with annual revenue of approximately $45M",
JUST TRUST FOR EDUCATION,883436668,Human Services,2530 MERIDIAN PKWY STE 300,DURHAM,NC,27713-5273,,"Human Services organization in DURHAM, NC with annual revenue of approximately $45M",
RIVER BEND FOOD RESERVOIR,363147342,Human Services,4010 KIMMEL DR,DAVENPORT,IA,52802-2404,,"Human Services organization in DAVENPORT, IA with annual revenue of approximately $45M",
ASOCIACION PUERTORRIQUENOS EN MARCHA INC,231930630,Human Services,1900 N 9TH ST STE 102,PHILADELPHIA,PA,19122-2028,,"Human Services organization in PHILADELPHIA, PA with annual revenue of approximately $45M",
ARIZONA CHRISTIAN SCHOOL TUITION ORGANIZATION INC,860931047,Education,PO BOX 6580,CHANDLER,AZ,85246-6580,,"Education organization in CHANDLER, AZ with annual revenue of approximately $45M",
MENTAL HEALTH ASSOCIATION INC,046197938,Human Services,350 MEMORIAL DR,CHICOPEE,MA,01020-5000,,"Human Services organization in CHICOPEE, MA with annual revenue of approximately $45M",
CHILDRENS SERVICES OF ROXBURY INC,043082352,Human Services,520 DUDLEY ST,ROXBURY,MA,02119-2769,,"Human Services organization in ROXBURY, MA with annual revenue of approximately $45M",
SENIOR CARE CONNECTION INC,141708754,Other,1938 CURRY RD,SCHENECTADY,NY,12303-3902,,"Other organization in SCHENECTADY, NY with annual revenue of approximately $45M",
AMERICAN WELDING SOCIETY INC,130434890,Community,8669 NW 36TH ST STE 130,DORAL,FL,33166-6672,,"Community organization in DORAL, FL with annual revenue of approximately $45M",
CRISIS TEXT LINE INC,465039599,Health,225 W 34TH ST FL 9-PMB9135,NEW YORK,NY,10122-0049,,"Health organization in NEW YORK, NY with annual revenue of approximately $45M",
MISSOURI VALLEY COLLEGE,440545286,Education,500 E COLLEGE ST,MARSHALL,MO,65340-3109,,"Education organization in MARSHALL, MO with annual revenue of approximately $45M",
HOSPICE OF HENDERSON COUNTY INC,561252665,Other,571 S ALLEN RD,FLAT ROCK,NC,28731-9447,,"Other organization in FLAT ROCK, NC with annual revenue of approximately $45M",
THE CHICAGO LIGHTHOUSE FOR PEOPLE WHO ARE BLIND OR VISUALLY IMPAIRED,362169139,Human Services,1850 W ROOSEVELT ROAD,CHICAGO,IL,60608-1200,,"Human Services organization in CHICAGO, IL with annual revenue of approximately $45M",
THE VILLAGE AT ROCKVILLE INC,530196624,Human Services,5275 WESTVIEW DR STE 110,FREDERICK,MD,21703-8548,,"Human Services organization in FREDERICK, MD with annual revenue of approximately $45M",
UNIVERSITY OF FLORIDA RESEARCH FOUNDATION INC,592729133,Education,720 SW 2ND AVE STE 575,GAINESVILLE,FL,32601-1217,,"Education organization in GAINESVILLE, FL with annual revenue of approximately $45M",
YAKIMA NEIGHBORHOOD HEALTH SERVICES,910928817,Health,PO BOX 2605,YAKIMA,WA,98907-2605,,"Health organization in YAKIMA, WA with annual revenue of approximately $45M",
RENEW-REINVENTING EDUCATION,800419622,Education,10001 LAKE FORREST BLVD,NEW ORLEANS,LA,70127-6200,,"Education organization in NEW ORLEANS, LA with annual revenue of approximately $45M",
DURHAM ACADEMY INC,560538019,Education,3130 PICKETT RD,DURHAM,NC,27705-6008,,"Education organization in DURHAM, NC with annual revenue of approximately $45M",
CHILDRENS HOME OF WYOMING CONFERENCE,150532090,Human Services,1182 CHENANGO ST,BINGHAMTON,NY,13901-1653,,"Human Services organization in BINGHAMTON, NY with annual revenue of approximately $45M",
CATHOLIC CHARITIES OF DALLAS INC,752745221,Other,1421 W MOCKINGBIRD LN,DALLAS,TX,75247-4905,,"Other organization in DALLAS, TX with annual revenue of approximately $45M",
ASBURY THEOLOGICAL SEMINARY,610445823,Education,204 N LEXINGTON AVE,WILMORE,KY,40390-1129,,"Education organization in WILMORE, KY with annual revenue of approximately $45M",
ST MARYS MEDICAL GROUP INC,261858563,Health,1230 BAXTER ST,ATHENS,GA,30606-3712,,"Health organization in ATHENS, GA with annual revenue of approximately $45M",
SCHOLAR FUND,813153433,Education,300 LENORA ST PMB 1750,SEATTLE,WA,98121-2411,,"Education organization in SEATTLE, WA with annual revenue of approximately $45M",
WOMENS LEAGUE COMMUNITY RESIDENCES INC,112889774,Other,1400 CONEY ISLAND AVE,BROOKLYN,NY,11230-0000,,"Other organization in BROOKLYN, NY with annual revenue of approximately $45M",
MCPHERSON HOSPITAL INC,480799105,Health,1000 HOSPITAL DR,MCPHERSON,KS,67460-2326,,"Health organization in MCPHERSON, KS with annual revenue of approximately $45M",
HELEN KELLER SERVICES,111630807,Human Services,180 LIVINGSTON STREET,BROOKLYN,NY,11201-5861,,"Human Services organization in BROOKLYN, NY with annual revenue of approximately $45M",
GOODWILL INDUSTRIES OF NORTHERN IL & WI STATELINE AREA INC,362167846,Other,850 N CHURCH STREET,ROCKFORD,IL,61103-6993,,"Other organization in ROCKFORD, IL with annual revenue of approximately $45M",
COVENANT RETIREMENT COMMUNITIES INC,363478388,Human Services,5700 OLD ORCHARD RD,SKOKIE,IL,60077-1036,,"Human Services organization in SKOKIE, IL with annual revenue of approximately $45M",
JEWISH HOME LIFECARE SARAH NEUMAN CENTER WESTCHESTER,133620568,Health,845 PALMER AVE,MAMARONECK,NY,10543-2406,,"Health organization in MAMARONECK, NY with annual revenue of approximately $45M",
NATIVE AMERICAN HEALTH CENTER INC,237135928,Other,2920 INTERNATIONAL BLVD 2ND FL,OAKLAND,CA,94601-2228,,"Other organization in OAKLAND, CA with annual revenue of approximately $45M",
SAINT LOUIS SYMPHONY ORCHESTRA,430666769,Arts & Culture,718 N GRAND BLVD,SAINT LOUIS,MO,63103-1011,,"Arts & Culture organization in SAINT LOUIS, MO with annual revenue of approximately $45M",
HEART OF ALABAMA FOOD BANK,630931846,Human Services,521 TRADE CENTER ST,MONTGOMERY,AL,36108-2107,,"Human Services organization in MONTGOMERY, AL with annual revenue of approximately $45M",
