name,ein,category,address,city,state,zip_code,website,description,phone
MELROSEWAKEFIELD HEALTHCARE INC,042767880,Health,170 GOVERNORS AVE,MEDFORD,MA,02155-1643,,"Health organization in MEDFORD, MA with annual revenue of approximately $267M",
LURIE CHILDRENS MEDICAL GROUP INC,363279680,Health,225 E CHICAGO AVE BOX 269,CHICAGO,IL,60611-2991,,"Health organization in CHICAGO, IL with annual revenue of approximately $267M",
PACIFIC CLINICS,942295953,Human Services,251 LLEWELLYN AVE,CAMPBELL,CA,95008-1940,,"Human Services organization in CAMPBELL, CA with annual revenue of approximately $267M",
WIDENER UNIVERSITY,231386178,Education,1 UNIVERSITY PL,CHESTER,PA,19013-5700,,"Education organization in CHESTER, PA with annual revenue of approximately $267M",
WORLD RESOURCES INSTITUTE,521257057,International,10 G STREET NE,WASHINGTON,DC,20002-4213,,"International organization in WASHINGTON, DC with annual revenue of approximately $267M",
GEORGETOWN MEMORIAL HOSPITAL,570341194,Health,PO BOX 421718,GEORGETOWN,SC,29442-4203,,"Health organization in GEORGETOWN, SC with annual revenue of approximately $267M",
SOUTH UNIVERSITY MEMBER INC,815128459,Education,709 MALL BLVD,SAVANNAH,GA,31406-4805,,"Education organization in SAVANNAH, GA with annual revenue of approximately $266M",
P E F ISRAEL ENDOWMENT FUNDS INC,136104086,Community,630 3RD AVE RM 1501,NEW YORK,NY,10017-6745,,"Community organization in NEW YORK, NY with annual revenue of approximately $266M",
BANCROFT A NEW JERSEY NONPROFIT CORPORATION,210672770,Human Services,1255 CALDWELL RD,CHERRY HILL,NJ,08034-3220,,"Human Services organization in CHERRY HILL, NJ with annual revenue of approximately $266M",
CLIMATEWORKS FOUNDATION,262303250,Research,235 MONTGOMERY ST STE 1300,SAN FRANCISCO,CA,94104-3123,,"Research organization in SAN FRANCISCO, CA with annual revenue of approximately $266M",
JUSTICE RESOURCE INSTITUTE INC,042526357,Human Services,160 GOULD ST STE 300 STE 30,NEEDHAM,MA,02494-2300,,"Human Services organization in NEEDHAM, MA with annual revenue of approximately $266M",
DELAWARE STATE UNIVERSITY,510305893,Education,1200 N DUPONT HWY,DOVER,DE,19901-2202,,"Education organization in DOVER, DE with annual revenue of approximately $266M",
COMMUNITY STRATEGIES INC,202774826,Community,1900 NW EXPRESSWAY,OKLAHOMA CITY,OK,73118-1802,,"Community organization in OKLAHOMA CITY, OK with annual revenue of approximately $266M",
KINGSWAY CHARITIES INC,541668650,International,1807 BAY ST,BRISTOL,TN,37620-1946,,"International organization in BRISTOL, TN with annual revenue of approximately $266M",
ST LUKES NAMPA MEDICAL CENTER LTD,821162805,Health,190 E BANNOCK ST,BOISE,ID,83712-6241,,"Health organization in BOISE, ID with annual revenue of approximately $266M",
HOLYOKE MEDICAL CENTER INC,222520073,Health,575 BEECH ST,HOLYOKE,MA,01040-2223,,"Health organization in HOLYOKE, MA with annual revenue of approximately $266M",
CONSUMER REPORTS INC,131776434,Community,101 TRUMAN AVE,YONKERS,NY,10703-1044,,"Community organization in YONKERS, NY with annual revenue of approximately $266M",
HOSPITAL AUXILIO MUTUO INC,660486907,Health,PO BOX 191227,SAN JUAN,PR,00919-1227,,"Health organization in SAN JUAN, PR with annual revenue of approximately $265M",
COTTAGE HEALTH,770431902,Religion,400 W PUEBLO ST,SANTA BARBARA,CA,93105-4353,,"Religion organization in SANTA BARBARA, CA with annual revenue of approximately $265M",
KANSAS STATE UNIVERSITY FOUNDATION,480667209,Education,1800 KIMBALL AVE STE 200,MANHATTAN,KS,66502-3373,,"Education organization in MANHATTAN, KS with annual revenue of approximately $265M",
WESTERN UNIVERSITY OF HEALTH SCIENCES,953127273,Other,309 E 2ND ST,POMONA,CA,91766-1854,,"Other organization in POMONA, CA with annual revenue of approximately $265M",
WGU CORPORATION,841383926,Education,4001 S 700 E STE 700,SALT LAKE CTY,UT,84107-2533,,"Education organization in SALT LAKE CTY, UT with annual revenue of approximately $264M",
THE MILKEN INSTITUTE,954240775,Other,1250 4TH ST 2ND FL,SANTA MONICA,CA,90401-1418,,"Other organization in SANTA MONICA, CA with annual revenue of approximately $264M",
ISO NEW ENGLAND INC,043372500,Environment,1 SULLIVAN RD,HOLYOKE,MA,01040-2841,,"Environment organization in HOLYOKE, MA with annual revenue of approximately $264M",
ST CLAIRE MEDICAL CENTER INC,610605336,Health,222 MEDICAL CIR,MOREHEAD,KY,40351-1179,,"Health organization in MOREHEAD, KY with annual revenue of approximately $264M",
PIEDMONT ROCKDALE HOSPITAL INC,300999841,Health,1412 MILSTEAD AVE NE,CONYERS,GA,30012-3877,,"Health organization in CONYERS, GA with annual revenue of approximately $263M",
BRYANT & STRATTON INC,844813183,Education,200 REDTAIL RD SYSTEM OFFICE,ORCHARD PARK,NY,14127-0000,,"Education organization in ORCHARD PARK, NY with annual revenue of approximately $263M",
GREATER CINCINNATI FOUNDATION,310669700,Community,720 E PETE ROSE WAY STE 120,CINCINNATI,OH,45202-3576,,"Community organization in CINCINNATI, OH with annual revenue of approximately $263M",
CHRISTIAN COMMUNITY FOUNDATION INC,751750059,Community,10807 NEW ALLEGIANCE DR STE 240,COLORADO SPGS,CO,80921-3803,,"Community organization in COLORADO SPGS, CO with annual revenue of approximately $263M",
DRAKE UNIVERSITY,420680460,Education,2507 UNIVERSITY AVE,DES MOINES,IA,50311-4516,,"Education organization in DES MOINES, IA with annual revenue of approximately $263M",
VISITING NURSE SERVICE OF NEW YORK HOME CARE II,131624211,Health,220 E 42ND ST,NEW YORK,NY,10017-5835,,"Health organization in NEW YORK, NY with annual revenue of approximately $262M",
CHS PHYSICIAN PARTNERS PC,113613997,Health,100 PORT WASHINGTON BLVD,ROSLYN,NY,11576-1347,,"Health organization in ROSLYN, NY with annual revenue of approximately $262M",
LAFAYETTE COLLEGE,240795686,Education,730 SULLIVAN RD,EASTON,PA,18042-1760,,"Education organization in EASTON, PA with annual revenue of approximately $262M",
CANTON-POTSDAM HOSPITAL,161012691,Health,50 LEROY ST,POTSDAM,NY,13676-1786,,"Health organization in POTSDAM, NY with annual revenue of approximately $262M",
PIH HEALTH DOWNEY HOSPTIAL,951903935,Health,11500 BROOKSHIRE AVE,DOWNEY,CA,90241-4917,,"Health organization in DOWNEY, CA with annual revenue of approximately $262M",
LEBANESE AMERICAN UNIVERSITY,986001269,Education,211 E 46TH STREET,NEW YORK,NY,10017-2935,,"Education organization in NEW YORK, NY with annual revenue of approximately $262M",
ST LUKES - ST VINCENTS HEALTHCAREINC,260479484,Health,PO BOX 45998,SAINT LOUIS,MO,63145-5998,,"Health organization in SAINT LOUIS, MO with annual revenue of approximately $262M",
SCOTTSDALE HEALTHCARE CORP,942735850,Health,8125 N HAYDEN RD,SCOTTSDALE,AZ,85258-2463,,"Health organization in SCOTTSDALE, AZ with annual revenue of approximately $262M",
ATRIUM MEDICAL CENTER,311079309,Health,110 N MAIN ST STE 500,DAYTON,OH,45402-3712,,"Health organization in DAYTON, OH with annual revenue of approximately $261M",
UKIAH ADVENTIST HOSPITAL,941639901,Other,1 ADVENTIST HEALTH WAY,ROSEVILLE,CA,95661-3266,,"Other organization in ROSEVILLE, CA with annual revenue of approximately $261M",
TCH PEDIATRIC ASSOCIATES INC,760460242,Health,6330 WEST LOOP S STE 1300,BELLAIRE,TX,77401-2950,,"Health organization in BELLAIRE, TX with annual revenue of approximately $261M",
CARE INITIATIVES,760262402,Health,1611 WESTLAKES PKWY,WDM,IA,50266-8370,,"Health organization in WDM, IA with annual revenue of approximately $261M",
EDUCATIONAL MEDIA FOUNDATION,942816342,Arts & Culture,5700 WEST OAKS BLVD,ROCKLIN,CA,95765-3719,,"Arts & Culture organization in ROCKLIN, CA with annual revenue of approximately $261M",
SETON FAMILY OF DOCTORS,264562522,Health,PO BOX 45998,SAINT LOUIS,MO,63145-5998,,"Health organization in SAINT LOUIS, MO with annual revenue of approximately $260M",
UNIVERSITY PHYSICIANS & SURGE ONS INC,550564945,Other,1600 MEDICAL CTR DR SUITE 501B,HUNTINGTON,WV,25701-3655,,"Other organization in HUNTINGTON, WV with annual revenue of approximately $260M",
ST LUKES HOSPITAL-MONROE CAMPUS,465143606,Health,1110 ST LUKES WAY,ALLENTOWN,PA,18109-9153,,"Health organization in ALLENTOWN, PA with annual revenue of approximately $260M",
WEILL CORNELL IMAGING AT NEW YORK-PRESBYTERIAN,412237441,Health,525 E 68TH STREET STARR 8A-37,NEW YORK,NY,10065-4870,,"Health organization in NEW YORK, NY with annual revenue of approximately $260M",
WYOMING MEDICAL CENTER INC,830279242,Health,2901 N CENTRAL AVE STE 160,PHOENIX,AZ,85012-2702,,"Health organization in PHOENIX, AZ with annual revenue of approximately $260M",
FELLOWSHIP OF CHRISTIAN ATHLETES,440610626,Human Services,8701 LEEDS RD,KANSAS CITY,MO,64129-1626,,"Human Services organization in KANSAS CITY, MO with annual revenue of approximately $260M",
ON LOK SENIOR HEALTH SERVICE,942162549,Health,1333 BUSH ST,SAN FRANCISCO,CA,94109-5611,,"Health organization in SAN FRANCISCO, CA with annual revenue of approximately $259M",
CONWAY REGIONAL MEDICAL CENTER INC,710249735,Health,2302 COLLEGE AVE,CONWAY,AR,72034-6297,,"Health organization in CONWAY, AR with annual revenue of approximately $259M",
PROJECT ORBIS INTERNATIONAL INC,237297651,International,52 VANDERBILT AVE FL 8,NEW YORK,NY,10017-3845,,"International organization in NEW YORK, NY with annual revenue of approximately $259M",
HAYS MEDICAL CENTER INC,480559088,Health,2220 CANTERBURY DR,HAYS,KS,67601-2370,,"Health organization in HAYS, KS with annual revenue of approximately $259M",
T J SAMSON COMMUNITY HOSPITAL,610461767,Health,1301 N RACE ST,GLASGOW,KY,42141-3454,,"Health organization in GLASGOW, KY with annual revenue of approximately $259M",
LINCOLN MEMORIAL UNIVERSITY,620479542,Education,6965 CUMBERLAND GAP PKWY,HARROGATE,TN,37752-8245,,"Education organization in HARROGATE, TN with annual revenue of approximately $258M",
CHILDRENS SPECIALTY GROUP INC,391990012,Health,PO BOX 1997,MILWAUKEE,WI,53201-1997,,"Health organization in MILWAUKEE, WI with annual revenue of approximately $258M",
LAFAYETTE GENERAL HEALTH SYSTEM INC,383646817,Health,920 W PINHOOK,LAFAYETTE,LA,70503-2455,,"Health organization in LAFAYETTE, LA with annual revenue of approximately $258M",
AURORA HEALTH CARE INC,391442285,Health,PO BOX 343910,MILWAUKEE,WI,53234-3910,,"Health organization in MILWAUKEE, WI with annual revenue of approximately $258M",
BREAKTHROUGH T1D,231907729,Health,200 VESEY STREET28TH FLOOR,NEW YORK,NY,10281-5504,,"Health organization in NEW YORK, NY with annual revenue of approximately $258M",
DEBORAH HEART & LUNG CENTER,231550955,Health,200 TRENTON RD,BROWNS MILLS,NJ,08015-1705,,"Health organization in BROWNS MILLS, NJ with annual revenue of approximately $258M",
ASSOCIATED PHYSICIANS OF HARVARD FACULTY PHYSICIANS AT BETH ISREAL,320058309,Health,375 LONGWOOD AVE STE 3,BOSTON,MA,02215-5395,,"Health organization in BOSTON, MA with annual revenue of approximately $257M",
COLD SPRING HARBOR LABORATORY,112013303,Research,1 BUNGTOWN RD,COLD SPG HBR,NY,11724-2209,,"Research organization in COLD SPG HBR, NY with annual revenue of approximately $257M",
MCLEOD PHYSICIAN ASSOCIATES II,202935692,Health,555 E CHEVES ST,FLORENCE,SC,29506-2617,,"Health organization in FLORENCE, SC with annual revenue of approximately $257M",
OCLC INC,310734115,Education,6565 KILGOUR PL,DUBLIN,OH,43017-3315,,"Education organization in DUBLIN, OH with annual revenue of approximately $257M",
UNIVERSITY OF GEORGIA FOUNDATION,586033837,Education,1 PRESS PLACE 101,ATHENS,GA,30601-2605,,"Education organization in ATHENS, GA with annual revenue of approximately $257M",
LAKE REGIONAL HEALTH SYSTEM,237339737,Health,54 HOSPITAL DR,OSAGE BEACH,MO,65065-3050,,"Health organization in OSAGE BEACH, MO with annual revenue of approximately $257M",
EPHRAIM MCDOWELL REGIONAL MEDICAL C ENTER,610492356,Health,217 S 3RD ST,DANVILLE,KY,40422-1823,,"Health organization in DANVILLE, KY with annual revenue of approximately $257M",
ALBANY GENERAL HOSPITAL,930110095,Health,PO BOX 3000,CORVALLIS,OR,97339-3000,,"Health organization in CORVALLIS, OR with annual revenue of approximately $256M",
DEPAUW UNIVERSITY,350869045,Education,313 S LOCUST ST,GREENCASTLE,IN,46135-1736,,"Education organization in GREENCASTLE, IN with annual revenue of approximately $256M",
TRUSTEES OF MOUNT HOLYOKE COLLEGE,042103578,Education,50 COLLEGE ST,SOUTH HADLEY,MA,01075-1423,,"Education organization in SOUTH HADLEY, MA with annual revenue of approximately $255M",
COLUMBUS FOUNDATION,316044264,Community,1234 E BROAD ST,COLUMBUS,OH,43205-1405,,"Community organization in COLUMBUS, OH with annual revenue of approximately $255M",
FLORIDA HOSPITAL HEALTHCARE PARTNERS INC,462354804,Other,770 W GRANADA BLVD STE 101,ORMOND BEACH,FL,32174-5179,,"Other organization in ORMOND BEACH, FL with annual revenue of approximately $255M",
SUNSET PARK HEALTH COUNCIL INC,202508411,Health,150 55TH ST,BROOKLYN,NY,11220-2508,,"Health organization in BROOKLYN, NY with annual revenue of approximately $255M",
ADVENTIST BOLINGBROOK HOSPITAL,651219504,Other,500 REMINGTON BLVD,BOLINGBROOK,IL,60440-4906,,"Other organization in BOLINGBROOK, IL with annual revenue of approximately $255M",
NEW YORK INDEPENDENT SYSTEM OPERATOR INC,141815612,Community,10 KREY BLVD,RENSSELAER,NY,12144-9681,,"Community organization in RENSSELAER, NY with annual revenue of approximately $255M",
ASCENSION MEDICAL GROUP-SOUTHEAST WISCONSIN INC,391791586,Health,PO BOX 45998,SAINT LOUIS,MO,63145-5998,,"Health organization in SAINT LOUIS, MO with annual revenue of approximately $254M",
BRYN MAWR COLLEGE,231352621,Education,101 N MERION AVE,BRYN MAWR,PA,19010-2859,,"Education organization in BRYN MAWR, PA with annual revenue of approximately $254M",
LUMINIS HEALTH DOCTORS COMMUNITY MEDICAL CENTER INC,521638026,Health,2000 MEDICAL PKWY STE 606,ANNAPOLIS,MD,21401-3748,,"Health organization in ANNAPOLIS, MD with annual revenue of approximately $254M",
GOTTLIEB COMMUNITY HEALTH SERVICES CORPORATION,363332852,Health,701 W NORTH AVE,MELROSE PARK,IL,60160-1612,,"Health organization in MELROSE PARK, IL with annual revenue of approximately $254M",
CHILDRENS HOSPITAL LOS ANGELES MEDICAL GROUP INC,953777340,Other,3250 WILSHIRE BLVD STE 1101,LOS ANGELES,CA,90010-1513,,"Other organization in LOS ANGELES, CA with annual revenue of approximately $254M",
KENYON COLLEGE,314379507,Education,209 CHASE AVE,GAMBIER,OH,43022-5024,,"Education organization in GAMBIER, OH with annual revenue of approximately $253M",
SCO FAMILY OF SERVICES,112777066,Human Services,1415 KELLUM PL STE 140,GARDEN CITY,NY,11530-1604,,"Human Services organization in GARDEN CITY, NY with annual revenue of approximately $253M",
YOUNG ADULT INSTITUTE INC,112030172,Human Services,220 EAST 42ND STREET 8TH FLOOR,NEW YORK,NY,10017-5832,,"Human Services organization in NEW YORK, NY with annual revenue of approximately $253M",
HAMASPIK CARE INC,274628760,Health,5 PERLMAN DR,SPRING VALLEY,NY,10977-5281,,"Health organization in SPRING VALLEY, NY with annual revenue of approximately $253M",
GOOD SAMARITAN REGIONAL HEALTH CENTER,430653587,Health,12800 CORPORATE HILL DR,SAINT LOUIS,MO,63131-1833,,"Health organization in SAINT LOUIS, MO with annual revenue of approximately $253M",
MERCY HOSPITAL JEFFERSON,430687077,Health,PO BOX 350,CRYSTAL CITY,MO,63019-0350,,"Health organization in CRYSTAL CITY, MO with annual revenue of approximately $252M",
MARIN COMMUNITY FOUNDATION,943007979,Community,5 HAMILTON LANDING STE 200,NOVATO,CA,94949-8263,,"Community organization in NOVATO, CA with annual revenue of approximately $252M",
PHYSICIAN ENTERPRISE LLC,270263214,Health,2000 MEDICAL PKWY STE 606,ANNAPOLIS,MD,21401-3748,,"Health organization in ANNAPOLIS, MD with annual revenue of approximately $251M",
KENNEDY KRIEGER CHILDRENS HOSPITAL INC,520607971,Health,707 N BROADWAY,BALTIMORE,MD,21205-1832,,"Health organization in BALTIMORE, MD with annual revenue of approximately $251M",
STAMFORD HEALTH MEDICAL GROUP INC,271648289,Health,PO BOX 9317,STAMFORD,CT,06904-9317,,"Health organization in STAMFORD, CT with annual revenue of approximately $251M",
SANTE HEALTH FOUNDATION,200517238,Health,7370 NORTH PALM AVENUE SUITE 101,FRESNO,CA,93711-5782,,"Health organization in FRESNO, CA with annual revenue of approximately $251M",
LIFESPAN PHYSICIAN GROUP INC,050389801,Health,167 POINT STREET,PROVIDENCE,RI,02903-4771,,"Health organization in PROVIDENCE, RI with annual revenue of approximately $251M",
TRUSTEES OF UNION COLLEGE,141338580,Education,807 UNION ST,SCHENECTADY,NY,12308-3256,,"Education organization in SCHENECTADY, NY with annual revenue of approximately $251M",
SOUTHEASTERN REGIONAL MEDICAL CENTER LLC,264572436,Health,1500 DUARTE RD,DUARTE,CA,91010-3012,,"Health organization in DUARTE, CA with annual revenue of approximately $251M",
ENERGY TRUST OF OREGON INC,931313663,Environment,421 SW OAK ST STE 300,PORTLAND,OR,97204-1810,,"Environment organization in PORTLAND, OR with annual revenue of approximately $251M",
MORRIS HOSPITAL,362170155,Health,150 W HIGH ST,MORRIS,IL,60450-1463,,"Health organization in MORRIS, IL with annual revenue of approximately $251M",
UNITED NEGRO COLLEGE FUND INC,131624241,Education,1805 7TH STREET NW,WASHINGTON,DC,20001-3186,,"Education organization in WASHINGTON, DC with annual revenue of approximately $250M",
COLUMBIA COLLEGE CHICAGO,366112087,Education,600 S MICHIGAN AVE,CHICAGO,IL,60605-1900,,"Education organization in CHICAGO, IL with annual revenue of approximately $250M",
CARLE BROMENN MEDICAL CENTER,850682363,Health,611 W PARK ST,URBANA,IL,61801-2529,,"Health organization in URBANA, IL with annual revenue of approximately $250M",
STETSON UNIVERSITY INC,590624416,Education,421 N WOODLAND BLVD,DELAND,FL,32723-8300,,"Education organization in DELAND, FL with annual revenue of approximately $250M",
MEMORIAL HOSPITAL-WEST VOLUSIA INC,593256803,Health,701 W PLYMOUTH AVE,DELAND,FL,32720-3236,,"Health organization in DELAND, FL with annual revenue of approximately $250M",
ASCENSION PROVIDENCE ROCHESTER HOSPITAL,381359247,Health,1 FORD PL,DETROIT,MI,48202-3450,,"Health organization in DETROIT, MI with annual revenue of approximately $250M",
BIOLA UNIVERSITY INC,950549600,Education,13800 BIOLA AVE,LA MIRADA,CA,90639-0002,,"Education organization in LA MIRADA, CA with annual revenue of approximately $250M",
VINFEN CORPORATION,042632219,Human Services,950 CAMBRIDGE ST,CAMBRIDGE,MA,02141-1001,,"Human Services organization in CAMBRIDGE, MA with annual revenue of approximately $250M",
THE QUEENS HEALTH SYSTEMS,990238120,Health,1301 PUNCHBOWL ST,HONOLULU,HI,96813-2413,,"Health organization in HONOLULU, HI with annual revenue of approximately $249M",
CLARK UNIVERSITY,042111203,Education,950 MAIN ST,WORCESTER,MA,01610-1400,,"Education organization in WORCESTER, MA with annual revenue of approximately $249M",
SUN COAST NURSING CENTERS INC,200091844,Health,TWO BALA CYNWYD PLAZA 300,BALA CYNWYD,PA,19004-1512,,"Health organization in BALA CYNWYD, PA with annual revenue of approximately $249M",
COMMUNITIES FOUNDATION OF TEXAS,750964565,Community,5500 CARUTH HAVEN LN,DALLAS,TX,75225-8146,,"Community organization in DALLAS, TX with annual revenue of approximately $249M",
VETTER SENIOR LIVING,471108168,Health,20220 HARNEY ST,ELKHORN,NE,68022-2063,,"Health organization in ELKHORN, NE with annual revenue of approximately $248M",
ST MARYS FOOD BANK ALLIANCE,237353532,Human Services,2831 N 31ST AVE,PHOENIX,AZ,85009-1518,,"Human Services organization in PHOENIX, AZ with annual revenue of approximately $248M",
GROUP HEALTH CO-OPERATIVE OF EAU CLAIRE,396252984,Health,2503 N HILLCREST PKWY,ALTOONA,WI,54720-2569,,"Health organization in ALTOONA, WI with annual revenue of approximately $248M",
ST CHARLES HOSPITAL CORP,111871039,Health,200 BELLE TERRE RD,PRT JEFFERSON,NY,11777-1928,,"Health organization in PRT JEFFERSON, NY with annual revenue of approximately $248M",
NORTON SOUND HEALTH CORPORATION,920041488,Health,PO BOX 966,NOME,AK,99762-0966,,"Health organization in NOME, AK with annual revenue of approximately $248M",
ONE ACRE FUND,203668110,International,2070 GREEN BAY ROAD 183,HIGHLAND PARK,IL,60035-2412,,"International organization in HIGHLAND PARK, IL with annual revenue of approximately $248M",
NEIGHBORHEALTH CORPORATION,237425849,Health,10 GOVE ST,EAST BOSTON,MA,02128-1920,,"Health organization in EAST BOSTON, MA with annual revenue of approximately $247M",
MERS MISSOURI GOODWILL INDUSTRIES,430652657,Human Services,1727 LOCUST ST,SAINT LOUIS,MO,63103-1703,,"Human Services organization in SAINT LOUIS, MO with annual revenue of approximately $247M",
HAWAII PACIFIC HEALTH,990246363,Health,55 MERCHANT STREET 24TH FLOOR,HONOLULU,HI,96813-4333,,"Health organization in HONOLULU, HI with annual revenue of approximately $247M",
NUVANCE HEALTH MEDICAL PRACTICE PC,562669185,Health,45 READE PL,POUGHKEEPSIE,NY,12601-3947,,"Health organization in POUGHKEEPSIE, NY with annual revenue of approximately $247M",
FLORIDA HOSPITAL ZEPHYRHILLS INC,592108057,Health,7050 GALL BLVD,ZEPHYRHILLS,FL,33541-1347,,"Health organization in ZEPHYRHILLS, FL with annual revenue of approximately $246M",
PHOEBE PHYSICIAN GROUP INC,263792403,Health,417 W 3RD AVE,ALBANY,GA,31701-1943,,"Health organization in ALBANY, GA with annual revenue of approximately $246M",
RESEARCH FOUNDATION FOR MENTAL HYGIENE INC,141410842,Health,150 BROADWAY STE 301,MENANDS,NY,12204-2726,,"Health organization in MENANDS, NY with annual revenue of approximately $246M",
ST VINCENTS EAST,630578923,Health,500 22ND STREET SOUTH SUITE 408,BIRMINGHAM,AL,35233-3110,,"Health organization in BIRMINGHAM, AL with annual revenue of approximately $246M",
NORTH TEXAS FOOD BANK,751785357,Other,3677 MAPLESHADE LN,PLANO,TX,75075-5753,,"Other organization in PLANO, TX with annual revenue of approximately $245M",
HOLZER HOSPITAL FOUNDATION,314379491,Health,100 JACKSON PIKE,GALLIPOLIS,OH,45631-1560,,"Health organization in GALLIPOLIS, OH with annual revenue of approximately $245M",
MUNSON HEALTHCARE,382640544,Other,1105 SIXTH ST,TRAVERSE CITY,MI,49684-2345,,"Other organization in TRAVERSE CITY, MI with annual revenue of approximately $244M",
DICKINSON COLLEGE,231365954,Education,PO BOX 1773,CARLISLE,PA,17013-2896,,"Education organization in CARLISLE, PA with annual revenue of approximately $244M",
GUNDERSEN CLINIC LTD,391028657,Health,1836 SOUTH AVE,LA CROSSE,WI,54601-5429,,"Health organization in LA CROSSE, WI with annual revenue of approximately $244M",
SAINT LUKES SOUTH HOSPITAL INC,481203262,Health,12300 METCALF AVE,OVERLAND PARK,KS,66213-1324,,"Health organization in OVERLAND PARK, KS with annual revenue of approximately $244M",
CASTLE MEDICAL CENTER,990107330,Health,1 ADVENTIST HEALTH WAY,ROSEVILLE,CA,95661-3266,,"Health organization in ROSEVILLE, CA with annual revenue of approximately $244M",
ROGER WILLIAMS UNIVERSITY,050277222,Education,1 OLD FERRY RD,BRISTOL,RI,02809-2923,,"Education organization in BRISTOL, RI with annual revenue of approximately $243M",
UNITED CEREBRAL PALSY ASSOCIATIONS OF NEW YORK STATE INC,131623856,Health,40 RECTOR STREET 15TH FLOOR,NEW YORK,NY,10006-1722,,"Health organization in NEW YORK, NY with annual revenue of approximately $243M",
PATIENT ADVOCATE FOUNDATION INC,541806317,Education,421 BUTLEER FARM ROAD,HAMPTON,VA,23666-9904,,"Education organization in HAMPTON, VA with annual revenue of approximately $243M",
CALHFA HOMEOWNER RELIEF CORPORATION,871237752,Community,500 CAPITOL MALL STE 1400,SACRAMENTO,CA,95814-4740,,"Community organization in SACRAMENTO, CA with annual revenue of approximately $243M",
THE MARY LANNING MEMORIAL HOSPITAL ASSOCIATION,470378779,Health,715 N ST JOSEPH AVE,HASTINGS,NE,68901-4451,,"Health organization in HASTINGS, NE with annual revenue of approximately $243M",
UNIVERSITY OF PORTLAND,930401259,Education,5000 N WILLAMETTE BLVD,PORTLAND,OR,97203-5798,,"Education organization in PORTLAND, OR with annual revenue of approximately $243M",
KIPP DC PUBLIC CHARTER SCHOOLS,742974642,Education,1255 UNION ST NE STE 900,WASHINGTON,DC,20002-8496,,"Education organization in WASHINGTON, DC with annual revenue of approximately $243M",
GREATER HOUSTON COMMUNITY FOUNDATION,237160400,Community,515 POST OAK BLVD 1000,HOUSTON,TX,77027-9482,,"Community organization in HOUSTON, TX with annual revenue of approximately $242M",
OKLAHOMA STATE UNIVERSITY FOUNDATION,736097060,Education,400 S MONROE ST,STILLWATER,OK,74074-3322,,"Education organization in STILLWATER, OK with annual revenue of approximately $242M",
BURRELL INC,431081715,Other,2885 W BATTLEFIELD ST,SPRINGFIELD,MO,65807-3952,,"Other organization in SPRINGFIELD, MO with annual revenue of approximately $242M",
LIPSCOMB UNIVERSITY,620485733,Other,1 UNIVERSITY PARK DR,NASHVILLE,TN,37204-3956,,"Other organization in NASHVILLE, TN with annual revenue of approximately $242M",
WEST VIRGINIA UNIV FOUNDATION INC,556017181,Education,PO BOX 1650,MORGANTOWN,WV,26507-1650,,"Education organization in MORGANTOWN, WV with annual revenue of approximately $242M",
U C SAN DIEGO FOUNDATION,952872494,Education,9500 GILMAN DRIVE 0940,LA JOLLA,CA,92093-0940,,"Education organization in LA JOLLA, CA with annual revenue of approximately $242M",
HEALTHEAST WOODWINDS HOSPITAL,411592761,Health,2450 RIVERSIDE AVE,MINNEAPOLIS,MN,55454-1450,,"Health organization in MINNEAPOLIS, MN with annual revenue of approximately $241M",
PHI GROUP RETURN,412273452,Other,1 TRINITY DR E STE 201,DILLSBURG,PA,17019-8522,,"Other organization in DILLSBURG, PA with annual revenue of approximately $241M",
LEWIS AND CLARK COLLEGE,930386858,Education,615 S PALATINE HILL RD,PORTLAND,OR,97219-8091,,"Education organization in PORTLAND, OR with annual revenue of approximately $241M",
DOUGLAS HOSPITAL INC,582026750,Health,793 SAWYER RD,MARIETTA,GA,30062-2222,,"Health organization in MARIETTA, GA with annual revenue of approximately $241M",
UNIVERSITY OF GEORGIA ATHLETIC ASSOCIATION INC,580652518,Education,456 E BROAD ST RM 225,ATHENS,GA,30602-1536,,"Education organization in ATHENS, GA with annual revenue of approximately $241M",
WORLD CENTRAL KITCHEN INCORPORATED,273521132,International,200 MASSACHUSETTS AVE NW,WASHINGTON,DC,20001-1429,,"International organization in WASHINGTON, DC with annual revenue of approximately $241M",
UNITED HEALTH CENTERS OF THE SAN JOAQUIN VALLEY,941732538,Health,3875 W BEECHWOOD AVE,FRESNO,CA,93711-0794,,"Health organization in FRESNO, CA with annual revenue of approximately $241M",
INTER AMERICAN UNIVERSITY OF PUERTO RICO,660177776,Education,PO BOX 363255,SAN JUAN,PR,00936-3255,,"Education organization in SAN JUAN, PR with annual revenue of approximately $241M",
BAPTIST MEMORIAL MEDICAL GROUP INC,621545731,Health,350 N HUMPHREYS BLVD,MEMPHIS,TN,38120-2177,,"Health organization in MEMPHIS, TN with annual revenue of approximately $241M",
RENOWN HEALTH,942972845,Health,1155 MILL STREET Z-5,RENO,NV,89502-1576,,"Health organization in RENO, NV with annual revenue of approximately $240M",
CHILDRENS HOSPITAL,310537130,Health,3333 BURNET AVE,CINCINNATI,OH,45229-3039,,"Health organization in CINCINNATI, OH with annual revenue of approximately $240M",
ALLEN INSTITUTE,912155317,Health,615 WESTLAKE AVE N,SEATTLE,WA,98109-4307,,"Health organization in SEATTLE, WA with annual revenue of approximately $240M",
SCHOLARSHIP AMERICA INC,042296967,Education,1 SCHOLARSHIP WAY,ST PETER,MN,56082-1693,,"Education organization in ST PETER, MN with annual revenue of approximately $240M",
GLEN COVE HOSPITAL,111633487,Health,972 BRUSH HOLLOW RD 5TH FL,WESTBURY,NY,11590-1740,,"Health organization in WESTBURY, NY with annual revenue of approximately $239M",
VILLAGES TRI-COUNTY MEDICAL CENTER INC,593527036,Health,1451 EL CAMINO REAL,THE VILLAGES,FL,32159-0041,,"Health organization in THE VILLAGES, FL with annual revenue of approximately $239M",
UNIVERSITY OF THE CUMBERLANDS INC,610470593,Education,6180 COLLEGE STATION DR,WILLIAMSBURG,KY,40769-1372,,"Education organization in WILLIAMSBURG, KY with annual revenue of approximately $239M",
COMMUNITY BRIDGES INC,942880847,Health,1855 W BASELINE RD STE 101,MESA,AZ,85202-9098,,"Health organization in MESA, AZ with annual revenue of approximately $239M",
MEHARRY MEDICAL COLLEGE,620488046,Education,1005 DR DB TODD JR BLVD,NASHVILLE,TN,37208-3501,,"Education organization in NASHVILLE, TN with annual revenue of approximately $239M",
PIEDMONT NEWTON HOSPITAL INC,582155150,Health,5126 HOSPITAL DR NE,COVINGTON,GA,30014-2566,,"Health organization in COVINGTON, GA with annual revenue of approximately $239M",
SOUTH COUNTY HOSPITAL HEALTHCARE,050445136,Health,100 KENYON AVE,WAKEFIELD,RI,02879-4216,,"Health organization in WAKEFIELD, RI with annual revenue of approximately $238M",
LUTHERAN SENIOR SERVICES,430654862,Human Services,1150 HANLEY INDUSTRIAL CT,SAINT LOUIS,MO,63144-1910,,"Human Services organization in SAINT LOUIS, MO with annual revenue of approximately $238M",
NOBLE NETWORK OF CHARTER SCHOOLS,364241970,Education,1 N STATE ST,CHICAGO,IL,60602-3302,,"Education organization in CHICAGO, IL with annual revenue of approximately $238M",
GEISINGER-LEWISTOWN HOSPITAL,231352187,Health,100 N ACADEMY AVE MC 49-70,DANVILLE,PA,17822-9800,,"Health organization in DANVILLE, PA with annual revenue of approximately $238M",
GREEN DOT PUBLIC SCHOOLS,954679811,Education,1149 S HILL ST STE 600,LOS ANGELES,CA,90015-2895,,"Education organization in LOS ANGELES, CA with annual revenue of approximately $238M",
UCHEALTH GREELEY HOSPITAL,822666059,Health,2315 E HARMONY RD STE 200,FORT COLLINS,CO,80528-8620,,"Health organization in FORT COLLINS, CO with annual revenue of approximately $238M",
PARTNERS IN HEALTH A NONPROFIT CORPORATION,043567502,Health,800 BOYLSTON ST STE 300,BOSTON,MA,02199-7032,,"Health organization in BOSTON, MA with annual revenue of approximately $238M",
ST MARYS REGIONAL MEDICAL CENTER,010211551,Health,PO BOX 291,LEWISTON,ME,04243-0291,,"Health organization in LEWISTON, ME with annual revenue of approximately $237M",
THEDACARE REGIONAL MEDICAL CENTER- APPLETON INC,390824015,Health,PO BOX 8025,APPLETON,WI,54912-8025,,"Health organization in APPLETON, WI with annual revenue of approximately $237M",
BARTON HEALTHCARE SYSTEM,946050274,Health,2170 SOUTH AVE,S LAKE TAHOE,CA,96150-7026,,"Health organization in S LAKE TAHOE, CA with annual revenue of approximately $237M",
TRUST FOR PUBLIC LAND,237222333,Environment,23 GEARY STREET 1000,SAN FRANCISCO,CA,94108-5750,,"Environment organization in SAN FRANCISCO, CA with annual revenue of approximately $237M",
SPRINGPOINT SENIOR LIVING INC,223498690,Human Services,4814 OUTLOOK DR STE 201,WALL TOWNSHIP,NJ,07753-6812,,"Human Services organization in WALL TOWNSHIP, NJ with annual revenue of approximately $237M",
THE NEW YORK FOUNDLING,131624123,Human Services,590 AVE OF THE AMERICAS,NEW YORK,NY,10011-2022,,"Human Services organization in NEW YORK, NY with annual revenue of approximately $237M",
AMERICAN MUSEUM OF NATURAL HISTORY,136162659,Arts & Culture,CENTRAL PARK WEST AT 79TH ST,NEW YORK,NY,10024-0000,,"Arts & Culture organization in NEW YORK, NY with annual revenue of approximately $237M",
THE CENTER FOR NEW YORK CITY,830506416,Human Services,60 BROAD ST 24TH FLOOR 2503,NEW YORK,NY,10004-2342,,"Human Services organization in NEW YORK, NY with annual revenue of approximately $236M",
ARCARE,581666179,Health,PO BOX 497,AUGUSTA,AR,72006-0497,,"Health organization in AUGUSTA, AR with annual revenue of approximately $236M",
NEW PARTNERS INC,133885148,Community,5 PENN PLAZA 20TH FLR,NEW YORK,NY,10001-1810,,"Community organization in NEW YORK, NY with annual revenue of approximately $236M",
MERCY CATHOLIC MEDICAL CENTER OF SOUTHEASTERN PA,231352191,Health,3805 WEST CHESTER PIKE STE 100,NEWTOWN SQ,PA,19073-2329,,"Health organization in NEWTOWN SQ, PA with annual revenue of approximately $236M",
LIFESPACE COMMUNITIES INC,421068850,Human Services,3501 OLYMPUS BLVD STE 300,COPPELL,TX,75019-6292,,"Human Services organization in COPPELL, TX with annual revenue of approximately $236M",
KNOX COMMUNITY HOSPITAL,310929576,Health,1330 COSHOCTON AVE,MOUNT VERNON,OH,43050-1440,,"Health organization in MOUNT VERNON, OH with annual revenue of approximately $235M",
ATLANTICARE PHYSICIAN GROUP PA,020701782,Health,2500 ENGLISH CREEK AVE STE 500,EGG HBR TWP,NJ,08234-5549,,"Health organization in EGG HBR TWP, NJ with annual revenue of approximately $235M",
INDIANA REGIONAL MEDICAL CENTER,250965404,Health,835 HOSPITAL RD,INDIANA,PA,15701-3629,,"Health organization in INDIANA, PA with annual revenue of approximately $235M",
VERSITI WISCONSIN INC,390807235,Health,PO BOX 2178,MILWAUKEE,WI,53201-2178,,"Health organization in MILWAUKEE, WI with annual revenue of approximately $235M",
LOMA LINDA UNIVERSITY HEALTH CARE,330364239,Health,PO BOX 2000,LOMA LINDA,CA,92354-0200,,"Health organization in LOMA LINDA, CA with annual revenue of approximately $235M",
GALLAUDET UNIVERSITY,530199507,Education,800 FLORIDA AVENUE NE 108,WASHINGTON,DC,20002-3695,,"Education organization in WASHINGTON, DC with annual revenue of approximately $234M",
CENTRAL TEXAS COMMUNITY HEALTH CENTERS,550853118,Health,2115 KRAMER LN STE 100,AUSTIN,TX,78758-4196,,"Health organization in AUSTIN, TX with annual revenue of approximately $234M",
CARTER CENTER COLLABORATIVE INC,205704991,International,453 JOHN LEWIS FREEDOM PKWY NE,ATLANTA,GA,30307-1496,,"International organization in ATLANTA, GA with annual revenue of approximately $234M",
MAIN LINE SERVICES,232359402,Other,240 N RADNOR CHESTER RD STE170,RADNOR,PA,19087-5170,,"Other organization in RADNOR, PA with annual revenue of approximately $234M",
FOOD BANK OF CENTRAL & EASTERN NORTH CAROLINA INC,561283426,Human Services,1924 CAPITAL BLVD,RALEIGH,NC,27604-2147,,"Human Services organization in RALEIGH, NC with annual revenue of approximately $233M",
UPMC,820912090,Health,600 GRANT ST 58TH FL,PITTSBURGH,PA,15219-2739,,"Health organization in PITTSBURGH, PA with annual revenue of approximately $233M",
CLAREMONT MCKENNA COLLEGE,951664101,Other,888 COLUMBIA AVE,CLAREMONT,CA,91711-3901,,"Other organization in CLAREMONT, CA with annual revenue of approximately $233M",
TIDES CENTER,943213100,Human Services,1012 TORNEY AVE,SAN FRANCISCO,CA,94129-1704,,"Human Services organization in SAN FRANCISCO, CA with annual revenue of approximately $233M",
JEFFERSON HOSPITAL ASSN INC,710329353,Health,1600 W 40TH AVE,PINE BLUFF,AR,71603-6301,,"Health organization in PINE BLUFF, AR with annual revenue of approximately $233M",
ST LUKES WARREN HOSPITAL INC,221494454,Health,801 OSTRUM STREET,BETHLEHEM,PA,18015-1000,,"Health organization in BETHLEHEM, PA with annual revenue of approximately $233M",
SAINT LUKES NORTH HOSPITAL,440565393,Health,5830 NW BARRY RD,KANSAS CITY,MO,64154-2778,,"Health organization in KANSAS CITY, MO with annual revenue of approximately $233M",
UPMC,231360851,Health,600 GRANT ST 58TH FL,PITTSBURGH,PA,15219-2739,,"Health organization in PITTSBURGH, PA with annual revenue of approximately $233M",
COMMUNITY HOSPITAL OF ANDERSON- MADISON COUNTY INC,351069822,Health,1515 N MADISON AVE,ANDERSON,IN,46011-3453,,"Health organization in ANDERSON, IN with annual revenue of approximately $233M",
COMMUNITY CARE OF NORTH CAROLINA INC,463355510,Health,110 DONMOOR CT,GARNER,NC,27529-2500,,"Health organization in GARNER, NC with annual revenue of approximately $233M",
ASCENSION HEALTH,311662309,Health,4600 EDMUNDSON RD,SAINT LOUIS,MO,63134-3806,,"Health organization in SAINT LOUIS, MO with annual revenue of approximately $233M",
LUTHERAN IMMIGRATION AND REFUGEE SERVICE,132574854,Other,700 LIGHT ST,BALTIMORE,MD,21230-3850,,"Other organization in BALTIMORE, MD with annual revenue of approximately $232M",
INTERNATIONAL MEDICAL CORPS,953949646,International,12400 WILSHIRE BLVD STE 1500,LOS ANGELES,CA,90025-1030,,"International organization in LOS ANGELES, CA with annual revenue of approximately $232M",
COMMUNITY COORDINATED CARE FOR CHILDREN INC,591371754,Human Services,3500 W COLONIAL DR,ORLANDO,FL,32808-7902,,"Human Services organization in ORLANDO, FL with annual revenue of approximately $232M",
MASONIC VILLAGES OF THE GRAND LODGE OF PENNSYLVANIA,230846955,Human Services,1 MASONIC DR,ELIZABETHTOWN,PA,17022-2199,,"Human Services organization in ELIZABETHTOWN, PA with annual revenue of approximately $232M",
THE ASPEN INSTITUTE INC,840399006,Research,2300 N ST NW STE 700,WASHINGTON,DC,20037-1122,,"Research organization in WASHINGTON, DC with annual revenue of approximately $232M",
NATIONAL GEOGRAPHIC SOCIETY,530193519,Education,1145 17TH ST NW,WASHINGTON,DC,20036-4707,,"Education organization in WASHINGTON, DC with annual revenue of approximately $231M",
MARION GENERAL HOSPITAL,350868130,Health,441 N WABASH AVE,MARION,IN,46952-2690,,"Health organization in MARION, IN with annual revenue of approximately $231M",
HEART TO HEART INTERNATIONAL INC,481108359,International,11550 RENNER BLVD,LENEXA,KS,66219-9600,,"International organization in LENEXA, KS with annual revenue of approximately $231M",
DISTRICT MEDICAL GROUP INC,208106540,Health,2929 E THOMAS RD,PHOENIX,AZ,85016-8034,,"Health organization in PHOENIX, AZ with annual revenue of approximately $231M",
CAMPBELL UNIVERSITY,560529940,Education,PO BOX 275,BUIES CREEK,NC,27506-0275,,"Education organization in BUIES CREEK, NC with annual revenue of approximately $231M",
PINE REST CHRISTIAN MENTAL HEALTH SERVICES,381368360,Health,300 68TH ST SE,GRAND RAPIDS,MI,49548-6927,,"Health organization in GRAND RAPIDS, MI with annual revenue of approximately $230M",
CLARKSON UNIVERSITY,150543659,Education,8 CLARKSON AVENUE BOX 5546,POTSDAM,NY,13699-5546,,"Education organization in POTSDAM, NY with annual revenue of approximately $230M",
ALEGENT HEALTH-IMMANUEL MEDICAL CENTER,470376615,Health,76901 NORTH 72D STREET,OMAHA,NE,68122-0000,,"Health organization in OMAHA, NE with annual revenue of approximately $230M",
CITRUS HEALTH NETWORK INC,591865751,Other,4175 W 20TH AVE,HIALEAH,FL,33012-5874,,"Other organization in HIALEAH, FL with annual revenue of approximately $230M",
COMMUNITY SERVICES FOR CHILDREN INC,232204725,Education,1520 HANOVER AVE,ALLENTOWN,PA,18109-2360,,"Education organization in ALLENTOWN, PA with annual revenue of approximately $230M",
DUKE UNIVERSITY AFFILIATED PHYSICANS INC,561902501,Health,2200 W MAIN ST STE 300,DURHAM,NC,27705-4677,,"Health organization in DURHAM, NC with annual revenue of approximately $230M",
REGIONAL WEST MEDICAL CENTER,470385129,Health,4021 AVENUE B,SCOTTSBLUFF,NE,69361-4602,,"Health organization in SCOTTSBLUFF, NE with annual revenue of approximately $230M",
UPMC,251778658,Health,600 GRANT ST 58TH FL USS TOWER,PITTSBURGH,PA,15219-2739,,"Health organization in PITTSBURGH, PA with annual revenue of approximately $229M",
PIEDMONT CARTERSVILLE HOSPITAL INC,870963633,Health,960 JOE FRANK HARRIS PKWY SE,CARTERSVILLE,GA,30120-2129,,"Health organization in CARTERSVILLE, GA with annual revenue of approximately $229M",
UNITED CEREBRAL PALSY OF NEW YORK CITY INC,135654532,Health,80 MAIDEN LN FL 12,NEW YORK,NY,10038-4721,,"Health organization in NEW YORK, NY with annual revenue of approximately $229M",
MARY BIRD PERKINS CANCER CENTER,237010520,Health,4950 ESSEN LANE,BATON ROUGE,LA,70809-3738,,"Health organization in BATON ROUGE, LA with annual revenue of approximately $229M",
OZARKS MEDICAL CENTER,446005758,Health,1100 N KENTUCKY AVE,WEST PLAINS,MO,65775-2029,,"Health organization in WEST PLAINS, MO with annual revenue of approximately $229M",
GETTYSBURG COLLEGE,231352641,Education,300 N WASHINGTON ST BOX 2458,GETTYSBURG,PA,17325-1400,,"Education organization in GETTYSBURG, PA with annual revenue of approximately $228M",
SOUTHWESTERN VERMONT MEDICAL CENTER INC,222563241,Health,100 HOSPITAL DR,BENNINGTON,VT,05201-5004,,"Health organization in BENNINGTON, VT with annual revenue of approximately $228M",
SANTIAM MEMORIAL HOSPITAL,930415219,Health,1401 N 10TH AVE,STAYTON,OR,97383-1311,,"Health organization in STAYTON, OR with annual revenue of approximately $228M",
CAMELOT COMMUNITY CARE INC,311659302,Human Services,15500 ROOSEVELT BLVD STE 204,CLEARWATER,FL,33760-3430,,"Human Services organization in CLEARWATER, FL with annual revenue of approximately $228M",
YUKON-KUSKOKWIM HEALTH CORPORATION,920041414,Health,PO BOX 528,BETHEL,AK,99559-0528,,"Health organization in BETHEL, AK with annual revenue of approximately $228M",
SIGHT SAVERS INTERNATIONAL INC,311740776,Health,1 BOSTON PL STE 2600,BOSTON,MA,02108-4420,,"Health organization in BOSTON, MA with annual revenue of approximately $228M",
WEIRTON MEDICAL CENTER INC,550387249,Health,601 COLLIERS WAY,WEIRTON,WV,26062-5014,,"Health organization in WEIRTON, WV with annual revenue of approximately $227M",
ST FRANCIS REGIONAL MEDICAL CENTER,410907986,Health,PO BOX 43,MINNEAPOLIS,MN,55440-0043,,"Health organization in MINNEAPOLIS, MN with annual revenue of approximately $227M",
FLORIDA ESSENTIAL HEALTHCARE PARTNERSHIPS FOUNDATION INC,853682775,Health,401 W 15TH ST STE 840,AUSTIN,TX,78701-1667,,"Health organization in AUSTIN, TX with annual revenue of approximately $227M",
SAINT FRANCIS HOSPITAL SOUTH LLC,010603214,Health,6600 S YALE AVE STE 400,TULSA,OK,74136-3319,,"Health organization in TULSA, OK with annual revenue of approximately $227M",
SHINE BC-LA,843947799,Education,854 FOLSOM ST,SAN FRANCISCO,CA,94107-1123,,"Education organization in SAN FRANCISCO, CA with annual revenue of approximately $226M",
MUSEUM OF FINE ARTS HOUSTON,741109655,Arts & Culture,PO BOX 6826,HOUSTON,TX,77265-6826,,"Arts & Culture organization in HOUSTON, TX with annual revenue of approximately $226M",
ROLLINS COLLEGE,590624440,Education,1000 HOLT AVE - CB 2715,WINTER PARK,FL,32789-4499,,"Education organization in WINTER PARK, FL with annual revenue of approximately $226M",
COMMUNITY FOOD BANK OF NEW JERSEY INC,222423882,Human Services,31 EVANS TERMINAL,HILLSIDE,NJ,07205-2400,,"Human Services organization in HILLSIDE, NJ with annual revenue of approximately $226M",
BRADLEY UNIVERSITY,370661494,Education,1501 W BRADLEY AVE,PEORIA,IL,61625-0001,,"Education organization in PEORIA, IL with annual revenue of approximately $226M",
SAN DIEGO STATE UNIVERSITY FOUNDATION,956042721,Education,5250 CAMPANILE DRIVE MC1947,SAN DIEGO,CA,92182-1947,,"Education organization in SAN DIEGO, CA with annual revenue of approximately $226M",
INDIANA WESLEYAN UNIVERSITY,350885591,Education,4201 SOUTH WASHINGTON STREET,MARION,IN,46953-4974,,"Education organization in MARION, IN with annual revenue of approximately $226M",
WACCAMAW COMMUNITY HOSPITAL,043633263,Health,PO BOX 421718,GEORGETOWN,SC,29442-4203,,"Health organization in GEORGETOWN, SC with annual revenue of approximately $225M",
NEIGHBORHOOD HEALTHCARE,952796316,Other,215 S HICKORY ST STE 322,ESCONDIDO,CA,92025-4362,,"Other organization in ESCONDIDO, CA with annual revenue of approximately $225M",
COMMCARE CORPORATION,720996315,Health,950 WEST CAUSEWAY APPROACH,MANDEVILLE,LA,70471-3082,,"Health organization in MANDEVILLE, LA with annual revenue of approximately $225M",
WGBH EDUCATIONAL FOUNDATION,042104397,Arts & Culture,1 GUEST ST,BRIGHTON,MA,02135-2016,,"Arts & Culture organization in BRIGHTON, MA with annual revenue of approximately $225M",
MACALESTER COLLEGE,410693962,Education,1600 GRAND AVE,SAINT PAUL,MN,55105-1801,,"Education organization in SAINT PAUL, MN with annual revenue of approximately $224M",
CLINTON HEALTH ACCESS INITIATIVE INC,271414646,International,383 DORCHESTER AVE S400,BOSTON,MA,02127-2422,,"International organization in BOSTON, MA with annual revenue of approximately $224M",
UNIVERSITY OF ARIZONA FOUNDATION,866050388,Education,1111 N CHERRY AVE,TUCSON,AZ,85721-0111,,"Education organization in TUCSON, AZ with annual revenue of approximately $224M",
WARREN CLINIC INC,731310891,Health,6600 S YALE AVE STE 400,TULSA,OK,74136-3319,,"Health organization in TULSA, OK with annual revenue of approximately $224M",
COMMUNITY HOWARD REGIONAL HEALTH INC,351865344,Other,3500 S LAFOUNTAIN ST,KOKOMO,IN,46902-3803,,"Other organization in KOKOMO, IN with annual revenue of approximately $224M",
JEWISH NATIONAL FUND -KEREN KAYEMETH LEISRAEL- INC,131659627,International,78 RANDALL AVE,ROCKVILLE CTR,NY,11570-3922,,"International organization in ROCKVILLE CTR, NY with annual revenue of approximately $224M",
CHRISTIAN APPALACHIAN PROJECT INC,610661137,Human Services,196 BEITING LN,MOUNT VERNON,KY,40456-6375,,"Human Services organization in MOUNT VERNON, KY with annual revenue of approximately $224M",
ARCH HEALTH PARTNERS INC,271332228,Health,15611 POMERADO RD STE 400,POWAY,CA,92064-2437,,"Health organization in POWAY, CA with annual revenue of approximately $223M",
BAPTIST MEMORIAL HOSPITAL UNION COUNTY INC,630997281,Health,200 HWY 30 W,NEW ALBANY,MS,38652-3112,,"Health organization in NEW ALBANY, MS with annual revenue of approximately $223M",
HARTFORD HEALTHCARE MEDICAL GROUP INC,454456939,Health,1290 SILAS DEANE HIGHWAY 2ND FLOOR,WETHERSFIELD,CT,06109-4337,,"Health organization in WETHERSFIELD, CT with annual revenue of approximately $223M",
JUILLIARD SCHOOL,131624067,Education,60 LINCOLN CENTER PLAZA,NEW YORK,NY,10023-6500,,"Education organization in NEW YORK, NY with annual revenue of approximately $223M",
RHODE ISLAND SCHOOL OF DESIGN,050258956,Education,20 WASHINGTON PLACE,PROVIDENCE,RI,02903-1358,,"Education organization in PROVIDENCE, RI with annual revenue of approximately $223M",
CLINICA SIERRA VISTA,952707101,Health,PO BOX 1559,BAKERSFIELD,CA,93302-1559,,"Health organization in BAKERSFIELD, CA with annual revenue of approximately $223M",
SPECIAL SERVICE FOR GROUPS INC,951716914,Human Services,905 E 8TH ST,LOS ANGELES,CA,90021-1848,,"Human Services organization in LOS ANGELES, CA with annual revenue of approximately $223M",
UNIVERSITY HOSPITAL & CLINICS INC,462605366,Health,2390 W CONGRESS ST,LAFAYETTE,LA,70506-4205,,"Health organization in LAFAYETTE, LA with annual revenue of approximately $222M",
FLORIDA INSTITUTE OF TECHNOLOGY INC,596046500,Education,150 W UNIVERSITY BLVD,MELBOURNE,FL,32901-8995,,"Education organization in MELBOURNE, FL with annual revenue of approximately $222M",
CHILD DEVELOPMENT ASSOCIATES INCORPORATED,330050042,Human Services,180 OTAY LAKES RD STE 310,BONITA,CA,91902-2442,,"Human Services organization in BONITA, CA with annual revenue of approximately $222M",
FAMILY SUPPORT SERVICES OF NORTH FLORIDA INC,593759863,Human Services,1300 RIVERPLACE BLVD STE 700,JACKSONVILLE,FL,32207-9090,,"Human Services organization in JACKSONVILLE, FL with annual revenue of approximately $222M",
NORTHEAST BEHAVIORAL HEALTH CARE CONSORTIUM,900214791,Health,72 GLENMAURA NATIONAL BLVD 2ND,MOOSIC,PA,18507-2133,,"Health organization in MOOSIC, PA with annual revenue of approximately $222M",
SIERRA NEVADA MEMORIAL-MINERS HOSPITAL,941439787,Health,155 GLASSON WAY,GRASS VALLEY,CA,95945-5723,,"Health organization in GRASS VALLEY, CA with annual revenue of approximately $222M",
LAKE ERIE COLLEGE OF OSTEOPATHIC MEDICINE INC,251698677,Education,1858 W GRANDVIEW BLVD,ERIE,PA,16509-1025,,"Education organization in ERIE, PA with annual revenue of approximately $222M",
PROVIDENCE MEDICAL INSTITUTE,330283773,Other,1801 LIND AVE SW ATTN TAX DEPT,RENTON,WA,98057-3368,,"Other organization in RENTON, WA with annual revenue of approximately $222M",
SKOOKUM EDUCATIONAL PROGRAMS,911434778,Other,PO BOX 5359,BREMERTON,WA,98312-0518,,"Other organization in BREMERTON, WA with annual revenue of approximately $221M",
TEACH FOR AMERICA INC,133541913,Education,25 BROADWAY 12TH FLOOR,NEW YORK,NY,10004-1056,,"Education organization in NEW YORK, NY with annual revenue of approximately $221M",
NORTHWEST IOWA HOSPITAL CORPORATION,421019872,Health,2720 STONE PARK BLVD,SIOUX CITY,IA,51104-3734,,"Health organization in SIOUX CITY, IA with annual revenue of approximately $221M",
CAMBA INC,112480339,Community,1720 CHURCH AVE 2ND FLOOR,BROOKLYN,NY,11226-2630,,"Community organization in BROOKLYN, NY with annual revenue of approximately $221M",
PENNSYLVANIA CYBER CHARTER SCHOOL,233037992,Education,652 MIDLAND AVE,MIDLAND,PA,15059-1433,,"Education organization in MIDLAND, PA with annual revenue of approximately $220M",
FARM SHARE INC,650342192,Human Services,14125 SW 320TH ST,HOMESTEAD,FL,33033-5539,,"Human Services organization in HOMESTEAD, FL with annual revenue of approximately $220M",
YELED V YALDA EARLY CHILDHOOD CENTER INC,113050340,Education,1312 38TH ST,BROOKLYN,NY,11218-3612,,"Education organization in BROOKLYN, NY with annual revenue of approximately $220M",
A T STILL UNIVERSITY OF HEALTH SCIENCES,430356250,Education,800 W JEFFERSON ST,KIRKSVILLE,MO,63501-1443,,"Education organization in KIRKSVILLE, MO with annual revenue of approximately $220M",
KIPP SOCAL PUBLIC SCHOOLS,261607268,Education,1933 S BROADWAY SUITE 1144,LOS ANGELES,CA,90007-4501,,"Education organization in LOS ANGELES, CA with annual revenue of approximately $220M",
SUMMA HEALTH,341887844,Health,1077 GORGE BLVD,AKRON,OH,44310-2408,,"Health organization in AKRON, OH with annual revenue of approximately $220M",
SIMMONS UNIVERSITY,042103629,Education,300 THE FENWAY,BOSTON,MA,02115-5820,,"Education organization in BOSTON, MA with annual revenue of approximately $220M",
MONUMENT HEALTH NETWORK INC,460360899,Health,PO BOX 6000,RAPID CITY,SD,57709-6000,,"Health organization in RAPID CITY, SD with annual revenue of approximately $220M",
ELIOT COMMUNITY HUMAN SERVICES INC,042316924,Health,125 HARTWELL AVE,LEXINGTON,MA,02421-3100,,"Health organization in LEXINGTON, MA with annual revenue of approximately $219M",
FELLO INC,526047882,Health,999 CORPORATE BOULEVARD,LINTHICUM HEIGHTS,MD,21090-2268,,"Health organization in LINTHICUM HEIGHTS, MD with annual revenue of approximately $219M",
UNIVERSITY OF KANSAS MEDICAL CENTER RESEARCH INSTITUTE,481108830,Health,3901 RAINBOW BLVD,KANSAS CITY,KS,66160-8500,,"Health organization in KANSAS CITY, KS with annual revenue of approximately $219M",
HAZELDEN BETTY FORD FOUNDATION,410682405,Health,PO BOX 11,CENTER CITY,MN,55012-0011,,"Health organization in CENTER CITY, MN with annual revenue of approximately $219M",
THE CLEAR FUND,208625442,Community,1714 FRANKLIN STREET 100335,OAKLAND,CA,94612-3488,,"Community organization in OAKLAND, CA with annual revenue of approximately $219M",
AZUSA PACIFIC UNIVERSITY,951744369,Education,901 E ALOSTA AVE,AZUSA,CA,91702-2701,,"Education organization in AZUSA, CA with annual revenue of approximately $219M",
JEWISH BOARD OF FAMILY & CHILDRENS SERVICES INC,135564937,Human Services,463 SEVENTH AVENUE 18TH FLOOR,NEW YORK,NY,10018-7760,,"Human Services organization in NEW YORK, NY with annual revenue of approximately $219M",
THE MONROE CLINIC INC,390808509,Health,12800 CORPORATE HILL DR,SAINT LOUIS,MO,63131-1833,,"Health organization in SAINT LOUIS, MO with annual revenue of approximately $219M",
JOHNSTON MEMORIAL HOSPITAL INC,540544705,Health,311 PRINCETON RD STE 1,JOHNSON CITY,TN,37601-2080,,"Health organization in JOHNSON CITY, TN with annual revenue of approximately $219M",
NEW ENGLAND BAPTIST HOSPITAL,042103612,Health,CO BILH TAX 529 MAIN ST 4TH FL,CHARLESTOWN,MA,02129-0000,,"Health organization in CHARLESTOWN, MA with annual revenue of approximately $219M",
HOSPICE OF THE VALLEY,860338886,Human Services,1510 E FLOWER ST,PHOENIX,AZ,85014-5656,,"Human Services organization in PHOENIX, AZ with annual revenue of approximately $219M",
JEWISH FEDERATION OF METROPOLITAN CHICAGO,362167761,Community,30 SOUTH WELLS STREET 4049,CHICAGO,IL,60606-5054,,"Community organization in CHICAGO, IL with annual revenue of approximately $219M",
EL PASOANS FIGHTING HUNGER,452893839,Human Services,9541 PLAZA CIR,EL PASO,TX,79927-2005,,"Human Services organization in EL PASO, TX with annual revenue of approximately $218M",
DAP HEALTH INC,330068583,Health,1695 N SUNRISE WAY,PALM SPRINGS,CA,92262-3701,,"Health organization in PALM SPRINGS, CA with annual revenue of approximately $218M",
BAYCARE HOME CARE INC,593582520,Health,8452 118TH AVE,LARGO,FL,33773-5007,,"Health organization in LARGO, FL with annual revenue of approximately $218M",
BAPTIST MEDICAL CENTER BEACHES,592980620,Health,1660 PRUDENTIAL DR STE 203,JACKSONVILLE,FL,32207-8185,,"Health organization in JACKSONVILLE, FL with annual revenue of approximately $218M",
UNIVERSITY OF OKLAHOMA FOUNDATION INC,736091755,Education,100 TIMBERDELL ROAD,NORMAN,OK,73019-5016,,"Education organization in NORMAN, OK with annual revenue of approximately $218M",
SAINT FRANCIS HOSPITAL MUSKOGEE INC,814322087,Health,6600 S YALE AVE STE 400,TULSA,OK,74136-3319,,"Health organization in TULSA, OK with annual revenue of approximately $218M",
STONY BROOK INTERNISTS P C,112558775,Health,PO BOX 1554,STONY BROOK,NY,11790-0988,,"Health organization in STONY BROOK, NY with annual revenue of approximately $218M",
THE SAN DIEGO FOUNDATION,952942582,Community,2508 HISTORIC DECATUR,SAN DIEGO,CA,92106-6138,,"Community organization in SAN DIEGO, CA with annual revenue of approximately $218M",
NORTHERN DUTCHESS HOSPITAL,141338467,Health,6511 SPRING BROOK AVE,RHINEBECK,NY,12572-3709,,"Health organization in RHINEBECK, NY with annual revenue of approximately $218M",
COMMUNITY HEALTH PARTNERS,852103299,Health,45 E RIVER PARK PL W STE 507,FRESNO,CA,93720-1565,,"Health organization in FRESNO, CA with annual revenue of approximately $218M",
ARH TUG VALLEY HEALTH SERVICES INC,822577178,Health,2260 EXECUTIVE DR,LEXINGTON,KY,40505-4808,,"Health organization in LEXINGTON, KY with annual revenue of approximately $217M",
TOWER HEALTH MEDICAL GROUP,232266054,Other,420 S 5TH AVE,WEST READING,PA,19611-2143,,"Other organization in WEST READING, PA with annual revenue of approximately $217M",
SAN ANTONIO FOOD BANK INC,742122979,Other,5200 HISTORIC OLD HWY 90,SAN ANTONIO,TX,78227-0000,,"Other organization in SAN ANTONIO, TX with annual revenue of approximately $217M",
CHARLOTTE HUNGERFORD HOSPITAL,060646678,Health,PO BOX 988,TORRINGTON,CT,06790-0988,,"Health organization in TORRINGTON, CT with annual revenue of approximately $217M",
T H I N K TOGETHER,330781751,Education,2101 E 4TH ST BLDG B200,SANTA ANA,CA,92705-3822,,"Education organization in SANTA ANA, CA with annual revenue of approximately $216M",
LOYOLA UNIVERSITY,720408946,Education,6363 ST CHARLES AVE,NEW ORLEANS,LA,70118-6143,,"Education organization in NEW ORLEANS, LA with annual revenue of approximately $216M",
LOS ANGELES PHILHARMONIC ASSOCIATION,951696734,Arts & Culture,151 S GRAND AVE,LOS ANGELES,CA,90012-3034,,"Arts & Culture organization in LOS ANGELES, CA with annual revenue of approximately $216M",
SIENA COLLEGE,141338498,Education,515 LOUDON RD,LOUDONVILLE,NY,12211-1459,,"Education organization in LOUDONVILLE, NY with annual revenue of approximately $216M",
PEOPLE INC,160975538,Human Services,1219 N FOREST RD,WILLIAMSVILLE,NY,14221-3230,,"Human Services organization in WILLIAMSVILLE, NY with annual revenue of approximately $216M",
SIMI VALLEY HOSPITAL AND HEALTH CARE SERVICES,956064971,Health,1 ADVENTIST HEALTH WAY,ROSEVILLE,CA,95661-3266,,"Health organization in ROSEVILLE, CA with annual revenue of approximately $216M",
MERCY CLINIC OKLAHOMA COMMUNITIES,270473057,Health,14528 S OUTER FORTY,CHESTERFIELD,MO,63017-5785,,"Health organization in CHESTERFIELD, MO with annual revenue of approximately $215M",
BEHRING GLOBAL EDUCATIONAL FOUNDATION,844053692,Human Services,3820 BLACKHAWK RD,DANVILLE,CA,94506-4617,,"Human Services organization in DANVILLE, CA with annual revenue of approximately $215M",
PRISMA HEALTH TUOMEY,474914917,Health,300 EAST MCBEE AVENUE SUITE 500,GREENVILLE,SC,29601-2842,,"Health organization in GREENVILLE, SC with annual revenue of approximately $215M",
COMMUNITY AND ECONOMIC DEVELOPMENT ASSOCIATION OF COOK COUNTY INC,362597741,Community,567 W LAKE ST STE 1200,CHICAGO,IL,60661-1405,,"Community organization in CHICAGO, IL with annual revenue of approximately $215M",
LEGACY MOUNT HOOD MEDICAL CENTER,930591528,Health,24800 SE STARK ST,GRESHAM,OR,97030-3378,,"Health organization in GRESHAM, OR with annual revenue of approximately $215M",
UNIVERSITY OF KANSAS CENTER FOR RESEARCH INC,480680117,Research,1450 JAYHAWK BOULEVARD ROOM 245,LAWRENCE,KS,66045-7568,,"Research organization in LAWRENCE, KS with annual revenue of approximately $214M",
HUMANGOOD NORCAL,941225374,Human Services,1900 HUNTINGTON DR,DUARTE,CA,91010-2694,,"Human Services organization in DUARTE, CA with annual revenue of approximately $214M",
CAPE CANAVERAL HOSPITAL INC,592477479,Health,3300 S FISKE BLVD,ROCKLEDGE,FL,32955-4306,,"Health organization in ROCKLEDGE, FL with annual revenue of approximately $214M",
UNIVERSITY OF LA VERNE,951644026,Education,1950 3RD ST,LA VERNE,CA,91750-4401,,"Education organization in LA VERNE, CA with annual revenue of approximately $214M",
DUNCAN REGIONAL HOSPITAL INC,731008550,Health,2621 N WHISENANT DR,DUNCAN,OK,73533-0911,,"Health organization in DUNCAN, OK with annual revenue of approximately $214M",
PRIDE INDUSTRIES ONE INC,911827109,Human Services,10030 FOOTHILLS BLVD,ROSEVILLE,CA,95747-7102,,"Human Services organization in ROSEVILLE, CA with annual revenue of approximately $213M",
CULINARY INSTITUTE OF AMERICA,060653264,Education,1946 CAMPUS DR,HYDE PARK,NY,12538-1430,,"Education organization in HYDE PARK, NY with annual revenue of approximately $213M",
PURE HAND FOR MANKIND INC,454810098,International,PO BOX 941112,PLANO,TX,75094-1112,,"International organization in PLANO, TX with annual revenue of approximately $213M",
SID PETERSON MEMORIAL HOSPITAL,742557820,Health,551 HILL COUNTRY DR,KERRVILLE,TX,78028-6085,,"Health organization in KERRVILLE, TX with annual revenue of approximately $213M",
COLUMBIA LUTHERAN CHARITIES,930583856,Community,2111 EXCHANGE ST,ASTORIA,OR,97103-3329,,"Community organization in ASTORIA, OR with annual revenue of approximately $213M",
EL PASO CHILDRENS HOSPITAL CORPORATION,263075429,Health,4845 ALAMEDA AVE,EL PASO,TX,79905-2705,,"Health organization in EL PASO, TX with annual revenue of approximately $213M",
FEEDING AMERICA TAMPA BAY INC,592116576,Human Services,3624 CAUSEWAY BLVD,TAMPA,FL,33619-5194,,"Human Services organization in TAMPA, FL with annual revenue of approximately $212M",
HOUSTON LIVESTOCK SHOW & RODEO INC,741142851,Human Services,3 NRG PARK,HOUSTON,TX,77054-1574,,"Human Services organization in HOUSTON, TX with annual revenue of approximately $212M",
GOODWILL INDUSTRIES OF HOUSTON,741285095,Human Services,1140 WEST LOOP N,HOUSTON,TX,77055-7218,,"Human Services organization in HOUSTON, TX with annual revenue of approximately $212M",
ENDICOTT COLLEGE,042103567,Education,376 HALE ST,BEVERLY,MA,01915-2096,,"Education organization in BEVERLY, MA with annual revenue of approximately $212M",
WINDWARD FUND,473522162,Environment,1828 L STREET NW SUITE 300-C,WASHINGTON,DC,20036-5109,,"Environment organization in WASHINGTON, DC with annual revenue of approximately $212M",
HAMASPIK CHOICE INC,454781328,Health,58 ROUTE 59 STE 1,MONSEY,NY,10952-3740,,"Health organization in MONSEY, NY with annual revenue of approximately $212M",
BAPTIST OUTPATIENT SERVICES INC,562290370,Health,6855 RED ROAD SUITE 600,CORAL GABLES,FL,33143-3518,,"Health organization in CORAL GABLES, FL with annual revenue of approximately $212M",
SOLARIS FOUNDATION INC,455611172,Health,PO BOX 3310,WINDERMERE,FL,34786-3310,,"Health organization in WINDERMERE, FL with annual revenue of approximately $212M",
OCCIDENTAL COLLEGE,951667177,Education,1600 CAMPUS RD,LOS ANGELES,CA,90041-3314,,"Education organization in LOS ANGELES, CA with annual revenue of approximately $212M",
MUSEUM OF SCIENCE,042103916,Arts & Culture,1 SCIENCE PARK,BOSTON,MA,02114-1000,,"Arts & Culture organization in BOSTON, MA with annual revenue of approximately $211M",
BRIGHTON COMMUNITY HOSPITAL ASSOCIATION,840482695,Health,36 S STATE ST STE 2200,SALT LAKE CTY,UT,84111-1470,,"Health organization in SALT LAKE CTY, UT with annual revenue of approximately $211M",
UNITED STATES GOLF ASSOCIATION,131427105,Human Services,77 LIBERTY CORNER RD,LIBERTY COR,NJ,07938-3500,,"Human Services organization in LIBERTY COR, NJ with annual revenue of approximately $211M",
TRINE UNIVERSITY INC,350715530,Education,1 UNIVERSITY AVE,ANGOLA,IN,46703-1764,,"Education organization in ANGOLA, IN with annual revenue of approximately $211M",
ST LAWRENCE UNIVERSITY,150532239,Education,23 ROMODA DR,CANTON,NY,13617-1423,,"Education organization in CANTON, NY with annual revenue of approximately $211M",
LOS ANGELES LGBT CENTER,953567895,Other,1118 N MCCADDEN PL,LOS ANGELES,CA,90038-1213,,"Other organization in LOS ANGELES, CA with annual revenue of approximately $211M",
PARK NICOLLET HEALTH SERVICES,363465840,Health,6500 PARK NICOLLET BOULEVARD,ST LOUIS PARK,MN,55416-0000,,"Health organization in ST LOUIS PARK, MN with annual revenue of approximately $211M",
THE FREDERICK FERRIS THOMPSON HOSPI TAL,160743024,Health,350 PARRISH ST,CANANDAIGUA,NY,14424-1731,,"Health organization in CANANDAIGUA, NY with annual revenue of approximately $211M",
GOODWILL INDUSTRIES OF THE COLUMBIA WILLAMETTE,930386840,Human Services,1943 SE 6TH AVE,PORTLAND,OR,97214-4508,,"Human Services organization in PORTLAND, OR with annual revenue of approximately $211M",
SUCCESS ACADEMY CHARTER SCHOOLS INC,205298861,Education,95 PINE ST 6TH FLOOR,NEW YORK,NY,10005-0054,,"Education organization in NEW YORK, NY with annual revenue of approximately $211M",
THEDACARE INC,391509362,Health,3 NEENAH CTR,NEENAH,WI,54956-3070,,"Health organization in NEENAH, WI with annual revenue of approximately $210M",
BEACON HEALTH SYSTEM INC,453864076,Health,615 N MICHIGAN ST,SOUTH BEND,IN,46601-1033,,"Health organization in SOUTH BEND, IN with annual revenue of approximately $210M",
EDUCATION DEVELOPMENT CENTER INC,042241718,Other,300 FIFTH AVENUE SUITE 2010,WALTHAM,MA,02451-8778,,"Other organization in WALTHAM, MA with annual revenue of approximately $210M",
ST JOSEPH MERCY CHELSEA INC,824757260,Health,775 S MAIN ST,CHELSEA,MI,48118-1399,,"Health organization in CHELSEA, MI with annual revenue of approximately $210M",
MEDICAL TECHNOLOGY ENTERPRISE CONSORTIUM,474960128,Research,315 SIGMA DR,SUMMERVILLE,SC,29486-7790,,"Research organization in SUMMERVILLE, SC with annual revenue of approximately $210M",
BOSTON FOUNDATION INC,042104021,Community,75 ARLINGTON STREET,BOSTON,MA,02116-3936,,"Community organization in BOSTON, MA with annual revenue of approximately $210M",
YORK HOSPITAL,010212444,Health,15 HOSPITAL DRIVE 2C,YORK,ME,03909-1011,,"Health organization in YORK, ME with annual revenue of approximately $210M",
SOUTHEASTERN UNIVERSITIES RESEARCH ASSOCIATION INC,541156453,Research,1201 NEW YORK AVE NW,WASHINGTON,DC,20005-3917,,"Research organization in WASHINGTON, DC with annual revenue of approximately $210M",
CHILDFUND INTERNATIONAL USA,540536100,International,2821 EMERYWOOD PARKWAY,RICHMOND,VA,23294-3726,,"International organization in RICHMOND, VA with annual revenue of approximately $210M",
CITY HARVEST INC,133170676,Human Services,150 52ND ST,BROOKLYN,NY,11232-4317,,"Human Services organization in BROOKLYN, NY with annual revenue of approximately $210M",
HARBOR HOSPITAL INC,520491660,Health,3001 S HANOVER ST,BALTIMORE,MD,21225-1233,,"Health organization in BALTIMORE, MD with annual revenue of approximately $209M",
METHODIST LEBONHEUR HEALTHCARE,581454711,Health,1211 UNION AVE SUITE 900,MEMPHIS,TN,38104-6638,,"Health organization in MEMPHIS, TN with annual revenue of approximately $209M",
GEORGETOWN HOSPITAL SYSTEM,020598440,Health,PO BOX 421718,GEORGETOWN,SC,29442-4203,,"Health organization in GEORGETOWN, SC with annual revenue of approximately $209M",
RUSH OAK PARK HOSPITAL INC,362183812,Health,520 S MAPLE AVE,OAK PARK,IL,60304-1022,,"Health organization in OAK PARK, IL with annual revenue of approximately $209M",
ANDERSON HOSPITAL,370662561,Health,6800 STATE ROUTE 162,MARYVILLE,IL,62062-8500,,"Health organization in MARYVILLE, IL with annual revenue of approximately $208M",
GOLDEN VALLEY HEALTH CENTERS,942196086,Health,737 W CHILDS AVE,MERCED,CA,95341-6805,,"Health organization in MERCED, CA with annual revenue of approximately $208M",
CORNING HOSPITAL,160393490,Health,1 GUTHRIE DR,CORNING,NY,14830-3696,,"Health organization in CORNING, NY with annual revenue of approximately $208M",
BERRY COLLEGE INC,580566133,Education,PO BOX 490129,MOUNT BERRY,GA,30149-0129,,"Education organization in MOUNT BERRY, GA with annual revenue of approximately $208M",
ST JOSEPH HOSPITAL,010212435,Health,PO BOX 403,BANGOR,ME,04402-0403,,"Health organization in BANGOR, ME with annual revenue of approximately $208M",
VALLEY PHYSICIAN SERVICES PC,465285330,Health,15 ESSEX RD STE 506,PARAMUS,NJ,07652-1458,,"Health organization in PARAMUS, NJ with annual revenue of approximately $208M",
HUMANE WORLD FOR ANIMALS INC,530225390,Health,1255 23RD ST NW STE 450,WASHINGTON,DC,20037-1168,,"Health organization in WASHINGTON, DC with annual revenue of approximately $207M",
TRUSTEES OF PHILLIPS ACADEMY,042103579,Education,180 MAIN ST,ANDOVER,MA,01810-4166,,"Education organization in ANDOVER, MA with annual revenue of approximately $207M",
RISING GROUND INC,131860451,Human Services,1333 BROADWAY,NEW YORK,NY,10018-7204,,"Human Services organization in NEW YORK, NY with annual revenue of approximately $207M",
ST EDWARDS UNIVERSITY,741109641,Education,3001 S CONGRESS AVE,AUSTIN,TX,78704-6425,,"Education organization in AUSTIN, TX with annual revenue of approximately $207M",
JOINT COMMISSION ON ACCREDITATION OF HEALTHCARE ORGANIZATIONS,362229255,Health,1 RENAISSANCE BLVD,OAKBROOK TER,IL,60181-4294,,"Health organization in OAKBROOK TER, IL with annual revenue of approximately $207M",
CALDWELL MEMORIAL HOSPITAL INC,560554202,Health,321 MULBERRY ST SW,LENOIR,NC,28645-5720,,"Health organization in LENOIR, NC with annual revenue of approximately $207M",
CUYUNA REGIONAL MEDICAL CENTER,411724637,Health,320 E MAIN ST,CROSBY,MN,56441-1645,,"Health organization in CROSBY, MN with annual revenue of approximately $207M",
COVENANT HEALTH,621646734,Health,1420 CENTERPOINT BLVD BLDG C,KNOXVILLE,TN,37932-1960,,"Health organization in KNOXVILLE, TN with annual revenue of approximately $207M",
GRAND LAKE MENTAL HEALTH CENTER INC,731039733,Health,6111 EAST SKELLY DRIVE,TULSA,OK,74135-6100,,"Health organization in TULSA, OK with annual revenue of approximately $206M",
SOUTHEAST HOSPITAL,430654874,Health,1701 LACEY ST,CPE GIRARDEAU,MO,63701-5230,,"Health organization in CPE GIRARDEAU, MO with annual revenue of approximately $206M",
THE CEDARVILLE UNIVERSITY,310536647,Education,251 N MAIN ST,CEDARVILLE,OH,45314-8501,,"Education organization in CEDARVILLE, OH with annual revenue of approximately $206M",
LEWIS UNIVERSITY,362167773,Education,1 UNIVERSITY PKWY,ROMEOVILLE,IL,60446-2200,,"Education organization in ROMEOVILLE, IL with annual revenue of approximately $206M",
GOODWILL INDUSTRIES OF CENTRAL TEXAS,741322808,Human Services,1015 NORWOOD PARK BLVD,AUSTIN,TX,78753-6608,,"Human Services organization in AUSTIN, TX with annual revenue of approximately $206M",
CLIMATE IMPERATIVE FOUNDATION,845024713,Environment,98 BATTERY ST STE 202,SAN FRANCISCO,CA,94111-5509,,"Environment organization in SAN FRANCISCO, CA with annual revenue of approximately $206M",
GOLDMAN SACHS CHARITABLE GIFT FUND,113813663,Community,200 WEST STREET 29TH FLOOR,NEW YORK,NY,10282-2102,,"Community organization in NEW YORK, NY with annual revenue of approximately $206M",
WHEATON COLLEGE,362182171,Education,501 COLLEGE AVENUE,WHEATON,IL,60187-9936,,"Education organization in WHEATON, IL with annual revenue of approximately $206M",
REEDLEY COMMUNITY HOSPITAL,453220509,Other,1 ADVENTIST HEALTH WAY,ROSEVILLE,CA,95661-3266,,"Other organization in ROSEVILLE, CA with annual revenue of approximately $206M",
MANHATTAN UNIVERSITY,131740468,Education,4513 MANHATTAN COLLEGE PKWY,BRONX,NY,10471-4004,,"Education organization in BRONX, NY with annual revenue of approximately $206M",
DALLAS SAFETY NET SUPPORT CORPORATION,823131059,Health,1441 N BECKLEY AVE,DALLAS,TX,75203-1201,,"Health organization in DALLAS, TX with annual revenue of approximately $205M",
VIERA HOSPITAL INC,264019868,Health,3300 S FISKE BLVD,ROCKLEDGE,FL,32955-4306,,"Health organization in ROCKLEDGE, FL with annual revenue of approximately $205M",
NEIGHBORHOOD REINVESTMENT CORP,521148078,Other,1255 UNION ST NE STE 500,WASHINGTON,DC,20002-8495,,"Other organization in WASHINGTON, DC with annual revenue of approximately $205M",
UCSF HEALTH COMMUNITY HOSPITALS,941156295,Health,900 HYDE ST,SAN FRANCISCO,CA,94109-4806,,"Health organization in SAN FRANCISCO, CA with annual revenue of approximately $205M",
MARIAN UNIVERSITY,350868175,Education,3200 COLD SPRING RD,INDIANAPOLIS,IN,46222-1960,,"Education organization in INDIANAPOLIS, IN with annual revenue of approximately $205M",
SAINT FRANCIS MINISTRIES INC,481059281,Health,110 W OTIS AVE,SALINA,KS,67401-8713,,"Health organization in SALINA, KS with annual revenue of approximately $205M",
PRESERVATION FREEHOLD COMPANY,900475369,Human Services,1500 WATERS RIDGE DR,LEWISVILLE,TX,75057-6011,,"Human Services organization in LEWISVILLE, TX with annual revenue of approximately $205M",
TRINITY HEALTH OF NEW ENGLAND CORPORATION INC,061491191,Health,114 WOODLAND STREET MS-510358,HARTFORD,CT,06105-1208,,"Health organization in HARTFORD, CT with annual revenue of approximately $205M",
ST MARYS HOSPITAL OF ST MARYS COUNTY,520619006,Health,8525 E ORCHARD RD 8T3,GREENWOOD VILLAGE,CO,80111-5002,,"Health organization in GREENWOOD VILLAGE, CO with annual revenue of approximately $205M",
GOOD SAMARITAN HOSPITAL,470379755,Health,10 E 31ST ST,KEARNEY,NE,68847-2926,,"Health organization in KEARNEY, NE with annual revenue of approximately $205M",
CORPORATION OF HAVERFORD COLLEGE,236002304,Education,370 W LANCASTER AVE,HAVERFORD,PA,19041-1336,,"Education organization in HAVERFORD, PA with annual revenue of approximately $205M",
BEHAVIORAL HEALTH NETWORK INC,042103756,Health,417 LIBERTY STREET,SPRINGFIELD,MA,01104-3736,,"Health organization in SPRINGFIELD, MA with annual revenue of approximately $204M",
HOWARD BROWN HEALTH CENTER,362894128,Other,4025 N SHERIDAN RD,CHICAGO,IL,60613-2010,,"Other organization in CHICAGO, IL with annual revenue of approximately $204M",
LSU HEALTH SCIENCES CENTER - SHREVEPORT FACULTY GROUP PRACTICE,364774713,Health,1541 KINGS HWY,SHREVEPORT,LA,71103-4228,,"Health organization in SHREVEPORT, LA with annual revenue of approximately $204M",
REED INSTITUTE,930386908,Education,3203 SE WOODSTOCK BLVD,PORTLAND,OR,97202-8199,,"Education organization in PORTLAND, OR with annual revenue of approximately $204M",
HAMPTON UNIVERSITY,540505990,Education,363 BROUT DR,HAMPTON,VA,23666-3680,,"Education organization in HAMPTON, VA with annual revenue of approximately $204M",
AMERICAN NEAR EAST REFUGEE AID INC,520882226,International,1101 15TH ST NW STE401,WASHINGTON,DC,20005-5002,,"International organization in WASHINGTON, DC with annual revenue of approximately $204M",
PROHEALTH MEDICAL GROUP INC,391083015,Health,N17W24100 RIVERWOOD DR STE 130,WAUKESHA,WI,53188-1177,,"Health organization in WAUKESHA, WI with annual revenue of approximately $204M",
