name,ein,category,address,city,state,zip_code,website,description,phone
LINCOLN COMMUNITY HEALTH CENTER INCORPORATED,561031244,Health,1301 FAYETTEVILLE ST,DURHAM,NC,27707-2325,,"Health organization in DURHAM, NC with annual revenue of approximately $42M",
CAMERON WORKS INC,742299267,Human Services,851 OLD ALICE RD,BROWNSVILLE,TX,78520-8551,,"Human Services organization in BROWNSVILLE, TX with annual revenue of approximately $42M",
COLUMBUS COLLEGE OF ART & DESIGN,310820394,Education,60 CLEVELAND AVE,COLUMBUS,OH,43215-3808,,"Education organization in COLUMBUS, OH with annual revenue of approximately $42M",
CAROLINA CARING INC,561242526,Human Services,3975 ROBINSON RD,NEWTON,NC,28658-9715,,"Human Services organization in NEWTON, NC with annual revenue of approximately $42M",
MILWAUKEE CENTER FOR INDEPENDENCE INC,390806257,Human Services,2020 W WELLS ST,MILWAUKEE,WI,53233-2720,,"Human Services organization in MILWAUKEE, WI with annual revenue of approximately $42M",
EFFECTIVE VENTURES FOUNDATION USA,471988398,Education,2443 FILLMORE ST 380-16662,SAN FRANCISCO,CA,94115-1814,,"Education organization in SAN FRANCISCO, CA with annual revenue of approximately $42M",
COMMUNITY HEALTH CENTERS OF BURLINGTON INC,237182584,Health,617 RIVERSIDE AVE,BURLINGTON,VT,05401-1601,,"Health organization in BURLINGTON, VT with annual revenue of approximately $42M",
LITTLE SCHOLARS OF ARKANSAS FOUNDATION,061665076,Education,21 CORPORATE HILL DR,LITTLE ROCK,AR,72205-4537,,"Education organization in LITTLE ROCK, AR with annual revenue of approximately $42M",
ODYSSEY CHARTER SCHOOL INCORPORATED,201787299,Education,4319 LANCASTER PIKE,WILMINGTON,DE,19805-1521,,"Education organization in WILMINGTON, DE with annual revenue of approximately $42M",
ROBERT M HEARIN SUPPORT FOUNDATION,582203211,Education,400 W PARKWAY PL STE 101,RIDGELAND,MS,39157-6005,,"Education organization in RIDGELAND, MS with annual revenue of approximately $42M",
GREAT LAKES PHYSICIAN PRACTICE PC,464186362,Health,600 GRANT ST 58TH FL CORP TAX,PITTSBURGH,PA,15219-2739,,"Health organization in PITTSBURGH, PA with annual revenue of approximately $42M",
THE DISTRICT OF COLUMBIA BAR FOUNDATION,521109547,Human Services,200 MASSACHUSETTS AVE NW,WASHINGTON,DC,20001-1429,,"Human Services organization in WASHINGTON, DC with annual revenue of approximately $42M",
NEW JERSEY FAMILY PLANNING LEAGUE INC,222051199,Other,238 MULBERRY ST,NEWARK,NJ,07102-3528,,"Other organization in NEWARK, NJ with annual revenue of approximately $42M",
STONY BROOK ORTHOPAEDIC ASSOCIATES UNIVERSITY FACULTY PRACTICE CORP,112593061,Health,PO BOX 1554,STONY BROOK,NY,11790-0988,,"Health organization in STONY BROOK, NY with annual revenue of approximately $42M",
THE MENTAL HEALTH CENTER OF GREATER MANCHESTER INC,020258994,Other,401 CYPRESS ST,MANCHESTER,NH,03103-3628,,"Other organization in MANCHESTER, NH with annual revenue of approximately $42M",
HARCUM COLLEGE,231424055,Education,750 MONTGOMERY AVE,BRYN MAWR,PA,19010-3405,,"Education organization in BRYN MAWR, PA with annual revenue of approximately $42M",
ALBERT EINSTEIN HEALTHCARE NETWORK,231352200,Health,1101 MARKET ST STE 2004,PHILADELPHIA,PA,19107-2934,,"Health organization in PHILADELPHIA, PA with annual revenue of approximately $42M",
TEXAS A&M UNIVERSITY-KINGSVILLE FOUNDATION INC,237166534,Education,PO BOX 2202,KINGSVILLE,TX,78363-8301,,"Education organization in KINGSVILLE, TX with annual revenue of approximately $42M",
UNITED COMMUNITY AND FAMILY SERVICES INC,060653142,Other,34 E TOWN ST,NORWICH,CT,06360-2317,,"Other organization in NORWICH, CT with annual revenue of approximately $42M",
CALIFORNIA VIRTUAL ACADEMY AT SAN JOAQUIN -A CALIFORNIA NPRFT CORP-,320208787,Education,50 MORELAND RD,SIMI VALLEY,CA,93065-1659,,"Education organization in SIMI VALLEY, CA with annual revenue of approximately $42M",
BEAVER COUNTRY DAY SCHOOL INC,042103869,Education,791 HAMMOND ST,CHESTNUT HILL,MA,02467-2317,,"Education organization in CHESTNUT HILL, MA with annual revenue of approximately $42M",
GRACE CLINIC OF LUBBOCK,203856995,Health,4515 MARSHA SHARP FWY,LUBBOCK,TX,79407-2520,,"Health organization in LUBBOCK, TX with annual revenue of approximately $42M",
CORPORACION DE SALUD ASEGURADA POR NUESTRA ORGANIZACION SOLIDARIA INC,660671421,Health,PO BOX 1025,CAGUAS,PR,00726-1025,,"Health organization in CAGUAS, PR with annual revenue of approximately $42M",
GLOBAL CHARITABLE FUND,464499862,Community,118 NORTH CLINTON STREET,CHICAGO,IL,60661-2386,,"Community organization in CHICAGO, IL with annual revenue of approximately $42M",
ROSE COMMUNITY FOUNDATION,840920862,Community,4500 CHERRY CREEK DR S SUITE 900,DENVER,CO,80246-0000,,"Community organization in DENVER, CO with annual revenue of approximately $42M",
INGLIS HOUSE,231352284,Human Services,2600 BELMONT AVE,PHILADELPHIA,PA,19131-2713,,"Human Services organization in PHILADELPHIA, PA with annual revenue of approximately $42M",
HILLTOP HEALTH SERVICES CORPORATION,742321009,Health,1331 HERMOSA AVE,GRAND JCT,CO,81506-4099,,"Health organization in GRAND JCT, CO with annual revenue of approximately $42M",
OHIO VALLEY GOODWILL INDUSTRIES REHABILITATION CENTER INC,310554062,Other,10600 SPRINGFIELD PIKE,CINCINNATI,OH,45215-1121,,"Other organization in CINCINNATI, OH with annual revenue of approximately $42M",
TAPESTRY 360 HEALTH,363843377,Other,1301 W DEVON AVE,CHICAGO,IL,60660-1329,,"Other organization in CHICAGO, IL with annual revenue of approximately $42M",
BREVARD ACHIEVEMENT CENTER INC,591203280,Human Services,1845 COGSWELL ST,ROCKLEDGE,FL,32955-3210,,"Human Services organization in ROCKLEDGE, FL with annual revenue of approximately $42M",
YOSEMITE VALLEY CHARTER SCHOOL,842358972,Education,3610 E ASHLAN AVE,FRESNO,CA,93726-3533,,"Education organization in FRESNO, CA with annual revenue of approximately $42M",
BOCA RATON REGIONAL HOSPITAL FOUNDATION INC,592406425,Community,800 MEADOWS RD,BOCA RATON,FL,33486-2304,,"Community organization in BOCA RATON, FL with annual revenue of approximately $42M",
PILSEN LITTLE VILLAGE COMMUNITY MENTAL HEALTH CENTER INC,362836998,Other,2319 S DAMEN AVE,CHICAGO,IL,60608-4209,,"Other organization in CHICAGO, IL with annual revenue of approximately $42M",
HIRAM COLLEGE,340714670,Education,11715 GARFIELD RD,HIRAM,OH,44234-3409,,"Education organization in HIRAM, OH with annual revenue of approximately $42M",
MATTRESS RECYCLING COUNCIL,464208045,Environment,501 WYTHE ST,ALEXANDRIA,VA,22314-1917,,"Environment organization in ALEXANDRIA, VA with annual revenue of approximately $42M",
CENTER FOR FAMILY SUPPORT INC,131913807,Human Services,333 7TH AVENUE 9TH FLOOR,NEW YOURK,NY,10001-5827,,"Human Services organization in NEW YOURK, NY with annual revenue of approximately $42M",
AMERICAN EMBASSY SCHOOL ASSOCIATION,986001263,Education,9000 NEW DELHI PL,WASHINGTON,DC,20521-9000,,"Education organization in WASHINGTON, DC with annual revenue of approximately $42M",
BRODSTONE MEMORIAL HOSPITAL,470388012,Health,520 E 10TH ST,SUPERIOR,NE,68978-1225,,"Health organization in SUPERIOR, NE with annual revenue of approximately $42M",
GRANITE VNA INC,020222122,Health,30 PILLSBURY ST,CONCORD,NH,03301-3502,,"Health organization in CONCORD, NH with annual revenue of approximately $42M",
ECONOMIC DEVELOPMENT PARTNERSHIP OF NORTH CAROLINA INC,464840814,Community,150 FAYETTEVILLE ST STE 1200,RALEIGH,NC,27601-2956,,"Community organization in RALEIGH, NC with annual revenue of approximately $42M",
ANSWERS IN GENESIS INC,330596423,Religion,2800 BULLITTSBURG CHURCH RD,PETERSBURG,KY,41080-9364,,"Religion organization in PETERSBURG, KY with annual revenue of approximately $42M",
ASHOKA,510255908,International,1000 WILSON BLVD STE 1900,ARLINGTON,VA,22209-3937,,"International organization in ARLINGTON, VA with annual revenue of approximately $42M",
FRIENDSHIP VILLAGE OF DUBLIN OHIO INC,310986918,Human Services,6000 RIVERSIDE DRIVE,DUBLIN,OH,43017-1492,,"Human Services organization in DUBLIN, OH with annual revenue of approximately $42M",
RETIREMENT HOUSING FOUNDATION,952249495,Human Services,911 NORTH STUDEBAKER ROAD,LONG BEACH,CA,90815-4900,,"Human Services organization in LONG BEACH, CA with annual revenue of approximately $42M",
SHAWNEE HEALTH SERVICE AND DEVELOPMENT CORP,370966854,Health,109 CALIFORNIA ST,CARTERVILLE,IL,62918-1923,,"Health organization in CARTERVILLE, IL with annual revenue of approximately $42M",
RHODE ISLAND MAYORAL ACADEMY,270617933,Education,291 BROAD ST,CUMBERLAND,RI,02864-7802,,"Education organization in CUMBERLAND, RI with annual revenue of approximately $42M",
ASCENTRIA CARE ALLIANCE INC,043566243,Human Services,11 SHATTUCK ST,WORCESTER,MA,01605-3650,,"Human Services organization in WORCESTER, MA with annual revenue of approximately $42M",
LAGRANGE COLLEGE,580566199,Education,601 BROAD ST,LAGRANGE,GA,30240-2955,,"Education organization in LAGRANGE, GA with annual revenue of approximately $42M",
KENDAL AT HANOVER I,020519490,Human Services,80 LYME ROAD,HANOVER,NH,03755-0000,,"Human Services organization in HANOVER, NH with annual revenue of approximately $42M",
NATIONAL NETWORK OF PUBLIC HEALTH INSTITUTES,721505359,Health,1100 POYDRAS ST STE 950,NEW ORLEANS,LA,70163-0901,,"Health organization in NEW ORLEANS, LA with annual revenue of approximately $42M",
COMMUNITY RESIDENCES INC,541004092,Human Services,14160 NEWBROOK DR,CHANTILLY,VA,20151-2297,,"Human Services organization in CHANTILLY, VA with annual revenue of approximately $42M",
HOPKINS SCHOOL INCORPORATED,060646674,Education,986 FOREST RD,NEW HAVEN,CT,06515-2501,,"Education organization in NEW HAVEN, CT with annual revenue of approximately $42M",
CAROLE ROBERTSON CENTER FOR LEARNING,362882124,Human Services,1111 S WESTERN AVE SUITE B,CHICAGO,IL,60612-4146,,"Human Services organization in CHICAGO, IL with annual revenue of approximately $42M",
TWIN OAKS JUVENILE DEVELOPMENT INC,593512790,Human Services,2930 KERRY FOREST PKWY STE 101,TALLAHASSEE,FL,32309-7807,,"Human Services organization in TALLAHASSEE, FL with annual revenue of approximately $42M",
ALBANY LAW SCHOOL,141338309,Education,80 NEW SCOTLAND AVE,ALBANY,NY,12208-3434,,"Education organization in ALBANY, NY with annual revenue of approximately $42M",
NEIGHBORIMPACT,930884929,Human Services,2303 SW 1ST ST,REDMOND,OR,97756-7133,,"Human Services organization in REDMOND, OR with annual revenue of approximately $42M",
SUNDANCE INSTITUTE,870361394,Arts & Culture,PO BOX 684429,PARK CITY,UT,84068-4429,,"Arts & Culture organization in PARK CITY, UT with annual revenue of approximately $42M",
LAKEWOOD CHEDAR SCHOOL,222137420,Education,725 VASSAR AVE,LAKEWOOD,NJ,08701-6908,,"Education organization in LAKEWOOD, NJ with annual revenue of approximately $42M",
WILDERNESS SOCIETY,530167933,Environment,1801 PENNSYLVANIA AVE NW,WASHINGTON,DC,20006-3606,,"Environment organization in WASHINGTON, DC with annual revenue of approximately $42M",
VISTA CHARTER PUBLIC SCHOOLS,272860204,Education,2900 W TEMPLE ST,LOS ANGELES,CA,90026-4516,,"Education organization in LOS ANGELES, CA with annual revenue of approximately $42M",
SHARE FOOD PROGRAM INC,232360819,Human Services,2901 W HUNTING PARK AVE,PHILADELPHIA,PA,19129-1802,,"Human Services organization in PHILADELPHIA, PA with annual revenue of approximately $42M",
CARDINAL BAY INC,352440075,Human Services,110 S TURNPIKE RD,WALLINGFORD,CT,06492-4342,,"Human Services organization in WALLINGFORD, CT with annual revenue of approximately $42M",
WEST VIRGINIA UNIVERSITY MEDICAL CORPORATION,550779739,Education,3110 MACCORKLE AVE SE,CHARLESTON,WV,25304-1210,,"Education organization in CHARLESTON, WV with annual revenue of approximately $42M",
VISTA REAL PUBLIC CHARTER INC,342050844,Education,177 HOLSTON DR,LANCASTER,CA,93535-4570,,"Education organization in LANCASTER, CA with annual revenue of approximately $42M",
FRACTURED ATLAS INC,113451703,Arts & Culture,228 PARK AVE S 56651,NEW YORK,NY,10003-1502,,"Arts & Culture organization in NEW YORK, NY with annual revenue of approximately $42M",
ARCA,856005755,Human Services,11300 LOMAS BLVD NE,ALBUQUERQUE,NM,87112-5512,,"Human Services organization in ALBUQUERQUE, NM with annual revenue of approximately $42M",
ST ANNS HOME INC,042104866,Other,100A HAVERHILL ST,METHUEN,MA,01844-4251,,"Other organization in METHUEN, MA with annual revenue of approximately $41M",
UNIVERSITY OF HEALTH SCIENCES AND PHARMACY IN ST LOUIS,430652675,Education,1 PHARMACY PL,SAINT LOUIS,MO,63110-1009,,"Education organization in SAINT LOUIS, MO with annual revenue of approximately $41M",
CLASSICAL ACADEMY,841349017,Education,975 STOUT RD,COLORADO SPGS,CO,80921-3801,,"Education organization in COLORADO SPGS, CO with annual revenue of approximately $41M",
JORDAN PHYSICIAN ASSOCIATES INC,043228556,Health,CO BILH TAX 529 MAIN ST 4TH FL,CHARLESTOWN,MA,02129-0000,,"Health organization in CHARLESTOWN, MA with annual revenue of approximately $41M",
DENVER ART MUSEUM INC,846038240,Arts & Culture,100 W 14TH AVENUE PKWY,DENVER,CO,80204-2713,,"Arts & Culture organization in DENVER, CO with annual revenue of approximately $41M",
GOOD SAMARITAN HOSPITAL INC,261720984,Health,5401 LAKE OCONEE PKWY,GREENSBORO,GA,30642-4232,,"Health organization in GREENSBORO, GA with annual revenue of approximately $41M",
COMMUNITY CARE ALLIANCE,050312278,Health,PO BOX 1700,WOONSOCKET,RI,02895-0856,,"Health organization in WOONSOCKET, RI with annual revenue of approximately $41M",
TRI CITIES COMMUNITY HEALTH,911138675,Other,PO BOX 1452,PASCO,WA,99301-1223,,"Other organization in PASCO, WA with annual revenue of approximately $41M",
SIGNAL CENTERS INC,620587285,Other,109 N GERMANTOWN RD,CHATTANOOGA,TN,37411-2756,,"Other organization in CHATTANOOGA, TN with annual revenue of approximately $41M",
THINK SMALL,411260581,Human Services,10 YORKTON CT,SAINT PAUL,MN,55117-1065,,"Human Services organization in SAINT PAUL, MN with annual revenue of approximately $41M",
JESSIE TRICE COMMUNITY HEALTH SYSTEM INC,591235617,Health,5607 NW 27TH AVENUE 1,MIAMI,FL,33142-2826,,"Health organization in MIAMI, FL with annual revenue of approximately $41M",
CONNECTICUT INSTITUTE FOR COMMUNITIES INC,912187143,Community,120 MAIN ST,DANBURY,CT,06810-7834,,"Community organization in DANBURY, CT with annual revenue of approximately $41M",
CHINATOWN SERVICE CENTER,952918844,Other,711 WEST COLLEGE STREET,LOS ANGELES,CA,90012-1163,,"Other organization in LOS ANGELES, CA with annual revenue of approximately $41M",
METROPOLITAN MINISTRIES INC,591477007,Human Services,2002 N FLORIDA AVE,TAMPA,FL,33602-2204,,"Human Services organization in TAMPA, FL with annual revenue of approximately $41M",
ALLIANCE UNIVERSITY,131740285,Education,2 WASHINGTON ST LBBY,NEW YORK,NY,10004-1017,,"Education organization in NEW YORK, NY with annual revenue of approximately $41M",
IOTA COMMUNITY SCHOOLS,470970499,Education,6000 POPLAR AVE STE 250,MEMPHIS,TN,38119-3974,,"Education organization in MEMPHIS, TN with annual revenue of approximately $41M",
UNION OF CONCERNED SCIENTISTS INC,042535767,International,TWO BRATTLE SQUARE,CAMBRIDGE,MA,02138-3742,,"International organization in CAMBRIDGE, MA with annual revenue of approximately $41M",
RIVERSIDE PREPARATORY SCHOOL,264614065,Education,19900 NATIONAL TRAILS HIGHWAY,ORO GRANDE,CA,92368-0000,,"Education organization in ORO GRANDE, CA with annual revenue of approximately $41M",
JOHNSON COUNTY REGIONAL HOSPITAL,710403278,Health,1100 E POPLAR ST,CLARKSVILLE,AR,72830-4419,,"Health organization in CLARKSVILLE, AR with annual revenue of approximately $41M",
KANSAS CITY CARE CLINIC,430967292,Other,3515 BROADWAY BLVD STE 100,KANSAS CITY,MO,64111-2501,,"Other organization in KANSAS CITY, MO with annual revenue of approximately $41M",
ADELANTE DEVELOPMENT CENTER INC,850262072,Human Services,3900 OSUNA RD NE,ALBUQUERQUE,NM,87109-4459,,"Human Services organization in ALBUQUERQUE, NM with annual revenue of approximately $41M",
CHICAGO SCHOOL OF PROFESSIONAL PSYCHOLOGY INC,363005527,Education,203 N LA SALLE ST STE 1900,CHICAGO,IL,60601-1263,,"Education organization in CHICAGO, IL with annual revenue of approximately $41M",
WHITE HORSE VILLAGE INC,232499121,Human Services,535 GRADYVILLE RD,NEWTOWN SQ,PA,19073-2812,,"Human Services organization in NEWTOWN SQ, PA with annual revenue of approximately $41M",
WELLSPAN HEALTH CARE SERVICES,232400237,Health,PO BOX 2767,YORK,PA,17405-2767,,"Health organization in YORK, PA with annual revenue of approximately $41M",
FESSENDEN SCHOOL,042103574,Education,250 WALTHAM ST,WEST NEWTON,MA,02465-1749,,"Education organization in WEST NEWTON, MA with annual revenue of approximately $41M",
YMCA OF SOUTHWEST FLORIDA INC,591629660,Other,701 CENTER RD,VENICE,FL,34285-4808,,"Other organization in VENICE, FL with annual revenue of approximately $41M",
UNITED ODD FELLOW AND REBEKAH HOME,131740053,Health,1070 HAVEMEYER AVE,BRONX,NY,10462-5310,,"Health organization in BRONX, NY with annual revenue of approximately $41M",
YELLOWSTONE FOREVER,475427975,Environment,222 E MAIN ST STE 301,BOZEMAN,MT,59715-4764,,"Environment organization in BOZEMAN, MT with annual revenue of approximately $41M",
ALLIANCE FOR CHILDHOOD DISEASES,260286469,Health,1 BREAKTHROUGH WAY,LAS VEGAS,NV,89135-3011,,"Health organization in LAS VEGAS, NV with annual revenue of approximately $41M",
HILLSBORO AREA HOSPITAL INC,370661208,Health,1200 E TREMONT ST,HILLSBORO,IL,62049-1912,,"Health organization in HILLSBORO, IL with annual revenue of approximately $41M",
INDIANA HEALTH CENTERS INC,311003977,Health,8003 CASTLEWAY DR,INDIANAPOLIS,IN,46250-1946,,"Health organization in INDIANAPOLIS, IN with annual revenue of approximately $41M",
URBAN PATHWAYS INC,132933675,Human Services,575 8TH AVE 16TH FLR,NEW YORK,NY,10018-3055,,"Human Services organization in NEW YORK, NY with annual revenue of approximately $41M",
GULF COAST CENTER,741607987,Health,4444 W MAIN ST,LEAGUE CITY,TX,77573-1737,,"Health organization in LEAGUE CITY, TX with annual revenue of approximately $41M",
TEL HAI NURSING CENTER INC,232039189,Human Services,1200 TEL HAI CIR,HONEY BROOK,PA,19344-1271,,"Human Services organization in HONEY BROOK, PA with annual revenue of approximately $41M",
MID FLORIDA COMMUNITY SERVICES INC,591235202,Human Services,PO BOX 896,BROOKSVILLE,FL,34605-0896,,"Human Services organization in BROOKSVILLE, FL with annual revenue of approximately $41M",
CHAMPION EMS,752747708,Health,2201 S MOBBERLY AVE,LONGVIEW,TX,75602-3565,,"Health organization in LONGVIEW, TX with annual revenue of approximately $41M",
BAPTIST CHILDRENS HOMES OF NORTH CAROLINA INC,560547499,Human Services,PO BOX 338,THOMASVILLE,NC,27361-0338,,"Human Services organization in THOMASVILLE, NC with annual revenue of approximately $41M",
VALLEY PROFESSIONALS COMMUNITY HEALTH CENTER INC,208998983,Health,777 S MAIN ST,CLINTON,IN,47842-2493,,"Health organization in CLINTON, IN with annual revenue of approximately $41M",
VALLEY OF THE SUN YOUNG MENS CHRISTIAN ASSOCIATION,860096799,Human Services,350 N 1ST AVE,PHOENIX,AZ,85003-1513,,"Human Services organization in PHOENIX, AZ with annual revenue of approximately $41M",
ST MARYS COMMUNITY HOSPITAL,470443636,Health,1314 3RD AVE,NEBRASKA CITY,NE,68410-1930,,"Health organization in NEBRASKA CITY, NE with annual revenue of approximately $41M",
ACMH INC,237293784,Other,254 W 31ST ST FL 9,NEW YORK,NY,10001-2813,,"Other organization in NEW YORK, NY with annual revenue of approximately $41M",
VERMONT LAW SCHOOL INC,237251952,Education,PO BOX 96,S ROYALTON,VT,05068-0096,,"Education organization in S ROYALTON, VT with annual revenue of approximately $41M",
ZEPF CENTER,341168947,Other,2005 ASHLAND AVE,TOLEDO,OH,43620-1703,,"Other organization in TOLEDO, OH with annual revenue of approximately $41M",
NEW CANAAN COUNTRY SCHOOL INC,060646765,Education,635 FROGTOWN RD,NEW CANAAN,CT,06840-4418,,"Education organization in NEW CANAAN, CT with annual revenue of approximately $41M",
ELLIOT PHYSICIANS NETWORK INC,020509589,Health,1070 HOLT AVE UNIT 1 STE 2100,MANCHESTER,NH,03109-5603,,"Health organization in MANCHESTER, NH with annual revenue of approximately $41M",
DEVELOPMENTAL DISABILITIES RESOURCE CENTER,846035455,Human Services,11177 W 8TH AVE,LAKEWOOD,CO,80215-5575,,"Human Services organization in LAKEWOOD, CO with annual revenue of approximately $41M",
BALTIMORE SYMPHONY ORCHESTRA INC,520629696,Arts & Culture,1212 CATHEDRAL ST,BALTIMORE,MD,21201-5556,,"Arts & Culture organization in BALTIMORE, MD with annual revenue of approximately $41M",
NEW YORK CITY CRIMINAL JUSTICE AGENCY,132900682,Other,299 BROADWAY 4TH FLOOR,NEW YORK,NY,10007-4100,,"Other organization in NEW YORK, NY with annual revenue of approximately $41M",
EPISCOPAL COMMUNITY SERVICES,951945256,Human Services,401 MILE OF CARS WAY STE 350,NATIONAL CITY,CA,91950-6629,,"Human Services organization in NATIONAL CITY, CA with annual revenue of approximately $41M",
CASCADE PUBLIC MEDIA,911221895,Arts & Culture,316 BROADWAY,SEATTLE,WA,98122-5325,,"Arts & Culture organization in SEATTLE, WA with annual revenue of approximately $41M",
BUSINESS FOR SOCIAL RESPONSIBILITY,521764268,Education,220 MONTGOMERY STREET 17TH FLOOR,SAN FRANCISCO,CA,94104-3402,,"Education organization in SAN FRANCISCO, CA with annual revenue of approximately $41M",
MERCY MEDICAL CENTER-NEWTON,421470935,Health,1111 SIXTH AVE,DES MOINES,IA,50314-2610,,"Health organization in DES MOINES, IA with annual revenue of approximately $41M",
ARNIES ARMY CHARITABLE EVENTS FOUNDATION INC,813305976,Human Services,9000 BAY HILL BLVD,ORLANDO,FL,32819-4880,,"Human Services organization in ORLANDO, FL with annual revenue of approximately $41M",
COMMUNITIES CONNECTED FOR KIDS INC,460908479,Human Services,549 NW LAKE WHITNEY PL STE 204,PORT ST LUCIE,FL,34986-1606,,"Human Services organization in PORT ST LUCIE, FL with annual revenue of approximately $41M",
MASONIC HOMES OF KENTUCKY INC,610458374,Human Services,330 MASONIC HOME DR,MASONIC HOME,KY,40041-9004,,"Human Services organization in MASONIC HOME, KY with annual revenue of approximately $41M",
FOOD BANK OF NORTHEAST GEORGIA INC,581938066,Human Services,890 NEWTON BRIDGE RD,ATHENS,GA,30607-1340,,"Human Services organization in ATHENS, GA with annual revenue of approximately $41M",
DALLAS SYMPHONY ASSOCIATION INC,750705442,Arts & Culture,2301 FLORA STREET SUITE 300,DALLAS,TX,75201-2413,,"Arts & Culture organization in DALLAS, TX with annual revenue of approximately $41M",
DENVER BOTANIC GARDEN INC,840440359,Environment,909 YORK ST,DENVER,CO,80206-3751,,"Environment organization in DENVER, CO with annual revenue of approximately $41M",
BRYN MAWR SCHOOL FOR GIRLS OF BALTIMORE CITY,520258140,Education,109 W MELROSE AVE,BALTIMORE,MD,21210-1326,,"Education organization in BALTIMORE, MD with annual revenue of approximately $41M",
RIVERS SCHOOL CORPORATION,042104457,Other,333 WINTER ST,WESTON,MA,02493-1071,,"Other organization in WESTON, MA with annual revenue of approximately $41M",
CONSERVATION LAW FOUNDATION INC,046149986,Environment,62 SUMMER ST,BOSTON,MA,02110-1016,,"Environment organization in BOSTON, MA with annual revenue of approximately $41M",
METROPOLITAN JEWISH HOME CARE INC,320060822,Health,55 WATER ST 46TH FLOOR,NEW YORK,NY,10041-3211,,"Health organization in NEW YORK, NY with annual revenue of approximately $41M",
ADVANCED ROBOTICS FOR MANUFACTURING INSTITUTE,812812384,Research,4501 LYTLE ST,PITTSBURGH,PA,15207-1892,,"Research organization in PITTSBURGH, PA with annual revenue of approximately $41M",
UNIVERSITY OF NORTHERN COLORADO FOUNDATION INC,846044833,Education,JUDY FARR CENTER 1620 RESERVOIR RD,GREELEY,CO,80631-0000,,"Education organization in GREELEY, CO with annual revenue of approximately $41M",
SUPPORT OUR TROOPS INC,331112829,Other,PO BOX 70,DAYTONA BEACH,FL,32115-0070,,"Other organization in DAYTONA BEACH, FL with annual revenue of approximately $41M",
UNICARE COMMUNITY HEALTH CENTER INC,954746420,Education,437 N EUCLID AVE,ONTARIO,CA,91762-3427,,"Education organization in ONTARIO, CA with annual revenue of approximately $41M",
UNIVERSITY OF KANSAS MEMORIAL,486033927,Education,1301 JAYHAWK BLVD,LAWRENCE,KS,66045-7593,,"Education organization in LAWRENCE, KS with annual revenue of approximately $41M",
ASCENT CLASSICAL ACADEMY CHARTER SCHOOLS INC,823791408,Education,4690 TABLE MOUNTAIN DR UNIT 100,GOLDEN,CO,80403-1873,,"Education organization in GOLDEN, CO with annual revenue of approximately $41M",
AMETHOD PUBLIC SCHOOLS,943185735,Education,2101 LIVINGSTON ST,OAKLAND,CA,94606-5218,,"Education organization in OAKLAND, CA with annual revenue of approximately $41M",
CHILD CRISIS ARIZONA,860324144,Human Services,817 N COUNTRY CLUB DR,MESA,AZ,85201-4105,,"Human Services organization in MESA, AZ with annual revenue of approximately $41M",
NAVY SEAL FOUNDATION INC,311728910,Arts & Culture,1619 D ST,VIRGINIA BCH,VA,23455-8407,,"Arts & Culture organization in VIRGINIA BCH, VA with annual revenue of approximately $41M",
MARGARET WOODBURY STRONG MUSEUM,160954168,Other,1 MANHATTAN SQUARE DR,ROCHESTER,NY,14607-3941,,"Other organization in ROCHESTER, NY with annual revenue of approximately $41M",
AUSTIN ACHIEVE PUBLIC SCHOOLS INC,273700807,Education,5908 MANOR RD,AUSTIN,TX,78723-3631,,"Education organization in AUSTIN, TX with annual revenue of approximately $41M",
THE LIVING DESERT,953385354,Environment,47900 PORTOLA AVE,PALM DESERT,CA,92260-6156,,"Environment organization in PALM DESERT, CA with annual revenue of approximately $41M",
ALLIANCE FOR CLINICAL TRIALS IN ONCOLOGY FOUNDATION,020464400,Health,311 S WACKER DR,CHICAGO,IL,60606-6604,,"Health organization in CHICAGO, IL with annual revenue of approximately $41M",
CALIFORNIA MONTESSORI PROJECT,680472923,Education,5330A GIBBONS DR STE 700,CARMICHAEL,CA,95608-2117,,"Education organization in CARMICHAEL, CA with annual revenue of approximately $41M",
CONVERSE UNIVERSITY,570314380,Education,580 EAST MAIN STREET 205 CARNEGIE B,SPARTANBURG,SC,29302-1931,,"Education organization in SPARTANBURG, SC with annual revenue of approximately $41M",
UNIVERSITY SCHOOL OF MILWAUKEE CORPORATION,396076442,Education,2100 W FAIRY CHASM RD,MILWAUKEE,WI,53217-1510,,"Education organization in MILWAUKEE, WI with annual revenue of approximately $41M",
CHRISTIAN COMMUNITY DEVELOPMENT CORPORATION INC,621797945,Other,6075 POPLAR AVE STE 130,MEMPHIS,TN,38119-4702,,"Other organization in MEMPHIS, TN with annual revenue of approximately $41M",
STANLEY STREET TREATMENT AND RESOURCES,042604426,Other,386 STANLEY ST,FALL RIVER,MA,02720-6009,,"Other organization in FALL RIVER, MA with annual revenue of approximately $41M",
GOODWILL INDUSTRIES OF THE SOUTHERN RIVERS INC,586035822,Human Services,2601 CROSS COUNTRY DRIVE BLDG A,COLUMBUS,GA,31906-1801,,"Human Services organization in COLUMBUS, GA with annual revenue of approximately $41M",
EMMA WILLARD SCHOOL,141338390,Education,285 PAWLING AVE,TROY,NY,12180-5238,,"Education organization in TROY, NY with annual revenue of approximately $41M",
SAINT BARNABAS OUTPATIENT CENTERS,222458479,Health,C/O CORP FINANCE 2 CRESCENT PLACE,OCEANPORT,NJ,07757-0000,,"Health organization in OCEANPORT, NJ with annual revenue of approximately $41M",
MEMORIAL HOSPITAL INC,390806828,Health,216 SUNSET PL,NEILLSVILLE,WI,54456-1701,,"Health organization in NEILLSVILLE, WI with annual revenue of approximately $41M",
GOODWILL INDUSTRIES BIG BEND INC,591279499,Other,300 MABRY ST,TALLAHASSEE,FL,32304-3813,,"Other organization in TALLAHASSEE, FL with annual revenue of approximately $41M",
CAROMONT HEALTH INC,581636959,Health,2525 COURT DR,GASTONIA,NC,28054-2140,,"Health organization in GASTONIA, NC with annual revenue of approximately $41M",
FATHER BILLS & MAINSPRING INC,222538039,Human Services,430 BELMONT ST,BROCKTON,MA,02301-4921,,"Human Services organization in BROCKTON, MA with annual revenue of approximately $41M",
GENESIS HEALTH DEVELOPMENT INC,592249372,Other,3599 UNIVERSITY BLVD S,JACKSONVILLE,FL,32216-4252,,"Other organization in JACKSONVILLE, FL with annual revenue of approximately $41M",
HEAD START OF GREATER DALLAS INC,752247281,Education,3954 GANNON LN,DALLAS,TX,75237-2919,,"Education organization in DALLAS, TX with annual revenue of approximately $41M",
CARDINAL CUSHING CENTERS INC,042104871,Other,405 WASHINGTON ST,HANOVER,MA,02339-3212,,"Other organization in HANOVER, MA with annual revenue of approximately $41M",
FOX THEATRE INC,131240132,Arts & Culture,660 PEACHTREE ST NE,ATLANTA,GA,30308-1929,,"Arts & Culture organization in ATLANTA, GA with annual revenue of approximately $41M",
MEDICAL FOUNDATION INC NON PROFIT ORGANIZATION,640834532,Health,PO BOX 5183,MERIDIAN,MS,39302-5183,,"Health organization in MERIDIAN, MS with annual revenue of approximately $41M",
LYNGBLOMSTEN CARE CENTER INC,411310487,Other,1415 ALMOND AVE,SAINT PAUL,MN,55108-2507,,"Other organization in SAINT PAUL, MN with annual revenue of approximately $41M",
COREWELL HEALTH,822796539,Health,100 MICHIGAN ST NE,GRAND RAPIDS,MI,49503-2560,,"Health organization in GRAND RAPIDS, MI with annual revenue of approximately $41M",
COASTAL MEDICAL PHYSICIANS INC,844944884,Health,10 DAVOL SQUARE 300,PROVIDENCE,RI,02903-4754,,"Health organization in PROVIDENCE, RI with annual revenue of approximately $41M",
KAMAAINA CARE INC,990261935,Education,156 HAMAKUA DR STE C,KAILUA,HI,96734-2834,,"Education organization in KAILUA, HI with annual revenue of approximately $41M",
JSERRA CATHOLIC HIGH SCHOOL,330901351,Arts & Culture,26351 JUNIPERO SERRA RD,SAN JUAN CAPISTRANO,CA,92675-1635,,"Arts & Culture organization in SAN JUAN CAPISTRANO, CA with annual revenue of approximately $41M",
MAURY REGIONAL MEDICAL GROUP INC,621649052,Health,1224 TROTWOOD AVE,COLUMBIA,TN,38401-4802,,"Health organization in COLUMBIA, TN with annual revenue of approximately $41M",
RUSHFORD CENTER INC,060932875,Health,883 PADDOCK AVE,MERIDEN,CT,06450-7044,,"Health organization in MERIDEN, CT with annual revenue of approximately $41M",
COMMUNITY ACTION PARTNERSHIP OF RAMSEY AND WASHINGTON COUNTIES,410883443,Other,450 N SYNDICATE STREET,ST PAUL,MN,55104-4107,,"Other organization in ST PAUL, MN with annual revenue of approximately $41M",
LAKEMARY CENTER INC,480732570,Human Services,100 LAKEMARY DR,PAOLA,KS,66071-1855,,"Human Services organization in PAOLA, KS with annual revenue of approximately $41M",
YOUNG MENS CHRISTIAN ASSOCIATION OF CENTRAL TEXAS,742206558,Other,PO BOX 819,ROUND ROCK,TX,78680-0819,,"Other organization in ROUND ROCK, TX with annual revenue of approximately $41M",
NATIONAL WOMENS LAW CENTER,521213010,Other,1350 I ST NW STE 700,WASHINGTON,DC,20005-7202,,"Other organization in WASHINGTON, DC with annual revenue of approximately $41M",
CARMEN HIGH SCHOOL OF SCIENCE AND TECHNOLOGY INC,562569203,Education,1501 S LAYTON BLVD,MILWAUKEE,WI,53215-1924,,"Education organization in MILWAUKEE, WI with annual revenue of approximately $41M",
GARY AND MARY WEST SENIOR SERVICES INC,820635784,Health,1706 DESCANSO AVE,SAN MARCOS,CA,92078-2514,,"Health organization in SAN MARCOS, CA with annual revenue of approximately $41M",
LEADERSHIP PUBLIC SCHOOLS INC,731643646,Education,99 LINDEN ST,OAKLAND,CA,94607-2508,,"Education organization in OAKLAND, CA with annual revenue of approximately $41M",
PATHLIGHT INC,042210685,Other,220 BROOKDALE DR,SPRINGFIELD,MA,01104-3210,,"Other organization in SPRINGFIELD, MA with annual revenue of approximately $41M",
WESTMINSTER MANOR,741501375,Health,4100 JACKSON AVE,AUSTIN,TX,78731-6056,,"Health organization in AUSTIN, TX with annual revenue of approximately $41M",
CATHOLIC CHARITIES AND COMMUNITY SERVICES OF THE ARCHDIOCESE OF DEN,840686679,Human Services,6240 SMITH RD,DENVER,CO,80216-4632,,"Human Services organization in DENVER, CO with annual revenue of approximately $41M",
JORGE M PEREZ ART MUSEUM OF MIAMI DADE COUNTY INC,592048869,Arts & Culture,1103 BISCAYNE BLVD,MIAMI,FL,33132-1758,,"Arts & Culture organization in MIAMI, FL with annual revenue of approximately $41M",
PHOEBE SERVICES INC,232586359,Community,1925 W TURNER ST,ALLENTOWN,PA,18104-5513,,"Community organization in ALLENTOWN, PA with annual revenue of approximately $41M",
JEWISH FAMILY AND CHILDRENS SERVICE INC,860096781,Human Services,4747 N 7TH ST STE 100,PHOENIX,AZ,85014-3654,,"Human Services organization in PHOENIX, AZ with annual revenue of approximately $41M",
CLAYTON VALLEY CHARTER HIGH SCHOOL,452615091,Education,1101 ALBERTA WAY,CONCORD,CA,94521-3747,,"Education organization in CONCORD, CA with annual revenue of approximately $41M",
CEDARS-SINAI HEALTH SYSTEM,300990905,Health,6500 WILSHIRE BOULEVARD SUITE 2400,LOS ANGELES,CA,90048-4920,,"Health organization in LOS ANGELES, CA with annual revenue of approximately $41M",
THE JOSEPH L MORSE HEALTH CENTER INC,592120896,Health,4847 DAVID S MACK DR,WEST PALM BCH,FL,33417-8023,,"Health organization in WEST PALM BCH, FL with annual revenue of approximately $41M",
FLAMBEAU HOSPITAL INC,390973724,Health,98 SHERRY AVE,PARK FALLS,WI,54552-1467,,"Health organization in PARK FALLS, WI with annual revenue of approximately $41M",
ST PETERSBURG FREE CLINIC INC,237208280,Other,863 3RD AVE N,ST PETERSBURG,FL,33701-2703,,"Other organization in ST PETERSBURG, FL with annual revenue of approximately $41M",
UNITED HOME CARE SERVICES INC,591523943,Health,8400 NW 33RD ST STE 400,DORAL,FL,33122-1910,,"Health organization in DORAL, FL with annual revenue of approximately $41M",
EARLY YEARS INC,561514058,Other,1829 E FRANKLIN ST STE 1000,CHAPEL HILL,NC,27514-5864,,"Other organization in CHAPEL HILL, NC with annual revenue of approximately $41M",
FOUNDATION COMMUNITIES INC,742563260,Human Services,3000 S INTERSTATE 35 FRO,AUSTIN,TX,78704-0000,,"Human Services organization in AUSTIN, TX with annual revenue of approximately $41M",
PLANNED PARENTHOOD MINNESOTA NORTH DAKOTA SOUTH DAKOTA,410948382,Health,671 VANDALIA ST,SAINT PAUL,MN,55114-1312,,"Health organization in SAINT PAUL, MN with annual revenue of approximately $41M",
VALOR TEXAS EDUCATION FOUNDATION,811145945,Education,11720 S MOPAC EXPY,AUSTIN,TX,78739-2182,,"Education organization in AUSTIN, TX with annual revenue of approximately $41M",
U S GREEN BUILDING COUNCIL INC,521822816,Environment,2101 L ST NW STE 600,WASHINGTON,DC,20037-1592,,"Environment organization in WASHINGTON, DC with annual revenue of approximately $41M",
PEMBROKE HILL SCHOOL,431326059,Education,400 W 51ST ST,KANSAS CITY,MO,64112-2316,,"Education organization in KANSAS CITY, MO with annual revenue of approximately $41M",
CARLETON WILLARD HOMES INC,042105844,Human Services,100 OLD BILLERICA RD,BEDFORD,MA,01730-1267,,"Human Services organization in BEDFORD, MA with annual revenue of approximately $41M",
FIRST SOUTH FINANCIAL FEDERAL CREDIT UNION,620579508,Other,2723 SUMMER OAKS DR,BARTLETT,TN,38134-2858,,"Other organization in BARTLETT, TN with annual revenue of approximately $41M",
WINSOR SCHOOL INC,042105842,Education,103 PILGRIM RD,BOSTON,MA,02215-4142,,"Education organization in BOSTON, MA with annual revenue of approximately $41M",
COMMUNITY COUNSELING CENTER,431344414,Health,402 S SILVER SPRINGS RD,CPE GIRARDEAU,MO,63703-7536,,"Health organization in CPE GIRARDEAU, MO with annual revenue of approximately $41M",
EAST BAY COMMUNITY FOUNDATION,946070996,Community,200 FRANK H OGAWA PLZ,OAKLAND,CA,94612-2005,,"Community organization in OAKLAND, CA with annual revenue of approximately $41M",
REST HAVEN ILLIANA CHRISTIAN CONVALESCENT HOME,362382853,Health,18670 GRAPHICS DR STE 106,TINLEY PARK,IL,60477-4605,,"Health organization in TINLEY PARK, IL with annual revenue of approximately $41M",
GOODWILL EDUCATION INITIATIVES INC,200749885,Education,1635 W MICHIGAN ST,INDIANAPOLIS,IN,46222-3852,,"Education organization in INDIANAPOLIS, IN with annual revenue of approximately $41M",
ASPIRUS IRON RIVER HOSPITAL & CLINICS INC,383236977,Health,1400 W ICE LAKE RD,IRON RIVER,MI,49935-9526,,"Health organization in IRON RIVER, MI with annual revenue of approximately $41M",
UNION STATION HOMELESS SERVICES,953958741,Human Services,825 E ORANGE GROVE BLVD,PASADENA,CA,91104-4554,,"Human Services organization in PASADENA, CA with annual revenue of approximately $41M",
ELWYN NEW JERSEY,221801227,Human Services,1667 E LANDIS AVENUE,VINELAND,NJ,08361-2967,,"Human Services organization in VINELAND, NJ with annual revenue of approximately $41M",
BESTCARE TREATMENT SERVICES INC,931269087,Health,2127 S HIGHWAY 97 STE 235,REDMOND,OR,97756-0293,,"Health organization in REDMOND, OR with annual revenue of approximately $41M",
CHILDCAREGROUP,750800634,Other,3000 PEGASUS PK DR 800,DALLAS,TX,75247-6203,,"Other organization in DALLAS, TX with annual revenue of approximately $41M",
ARKANSAS FOUNDATION FOR MEDICAL CARE INC,237237381,Health,PO BOX 1508,FORT SMITH,AR,72902-1508,,"Health organization in FORT SMITH, AR with annual revenue of approximately $41M",
BEHAVIORAL HEALTH SERVICES INC,952838006,Health,15519 CRENSHAW BLVD,GARDENA,CA,90249-4525,,"Health organization in GARDENA, CA with annual revenue of approximately $41M",
GROWING UP GREEN CHARTER SCHOOL II,810991132,Education,8435 152ND ST,JAMAICA,NY,11432-1641,,"Education organization in JAMAICA, NY with annual revenue of approximately $41M",
PALO ALTO UNIVERSITY INC,942340692,Education,1791 ARASTRADERO RD,PALO ALTO,CA,94304-1337,,"Education organization in PALO ALTO, CA with annual revenue of approximately $41M",
PARTNERSHIP PROJECT INC,522192070,Environment,PO BOX 65826,WASHINGTON,DC,20035-5826,,"Environment organization in WASHINGTON, DC with annual revenue of approximately $41M",
APICHA COMMUNITY HEALTH CENTER,133706365,Health,400 BROADWAY,NEW YORK,NY,10013-3698,,"Health organization in NEW YORK, NY with annual revenue of approximately $41M",
UNIVERSITY OF SIOUX FALLS,460224600,Education,1101 W 22ND ST,SIOUX FALLS,SD,57105-1600,,"Education organization in SIOUX FALLS, SD with annual revenue of approximately $41M",
NYSARC INC,131916359,Human Services,210 RTE 303,VALLEY COTTAGE,NY,10989-2035,,"Human Services organization in VALLEY COTTAGE, NY with annual revenue of approximately $41M",
INLAND EMPIRE COMMUNITY FOUNDATION,330748536,Community,3700 6TH ST STE 200,RIVERSIDE,CA,92501-2885,,"Community organization in RIVERSIDE, CA with annual revenue of approximately $41M",
SENIOR CONNECTION CENTER INC,592074063,Human Services,8928 BRITTANY WAY,TAMPA,FL,33619-4306,,"Human Services organization in TAMPA, FL with annual revenue of approximately $41M",
WATER MISSIONS INTERNATIONAL,571116978,International,1150 MOLLY GREENE WAY BLDG 1605,NORTH CHARLESTON,SC,29405-1814,,"International organization in NORTH CHARLESTON, SC with annual revenue of approximately $41M",
DIMOCK COMMUNITY FOUNDATION INC,043487827,Community,55 DIMOCK ST,ROXBURY,MA,02119-1029,,"Community organization in ROXBURY, MA with annual revenue of approximately $41M",
VOLUNTARY INTERDISTRICT CHOICE CORPORATION,431853926,Education,7425 FORSYTH BLVD STE 110,SAINT LOUIS,MO,63105-2158,,"Education organization in SAINT LOUIS, MO with annual revenue of approximately $41M",
NEW MEXICO STATE UNIVERSITY FOUNDATION INC,850170157,Education,PO BOX 3590,LAS CRUCES,NM,88003-3590,,"Education organization in LAS CRUCES, NM with annual revenue of approximately $41M",
ASTRIA HEALTH,813973675,Health,1016 TACOMA AVE,SUNNYSIDE,WA,98944-2263,,"Health organization in SUNNYSIDE, WA with annual revenue of approximately $41M",
GEISINGER COMMUNITY HEALTH SERVICES,232967235,Health,100 N ACADEMY AVE MC 49-70,DANVILLE,PA,17822-9800,,"Health organization in DANVILLE, PA with annual revenue of approximately $41M",
MERCY HOUSING CALIFORNIA,943081666,Human Services,1600 BROADWAY STE 2000,DENVER,CO,80202-4929,,"Human Services organization in DENVER, CO with annual revenue of approximately $41M",
RAVENSCROFT SCHOOL INC,566001583,Education,7409 FALLS OF NEUSE RD,RALEIGH,NC,27615-5316,,"Education organization in RALEIGH, NC with annual revenue of approximately $41M",
ROCHESTER REGIONAL HEALTH,471234999,Health,100 KINGS HIGHWAY SOUTH,ROCHESTER,NY,14617-5504,,"Health organization in ROCHESTER, NY with annual revenue of approximately $41M",
THE YOUNG MENS CHRISTIAN ASSOCIATION OF GREATER TOLEDO,344428262,Other,6465 SYLVANIA AVE,SYLVANIA,OH,43560-3916,,"Other organization in SYLVANIA, OH with annual revenue of approximately $41M",
PLANNED PARENTHOOD OF SOUTHERN NEW ENGLAND INC,060263565,Health,345 WHITNEY AVE,NEW HAVEN,CT,06511-2348,,"Health organization in NEW HAVEN, CT with annual revenue of approximately $41M",
LANDMARK SCHOOL INC,042429311,Education,429 HALE STREET,PRIDES CROSSING,MA,01965-0000,,"Education organization in PRIDES CROSSING, MA with annual revenue of approximately $41M",
GOODWILL INDUSTRIES OF SANTA BARBARA AND VENTURA COUNTIES,770448301,Human Services,1401 N RICE AVE,OXNARD,CA,93030-7934,,"Human Services organization in OXNARD, CA with annual revenue of approximately $41M",
KESWICK MULTI CARE CENTER INC,520591485,Other,700 W 40TH ST,BALTIMORE,MD,21211-2104,,"Other organization in BALTIMORE, MD with annual revenue of approximately $41M",
AMERICAN COLLEGE OF CHEST PHYSICIANS,362170783,Other,2595 PATRIOT BLVD,GLENVIEW,IL,60026-8022,,"Other organization in GLENVIEW, IL with annual revenue of approximately $41M",
NORTH TEXAS PUBLIC BROADCASTING INC,752084961,Arts & Culture,3000 HARRY HINES BLVD,DALLAS,TX,75201-1012,,"Arts & Culture organization in DALLAS, TX with annual revenue of approximately $40M",
AMERICAN CONSERVATION,371473291,Environment,2900 N FORT VALLEY RD,FLAGSTAFF,AZ,86001-8310,,"Environment organization in FLAGSTAFF, AZ with annual revenue of approximately $40M",
BRIAR CLIFF UNIVERSITY,420707124,Education,3303 REBECCA ST,SIOUX CITY,IA,51104-2324,,"Education organization in SIOUX CITY, IA with annual revenue of approximately $40M",
SEIU HEALTHCARE NORTHWEST TRAINING PARTNERSHIP,510673005,Education,215 COLUMBIA ST STE 300,SEATTLE,WA,98104-1511,,"Education organization in SEATTLE, WA with annual revenue of approximately $40M",
DOVE SCHOOLS,813518666,Education,5601 NW EXPRESSWAY,WARR ACRES,OK,73132-5232,,"Education organization in WARR ACRES, OK with annual revenue of approximately $40M",
EUPHEMIA L HAYNES PUBLIC CHARTER SCHOOL INC,200295905,Education,3600 GEORGIA AVE NW,WASHINGTON,DC,20010-1691,,"Education organization in WASHINGTON, DC with annual revenue of approximately $40M",
PROJECT FOR PRIDE IN LIVING INC,237232208,Human Services,1035 E FRANKLIN AVE,MINNEAPOLIS,MN,55404-2920,,"Human Services organization in MINNEAPOLIS, MN with annual revenue of approximately $40M",
UNIVERSITY OF MEMPHIS FOUNDATION,626048540,Education,635 NORMAL ST ALUMNI CENTER 108,MEMPHIS,TN,38152-0001,,"Education organization in MEMPHIS, TN with annual revenue of approximately $40M",
ARIZONA HUMANE SOCIETY,860135567,Health,1521 W DOBBINS RD,PHOENIX,AZ,85041-8200,,"Health organization in PHOENIX, AZ with annual revenue of approximately $40M",
MANNA FOOD BANK,581514800,Human Services,99 BROADPOINTE DR,MILLS RIVER,NC,28759-4638,,"Human Services organization in MILLS RIVER, NC with annual revenue of approximately $40M",
THE MARK FOUNDATION FOR CANCER RESEARCH US LTD,364825921,Health,1350 AVENUE OF THE AMERICAS 2902,NEW YORK,NY,10019-4738,,"Health organization in NEW YORK, NY with annual revenue of approximately $40M",
FIDELITY HOUSE INC,042499679,Human Services,439 SOUTH UNION ST,LAWRENCE,MA,01843-2837,,"Human Services organization in LAWRENCE, MA with annual revenue of approximately $40M",
MONTECITO RETIREMENT ASSOCIATION,237425754,Human Services,300 HOT SPRINGS RD SUITE 300,SANTA BARBARA,CA,93108-2037,,"Human Services organization in SANTA BARBARA, CA with annual revenue of approximately $40M",
SOUTHERN NEW HAMPSHIRE SERVICE INC,020268285,Human Services,40 PINE ST,MANCHESTER,NH,03103-6207,,"Human Services organization in MANCHESTER, NH with annual revenue of approximately $40M",
NORTHEAST MONTANA HEALTH SERVICES INC,810226578,Health,315 KNAPP ST,WOLF POINT,MT,59201-1826,,"Health organization in WOLF POINT, MT with annual revenue of approximately $40M",
PORTNEUF HEALTH TRUST,481289745,Health,500 S 11TH AVE STE 503,POCATELLO,ID,83201-4881,,"Health organization in POCATELLO, ID with annual revenue of approximately $40M",
THE TOWER FOUNDATION OF SAN JOSE STATE UNIVERSITY,830403915,Education,1 WASHINGTON SQ,SAN JOSE,CA,95192-1000,,"Education organization in SAN JOSE, CA with annual revenue of approximately $40M",
NATIONAL COUNCIL OF EXAMINERS FOR ENGINEERING AND SURVEYING,570341195,Research,200 VERDAE BLVD,GREENVILLE,SC,29607-3900,,"Research organization in GREENVILLE, SC with annual revenue of approximately $40M",
UNIVERSITY OF BUFFALO PEDIATRIC ASSOCIATES P C,161238821,Health,1001 MAIN STREET,BUFFALO,NY,14203-1009,,"Health organization in BUFFALO, NY with annual revenue of approximately $40M",
CALHOUN SCHOOL INC,131623919,Education,433 W END AVE,NEW YORK,NY,10024-5759,,"Education organization in NEW YORK, NY with annual revenue of approximately $40M",
PACIFIC ASIAN CONSORTIUM IN EMPLOYMENT,510192025,Community,1055 WILSHIRE BLVD STE 1475,LOS ANGELES,CA,90017-5652,,"Community organization in LOS ANGELES, CA with annual revenue of approximately $40M",
HILLCREST HEALTHCARE COMMUNITIES INC,620641093,Health,5321 BEVERLY PARK CIR,KNOXVILLE,TN,37918-9253,,"Health organization in KNOXVILLE, TN with annual revenue of approximately $40M",
CHILDRENS FRIEND AND SERVICE,050258819,Human Services,153 SUMMER ST,PROVIDENCE,RI,02903-4011,,"Human Services organization in PROVIDENCE, RI with annual revenue of approximately $40M",
STARK COMMUNITY FOUNDATION INC,340943665,Community,400 MARKET AVE N STE 200,CANTON,OH,44702-1557,,"Community organization in CANTON, OH with annual revenue of approximately $40M",
PORTLAND STATE UNIVERSITY FOUNDATION,930619733,Other,1600 SW 4TH AVE STE 730,PORTLAND,OR,97201-5519,,"Other organization in PORTLAND, OR with annual revenue of approximately $40M",
OSBORNE ASSOCIATION INC,135563028,Other,175 RAMSEN ST 8TH FLOOR,BROOKLYN,NY,11201-4333,,"Other organization in BROOKLYN, NY with annual revenue of approximately $40M",
WORLD HELP,541615454,Religion,PO BOX 501,FOREST,VA,24551-0501,,"Religion organization in FOREST, VA with annual revenue of approximately $40M",
MEADOWS MENTAL HEALTH POLICY INSTITUTE FOR TEXAS,463992618,Health,3003 SWISS AVE,DALLAS,TX,75204-6049,,"Health organization in DALLAS, TX with annual revenue of approximately $40M",
THE HORMEL FOUNDATION,410694716,Community,329 N MAIN ST STE 102L,AUSTIN,MN,55912-3478,,"Community organization in AUSTIN, MN with annual revenue of approximately $40M",
COMMUNITY SERVICE SOCIETY OF NEW YORK,135562202,Human Services,633 3RD AVE FL 10,NEW YORK,NY,10017-6701,,"Human Services organization in NEW YORK, NY with annual revenue of approximately $40M",
CESAR CHAVEZ FOUNDATION,952466747,Other,PO BOX 310,KEENE,CA,93531-0310,,"Other organization in KEENE, CA with annual revenue of approximately $40M",
GOODWILL INDUSTRIES OF SOUTHERN NEW ENGLAND INC,237431264,Other,432 WASHINGTON AVE,NORTH HAVEN,CT,06473-1309,,"Other organization in NORTH HAVEN, CT with annual revenue of approximately $40M",
DISCOVERY EDUCATION SERVICES INC,203366305,Education,2427 LYNX LN,ORLANDO,FL,32804-4720,,"Education organization in ORLANDO, FL with annual revenue of approximately $40M",
ST CLARE MEMORIAL HOSPITAL INC,390848401,Health,4936 LAVERNA RD,SPRINGFIELD,IL,62707-9797,,"Health organization in SPRINGFIELD, IL with annual revenue of approximately $40M",
GREATER HARTFORD COMMUNITY FOUNDATION INC,421684133,Community,8TH FLOOR,HARTFORD,CT,06103-0000,,"Community organization in HARTFORD, CT with annual revenue of approximately $40M",
SPOKANE NEIGHBORHOOD ACTION PARTNERS,911311127,Human Services,3102 W WHISTALKS WAY,SPOKANE,WA,99224-5203,,"Human Services organization in SPOKANE, WA with annual revenue of approximately $40M",
HOSPICE BUFFALO INC,510202066,Human Services,225 COMO PARK BLVD,CHEEKTOWAGA,NY,14227-1416,,"Human Services organization in CHEEKTOWAGA, NY with annual revenue of approximately $40M",
COMMUNITY FOUNDATION FOR WESTERN IOWA,261382215,Community,536 E BROADWAY,COUNCIL BLFS,IA,51503-4413,,"Community organization in COUNCIL BLFS, IA with annual revenue of approximately $40M",
ATLANTA SPEECH SCHOOL INC,580566198,Education,3160 NORTHSIDE PKWY NW,ATLANTA,GA,30327-1555,,"Education organization in ATLANTA, GA with annual revenue of approximately $40M",
BENEDICTINE LIVING COMMUNITIES INC,411639687,Other,6499 UNIVERSITY AVE NE STE 300,MINNEAPOLIS,MN,55432-4303,,"Other organization in MINNEAPOLIS, MN with annual revenue of approximately $40M",
FRIENDS OF SEATTLE WATERFRONT,800867356,Community,1201 ALASKAN WAY STE 200,SEATTLE,WA,98101-2913,,"Community organization in SEATTLE, WA with annual revenue of approximately $40M",
LONE STAR LEGAL AID,741537787,Human Services,1415 FANNIN ST 3RD FLOOR,HOUSTON,TX,77002-7632,,"Human Services organization in HOUSTON, TX with annual revenue of approximately $40M",
CHILDRENS HEALTH COUNCIL INC,941312311,Health,650 CLARK WAY,PALO ALTO,CA,94304-2300,,"Health organization in PALO ALTO, CA with annual revenue of approximately $40M",
CHILDRENS HOME OF CINCINNATI OHIO INC,310536969,Human Services,5050 MADISON RD,CINCINNATI,OH,45227-1491,,"Human Services organization in CINCINNATI, OH with annual revenue of approximately $40M",
KALAMAZOO COMMUNITY FOUNDATION,383333202,Community,402 E MICHIGAN AVE,KALAMAZOO,MI,49007-3888,,"Community organization in KALAMAZOO, MI with annual revenue of approximately $40M",
BAPTIST HEALTH DEACONESS MEDICAL GROUP INC,863269008,Health,900 HOSPITAL DR,MADISONVILLE,KY,42431-1644,,"Health organization in MADISONVILLE, KY with annual revenue of approximately $40M",
BABCOCK CENTER INC,570512733,Human Services,PO BOX 4389,WEST COLUMBIA,SC,29171-4389,,"Human Services organization in WEST COLUMBIA, SC with annual revenue of approximately $40M",
FOUNDATION FOR CITY COLLEGE,843867573,Education,160 CONVENT AVE NUM 154,NEW YORK,NY,10031-9198,,"Education organization in NEW YORK, NY with annual revenue of approximately $40M",
CARLOS ALBIZU UNIVERSITY INC,660234412,Education,CALLE TANCA ESQUINA,SAN JUAN,PR,00902-0000,,"Education organization in SAN JUAN, PR with annual revenue of approximately $40M",
DETROIT SYMPHONY ORCHESTRA HALL INC,381385132,Arts & Culture,3711 WOODWARD AVE,DETROIT,MI,48201-2005,,"Arts & Culture organization in DETROIT, MI with annual revenue of approximately $40M",
CUMBERLAND RIVER BEHAVIORAL HEALTH INC,237313241,Health,1203 AMERICAN GREETING CARD RD,CORBIN,KY,40701-4811,,"Health organization in CORBIN, KY with annual revenue of approximately $40M",
MERCY SPECIALTY HOSPITAL SOUTHEAST KANSAS,843730625,Other,1619 W 7TH STREET,GALENA,KS,66739-0000,,"Other organization in GALENA, KS with annual revenue of approximately $40M",
MARION P THOMAS CHARTER HIGH SCHOOL EDUCATION ASSOCIATION A NJ NONPROF,223531113,Education,125 SUSSEX AVE,NEWARK,NJ,07103-3617,,"Education organization in NEWARK, NJ with annual revenue of approximately $40M",
PENNSWOOD VILLAGE,232021541,Human Services,1382 NEWTOWN LANGHORNE RD,NEWTOWN,PA,18940-2418,,"Human Services organization in NEWTOWN, PA with annual revenue of approximately $40M",
CPC INTEGRATED HEALTH INC,210719369,Other,10 INDUSTRIAL WAY EAST,EATONTOWN,NJ,07724-3332,,"Other organization in EATONTOWN, NJ with annual revenue of approximately $40M",
BIO BRIDGE,454765222,Health,6211 IH 10 WEST,SAN ANTONIO,TX,78201-2023,,"Health organization in SAN ANTONIO, TX with annual revenue of approximately $40M",
MEDICAL CENTER COMPANY,340714460,Community,2250 CIRCLE DR,CLEVELAND,OH,44106-2664,,"Community organization in CLEVELAND, OH with annual revenue of approximately $40M",
NORTHERN VIRGINIA FAMILY SERVICE,540791977,Human Services,3110 FAIRVIEW PARK DR STE 500,FALLS CHURCH,VA,22042-4552,,"Human Services organization in FALLS CHURCH, VA with annual revenue of approximately $40M",
BETHANY LUTHERAN HOMES INC,390909446,Other,2575 7TH ST S,LA CROSSE,WI,54601-5249,,"Other organization in LA CROSSE, WI with annual revenue of approximately $40M",
SAINT ELIZABETH UNIVERSITY,221529785,Education,2 CONVENT RD,MORRISTOWN,NJ,07960-6923,,"Education organization in MORRISTOWN, NJ with annual revenue of approximately $40M",
MONTAGE MEDICAL GROUP,264826604,Health,100 WILSON RD STE 100,MONTEREY,CA,93940-7885,,"Health organization in MONTEREY, CA with annual revenue of approximately $40M",
PLATO ACADEMY SCHOOLS CORPORATION,455042950,Education,2045 PALMETTO STREET BLDG B,CLEARWATER,FL,33765-2118,,"Education organization in CLEARWATER, FL with annual revenue of approximately $40M",
NATIONAL CENTER ON INSTITUTIONS AND ALTERNATIVES INC,521094078,Other,7130 RUTHERFORD RD,BALTIMORE,MD,21244-2701,,"Other organization in BALTIMORE, MD with annual revenue of approximately $40M",
LIGHTHOUSE BEHAVIORAL WELLNESS CENTERS INC,730618672,Health,PO BOX 189,ARDMORE,OK,73402-0189,,"Health organization in ARDMORE, OK with annual revenue of approximately $40M",
CHAPEL HILL RESIDENTIAL RETIREMENT CENTER INC,237271041,Human Services,PO BOX 2121,CHAPEL HILL,NC,27515-2121,,"Human Services organization in CHAPEL HILL, NC with annual revenue of approximately $40M",
FLORIDA AQUARIUM INC,592807815,Health,701 CHANNELSIDE DR,TAMPA,FL,33602-5600,,"Health organization in TAMPA, FL with annual revenue of approximately $40M",
BERT NASH COMMUNITY MENTAL HEALTH CENTER INC,480775739,Health,200 MAINE ST STE A,LAWRENCE,KS,66044-1396,,"Health organization in LAWRENCE, KS with annual revenue of approximately $40M",
CHILDRENS SPORT MEDICINE FOUNDATION INC,042970129,Other,319 LONGWOOD AVE STE 6,BOSTON,MA,02115-5710,,"Other organization in BOSTON, MA with annual revenue of approximately $40M",
KANSAS WESLEYAN UNIVERSITY,480543729,Education,100 E CLAFLIN AVE,SALINA,KS,67401-6146,,"Education organization in SALINA, KS with annual revenue of approximately $40M",
VIRGINIA HOME,540577900,Health,1101 HAMPTON ST,RICHMOND,VA,23220-6699,,"Health organization in RICHMOND, VA with annual revenue of approximately $40M",
LIFTFUND INC,742712770,Community,2014 S HACKBERRY ST,SAN ANTONIO,TX,78210-3541,,"Community organization in SAN ANTONIO, TX with annual revenue of approximately $40M",
THE PINES AT DAVIDSON INC,581598135,Human Services,400 AVINGER LN,DAVIDSON,NC,28036-8800,,"Human Services organization in DAVIDSON, NC with annual revenue of approximately $40M",
BAPTIST COMMUNITY SERVICES,752206268,Human Services,701 PARK PLACE,AMARILLO,TX,79101-4064,,"Human Services organization in AMARILLO, TX with annual revenue of approximately $40M",
BIRMINGHAM-SOUTHERN COLLEGE,630288811,Other,PO BOX 2565,BIRMINGHAM,AL,35202-2565,,"Other organization in BIRMINGHAM, AL with annual revenue of approximately $40M",
THAMES VALLEY COUNCIL FOR COMMUNITY ACTION INC,060806128,Community,1 SYLVANDALE RD,JEWETT CITY,CT,06351-2220,,"Community organization in JEWETT CITY, CT with annual revenue of approximately $40M",
ROGUE COMMUNITY HEALTH,237366812,Health,1221 DISK DR,MEDFORD,OR,97501-6638,,"Health organization in MEDFORD, OR with annual revenue of approximately $40M",
THE UNIVERSITY OF VERMONT HEALTH NETWORK INC,452880726,Health,111 COLCHESTER AVE,BURLINGTON,VT,05401-1473,,"Health organization in BURLINGTON, VT with annual revenue of approximately $40M",
PENNSYLVANIA LEGAL AID NETWORK,231892464,Human Services,118 LOCUST ST,HARRISBURG,PA,17101-1414,,"Human Services organization in HARRISBURG, PA with annual revenue of approximately $40M",
JEVS CARE AT HOME,260779888,Human Services,1845 WALNUT STREET 7TH FLOOR,PHILADELPHIA,PA,19103-4713,,"Human Services organization in PHILADELPHIA, PA with annual revenue of approximately $40M",
HEALTHREACH COMMUNITY HEALTH CENTERS,016023664,Health,10 WATER ST STE 305,WATERVILLE,ME,04901-6566,,"Health organization in WATERVILLE, ME with annual revenue of approximately $40M",
LIFEWELL,860292390,Other,202 E EARLL DR STE 200,PHOENIX,AZ,85012-2647,,"Other organization in PHOENIX, AZ with annual revenue of approximately $40M",
RIVERSIDE HEALTHCARE ASSOCIATION INC,540601803,Health,608 DENBIGH BLVD STE 800,NEWPORT NEWS,VA,23608-4487,,"Health organization in NEWPORT NEWS, VA with annual revenue of approximately $40M",
YOUNG MENS CHRISTIAN ASSOCIATION OF THE CAPITAL DISTRICT,141726531,Human Services,465 NEW KARNER ROAD,ALBANY,NY,12205-3876,,"Human Services organization in ALBANY, NY with annual revenue of approximately $40M",
SUSAN B ALLEN MEMORIAL HOSPITAL,480581968,Health,720 W CENTRAL AVE,EL DORADO,KS,67042-2112,,"Health organization in EL DORADO, KS with annual revenue of approximately $40M",
THE MATH LEARNING CENTER,510204735,Research,PO BOX 12929,SALEM,OR,97309-0929,,"Research organization in SALEM, OR with annual revenue of approximately $40M",
LREFUAH MEDICAL & REHABILITATION CENTER INC,113535388,Health,1312 38TH ST,BROOKLYN,NY,11218-3612,,"Health organization in BROOKLYN, NY with annual revenue of approximately $40M",
CARON OF FLORIDA INC,592500657,Health,PO BOX 150,WERNERSVILLE,PA,19565-0150,,"Health organization in WERNERSVILLE, PA with annual revenue of approximately $40M",
CHRISTIAN CARE COMMUNITIES INC,610445828,Other,12710 TOWNEPARK WAY STE 1000,LOUISVILLE,KY,40243-2535,,"Other organization in LOUISVILLE, KY with annual revenue of approximately $40M",
MOUNT MARY UNIVERSITY INC,390806154,Other,2900 N MENOMONEE RIVER PKWY,MILWAUKEE,WI,53222-4545,,"Other organization in MILWAUKEE, WI with annual revenue of approximately $40M",
CHAMPLAIN HOUSING TR,222536446,Human Services,88 KING STREET,BURLINGTON,VT,05401-5089,,"Human Services organization in BURLINGTON, VT with annual revenue of approximately $40M",
REDSTONE PRESBYTERIAN SENIORCARE,251729925,Human Services,126 MATHEWS ST STE 2800,GREENSBURG,PA,15601-7911,,"Human Services organization in GREENSBURG, PA with annual revenue of approximately $40M",
LAKE CHARLES CHARTER ACADEMY FOUNDATION INC,273158582,Education,3160 POWER CENTRE PKWY,LAKE CHARLES,LA,70607-7700,,"Education organization in LAKE CHARLES, LA with annual revenue of approximately $40M",
NORTHERN HUMAN SERVICES,020300994,Human Services,87 WASHINGTON ST,CONWAY,NH,03818-6093,,"Human Services organization in CONWAY, NH with annual revenue of approximately $40M",
SELF-HELP FOR THE ELDERLY,941750717,Human Services,731 SANSOME ST STE 100,SAN FRANCISCO,CA,94111-1725,,"Human Services organization in SAN FRANCISCO, CA with annual revenue of approximately $40M",
VIABILITY INC,510178661,Human Services,60 BROOKDALE DR,SPRINGFIELD,MA,01104-3206,,"Human Services organization in SPRINGFIELD, MA with annual revenue of approximately $40M",
SAINT JOHNS HEALTH CENTER FOUNDATION,956100079,Health,2121 SANTA MONICA BLVD,SANTA MONICA,CA,90404-2303,,"Health organization in SANTA MONICA, CA with annual revenue of approximately $40M",
CHAMPAIGN RESIDENTIAL SERVICES INC,341200331,Human Services,1150 SCIOTO ST STE 100,URBANA,OH,43078-2290,,"Human Services organization in URBANA, OH with annual revenue of approximately $40M",
SPANISH-SPEAKING UNITY COUNCIL OF ALAMEDA COUNTY INC,941670490,Community,1900 FRUITVALE AVE STE 2A,OAKLAND,CA,94601-2468,,"Community organization in OAKLAND, CA with annual revenue of approximately $40M",
CHARTER SCHOOL FOR APPLIED TECHNOLOGIES,161603918,Education,2303 KENMORE AVE,BUFFALO,NY,14207-1311,,"Education organization in BUFFALO, NY with annual revenue of approximately $40M",
DIABETES PREVENTION AND AID FUND INC,860804743,Human Services,270 W PRODUCE ROW,NOGALES,AZ,85621-3521,,"Human Services organization in NOGALES, AZ with annual revenue of approximately $40M",
DC CENTRAL KITCHEN INC,521584936,Other,2121 1ST ST SW,WASHINGTON,DC,20024-3560,,"Other organization in WASHINGTON, DC with annual revenue of approximately $40M",
OHIO HISTORICAL SOCIETY,314389673,Arts & Culture,800 E 17TH AVE,COLUMBUS,OH,43211-2474,,"Arts & Culture organization in COLUMBUS, OH with annual revenue of approximately $40M",
CORE COMMUNITY ORGANIZED RELIEF EFFORT,271703237,Human Services,910 N HILL ST,LOS ANGELES,CA,90012-1715,,"Human Services organization in LOS ANGELES, CA with annual revenue of approximately $40M",
PARTNERSHIPS TO UPLIFT COMMUNITIES VALLEY,263393593,Other,1405 N SAN FERNANDO BLVD STE 303,BURBANK,CA,91504-4511,,"Other organization in BURBANK, CA with annual revenue of approximately $40M",
FRESNOS CHAFFEE ZOO CORPORATION,421661145,Health,1250 W OLIVE AVE,FRESNO,CA,93728-2816,,"Health organization in FRESNO, CA with annual revenue of approximately $40M",
HOUSE OF THE GOOD SHEPHERD,150532199,Human Services,1550 CHAMPLIN AVE,UTICA,NY,13502-4828,,"Human Services organization in UTICA, NY with annual revenue of approximately $40M",
WVUHS HOME CARE LLC,852915642,Other,1 MEDICAL CENTER DR BOX 8034,MORGANTOWN,WV,26506-1200,,"Other organization in MORGANTOWN, WV with annual revenue of approximately $40M",
GRAND RAPIDS CHRISTIAN SCHOOLS,381880873,Education,2400 PLYMOUTH AVE SE,GRAND RAPIDS,MI,49506-5200,,"Education organization in GRAND RAPIDS, MI with annual revenue of approximately $40M",
UNIVERSITY OF VIRGINIA FOUNDATION,541682176,Education,PO BOX 400218,CHARLOTTESVLE,VA,22904-4218,,"Education organization in CHARLOTTESVLE, VA with annual revenue of approximately $40M",
HOT SPRINGS COUNTY HOSPITAL DIST,836000182,Health,150 E ARAPAHOE ST,THERMOPOLIS,WY,82443-2402,,"Health organization in THERMOPOLIS, WY with annual revenue of approximately $40M",
HAZLETON PROFESSIONAL SERVICES,205880364,Health,PO BOX 4000,ALLENTOWN,PA,18105-4000,,"Health organization in ALLENTOWN, PA with annual revenue of approximately $40M",
CSULA AUXILIARY SERVICES INC,954016653,Education,5151 ST UNIVERSITY DR GE,LOS ANGELES,CA,90032-0000,,"Education organization in LOS ANGELES, CA with annual revenue of approximately $40M",
TEAM RUBICON,271720480,Human Services,5230 PACIFIC CONCOURSE DRIVE SUITE,LOS ANGELES,CA,90045-6200,,"Human Services organization in LOS ANGELES, CA with annual revenue of approximately $40M",
SOMERVILLE-CAMBRIDGE ELDER SERVICES INCORPORATED,042515020,Other,61 MEDFORD ST STE 2 FL 2,SOMERVILLE,MA,02143-3422,,"Other organization in SOMERVILLE, MA with annual revenue of approximately $40M",
CULVER-STOCKTON COLLEGE,430610813,Education,1 COLLEGE HL,CANTON,MO,63435-1257,,"Education organization in CANTON, MO with annual revenue of approximately $40M",
BHCARE INC,222598799,Health,127 WASHINGTON AVENUE THIRD FLOOR W,NORTH HAVEN,CT,06473-1715,,"Health organization in NORTH HAVEN, CT with annual revenue of approximately $40M",
CAMUY HEALTH SERVICES INC,660428652,Other,PO BOX 660,CAMUY,PR,00627-0660,,"Other organization in CAMUY, PR with annual revenue of approximately $40M",
OHIO DISTRICT 5 AREA AGENCY ON AGING INC,341617183,Other,2131 PARK AVE W,ONTARIO,OH,44906-1226,,"Other organization in ONTARIO, OH with annual revenue of approximately $40M",
LACKAWANNA COLLEGE,240839402,Education,501 VINE ST,SCRANTON,PA,18509-3206,,"Education organization in SCRANTON, PA with annual revenue of approximately $40M",
EXTRAORDINARY HOME CARE,272021133,Health,333 EARLE OVINGTON BLVD STE 600,UNIONDALE,NY,11553-3622,,"Health organization in UNIONDALE, NY with annual revenue of approximately $40M",
YOUTH DEVELOPMENT INC,850246036,Human Services,3411 CANDELARIA RD NE STE J,ALBUQUERQUE,NM,87107-1947,,"Human Services organization in ALBUQUERQUE, NM with annual revenue of approximately $40M",
AMERICANS FOR OXFORD INC,521495060,Education,500 FIFTH AVENUE 32ND FLOOR,NEW YORK,NY,10110-3299,,"Education organization in NEW YORK, NY with annual revenue of approximately $40M",
CHAMPLAIN VALLEY OFFICE OF ECONOMIC OPPORTUNITY INC,030216837,Community,255 S CHAMPLAIN ST STE 2,BURLINGTON,VT,05401-7702,,"Community organization in BURLINGTON, VT with annual revenue of approximately $40M",
LIFE CIRCLES,260170498,Human Services,560 SEMINOLE RD,NORTON SHORES,MI,49444-3720,,"Human Services organization in NORTON SHORES, MI with annual revenue of approximately $40M",
DARTMOUTH-HITCHCOCK HEALTH,264812335,Health,1 MEDICAL CENTER DR,LEBANON,NH,03756-1000,,"Health organization in LEBANON, NH with annual revenue of approximately $40M",
FORAFRIKA,382726350,Religion,1300 I STREET NW,WASHINGTON,DC,20005-3314,,"Religion organization in WASHINGTON, DC with annual revenue of approximately $40M",
EDUCATION SERVICE CENTER REGION XII OF TEXAS,741586927,Education,2101 W LOOP 340,WACO,TX,76712-6855,,"Education organization in WACO, TX with annual revenue of approximately $40M",
MILWAUKEE INSTITUTE OF ART AND DESIGN INC,391201561,Other,273 E ERIE ST,MILWAUKEE,WI,53202-6003,,"Other organization in MILWAUKEE, WI with annual revenue of approximately $40M",
PRIMECARE COMMUNITY HEALTH INC,363845253,Other,2211 N ELSTON AVE STE 301,CHICAGO,IL,60614-9278,,"Other organization in CHICAGO, IL with annual revenue of approximately $40M",
KECK GRADUATE INSTITUTE,954625327,Education,535 WATSON DR,CLAREMONT,CA,91711-4817,,"Education organization in CLAREMONT, CA with annual revenue of approximately $40M",
ASCENSION BORGESS ALLEGAN HOSPITAL,381359180,Health,PO BOX 45998,SAINT LOUIS,MO,63145-5998,,"Health organization in SAINT LOUIS, MO with annual revenue of approximately $40M",
KENDAL ON HUDSON,133971396,Health,1010 KENDAL WAY,SLEEPY HOLLOW,NY,10591-1055,,"Health organization in SLEEPY HOLLOW, NY with annual revenue of approximately $40M",
THE WORKS INC,621751430,Human Services,1471 GENESIS CIR,MEMPHIS,TN,38106-5808,,"Human Services organization in MEMPHIS, TN with annual revenue of approximately $40M",
ST JOHNS HEALTH CARE CORPORATION,161469476,Health,150 HIGHLAND AVE,ROCHESTER,NY,14620-3024,,"Health organization in ROCHESTER, NY with annual revenue of approximately $40M",
VIA CARE COMMUNITY HEALTH CENTER,800699156,Health,501 S ATLANTIC BLVD,LOS ANGELES,CA,90022-2621,,"Health organization in LOS ANGELES, CA with annual revenue of approximately $40M",
WREATHS ACROSS AMERICA,208362270,Community,4 POINT ST,COLUMBIA FLS,ME,04623-5306,,"Community organization in COLUMBIA FLS, ME with annual revenue of approximately $40M",
KAUFFMAN CENTER FOR THE PERFORMING ARTS,431866550,Arts & Culture,1601 BROADWAY BLVD,KANSAS CITY,MO,64108-1229,,"Arts & Culture organization in KANSAS CITY, MO with annual revenue of approximately $40M",
STERLING HEALTH SOLUTIONS INC,270439902,Health,236 W MAIN ST,MT STERLING,KY,40353-1348,,"Health organization in MT STERLING, KY with annual revenue of approximately $40M",
HEALTHPARTNERS RC,844261122,Health,8170 33RD AVE S,BLOOMINGTON,MN,55425-4516,,"Health organization in BLOOMINGTON, MN with annual revenue of approximately $40M",
SUFFIELD ACADEMY,060678539,Education,PO BOX 999,SUFFIELD,CT,06078-0999,,"Education organization in SUFFIELD, CT with annual revenue of approximately $40M",
MARK TWAIN ASSOCIATION FOR MENTAL HEALTH INC,431020989,Health,154 FORREST DR,HANNIBAL,MO,63401-5503,,"Health organization in HANNIBAL, MO with annual revenue of approximately $40M",
MHS PRIMARY CARE INC,061472743,Health,28 CRESCENT ST,MIDDLETOWN,CT,06457-3654,,"Health organization in MIDDLETOWN, CT with annual revenue of approximately $40M",
FACULTY-STUDENT ASSOC OF STATE UNIVERSITY OF NY AT STONY BROOK,111986378,Education,STONY BROOK UNIVERSITY WEST SIDE DI,STONY BROOK,NY,11794-4460,,"Education organization in STONY BROOK, NY with annual revenue of approximately $40M",
JULIA DYCKMAN ANDRUS MEMORIAL INC,132793295,Other,1156 N BROADWAY,YONKERS,NY,10701-1108,,"Other organization in YONKERS, NY with annual revenue of approximately $40M",
PRINCE GEORGES COUNTY MEMORIAL LIBRARY SYSTEM,526001858,Education,9601 CAPITAL LN,LARGO,MD,20774-1054,,"Education organization in LARGO, MD with annual revenue of approximately $40M",
IMAGINE SCHOOLS INC,043466383,Education,19114 BELLA DR,CLEVELAND,OH,44119-3007,,"Education organization in CLEVELAND, OH with annual revenue of approximately $40M",
GLENWOOD INC,237396710,Other,150 GLENWOOD LN,BIRMINGHAM,AL,35242-5700,,"Other organization in BIRMINGHAM, AL with annual revenue of approximately $40M",
SOUTH SHORE YOUNG MENS CHRISTIAN ASSOCIATION,042105881,Human Services,79 CODDINGTON ST,QUINCY,MA,02169-4525,,"Human Services organization in QUINCY, MA with annual revenue of approximately $40M",
CROATIAN FRATERNAL UNION OF AMERICA,250426430,Human Services,100 DELANEY DR,PITTSBURGH,PA,15235-5416,,"Human Services organization in PITTSBURGH, PA with annual revenue of approximately $40M",
AABR INC,131968035,Human Services,1508 COLLEGE POINT BLVD,COLLEGE POINT,NY,11356-2210,,"Human Services organization in COLLEGE POINT, NY with annual revenue of approximately $40M",
THE ALBERT B SABIN VACCINE INSTITUTE INC,061389829,Other,2000 PENNSYLVANIA AVE NW STE 7000,WASHINGTON,DC,20006-1921,,"Other organization in WASHINGTON, DC with annual revenue of approximately $40M",
WINDOW TO THE WORLD COMMUNICATIONS INC,362246703,Arts & Culture,5400 N SAINT LOUIS AVE,CHICAGO,IL,60625-4623,,"Arts & Culture organization in CHICAGO, IL with annual revenue of approximately $40M",
SOUTHERN CALIFORNIA GRANTMAKERS,952831058,Community,1000 N ALAMEDA ST 230,LOS ANGELES,CA,90012-1804,,"Community organization in LOS ANGELES, CA with annual revenue of approximately $40M",
SHIPLEY SCHOOL,231352677,Education,814 YARROW ST,BRYN MAWR,PA,19010-3525,,"Education organization in BRYN MAWR, PA with annual revenue of approximately $40M",
UNIVERSITY OF SOUTH CAROLINA SCHOOL OF MEDICINE EDUCATIONAL TRUST,570705675,Education,6311 GARNERS FERRY RD,COLUMBIA,SC,29209-1445,,"Education organization in COLUMBIA, SC with annual revenue of approximately $40M",
UNIVERSITY RETIREMENT COMMUNITY AT DAVIS INC,931179254,Human Services,1515 SHASTA DRIVE,DAVIS,CA,95616-6691,,"Human Services organization in DAVIS, CA with annual revenue of approximately $40M",
TRAVIS ASSOCIATION FOR THE BLIND,741143060,Health,PO BOX 3297,AUSTIN,TX,78764-3297,,"Health organization in AUSTIN, TX with annual revenue of approximately $40M",
GREENCROFT GOSHEN INC,351270709,Human Services,PO BOX 819,GOSHEN,IN,46527-0819,,"Human Services organization in GOSHEN, IN with annual revenue of approximately $40M",
ROWLAND HALL-ST MARKS SCHOOL,870212477,Education,720 S GUARDSMAN WAY,SALT LAKE CTY,UT,84108-1374,,"Education organization in SALT LAKE CTY, UT with annual revenue of approximately $40M",
SCHOLARSHIP AMERICA INC,237039405,Education,7900 INTERNATIONAL DR STE 500,MINNEAPOLIS,MN,55425-2561,,"Education organization in MINNEAPOLIS, MN with annual revenue of approximately $40M",
CHILDRENS HEALTH SYSTEM INC,541278830,Health,601 CHILDRENS LN,NORFOLK,VA,23507-1910,,"Health organization in NORFOLK, VA with annual revenue of approximately $40M",
EMMAUS HOMES INC,430653309,Other,3731 MUELLER RD,SAINT CHARLES,MO,63301-8043,,"Other organization in SAINT CHARLES, MO with annual revenue of approximately $40M",
NYSARC INC,161021588,Human Services,240 OCONNOR ST,WELLSVILLE,NY,14895-1055,,"Human Services organization in WELLSVILLE, NY with annual revenue of approximately $40M",
NAPLES CHILDREN AND EDUCATION,651001650,Community,2590 GOODLETTE FRANK RD N,NAPLES,FL,34103-4608,,"Community organization in NAPLES, FL with annual revenue of approximately $40M",
UC BERKELEY CENTER FOR EXECUTIVE EDUCATION,461482891,Education,2220 PIEDMONT AVENUE SUITE F-299,BERKELEY,CA,94720-2171,,"Education organization in BERKELEY, CA with annual revenue of approximately $40M",
AIDS FOUNDATION OF CHICAGO,363412054,Health,200 W MONROE ST STE 1150,CHICAGO,IL,60606-5036,,"Health organization in CHICAGO, IL with annual revenue of approximately $40M",
COMMUNITY FOUNDATION OF GREATER CHATTANOOGA INC,626045999,Community,1400 WILLIAMS ST,CHATTANOOGA,TN,37408-1140,,"Community organization in CHATTANOOGA, TN with annual revenue of approximately $40M",
QUALITY LIVING INC,470665946,Health,6404 N 70TH PLZ,OMAHA,NE,68104-1074,,"Health organization in OMAHA, NE with annual revenue of approximately $40M",
SALISBURY SCHOOL INC,060646888,Education,251 CANAAN RD,SALISBURY,CT,06068-1602,,"Education organization in SALISBURY, CT with annual revenue of approximately $40M",
INSTITUTE FOR BUILDING TECHNOLOGY AND SAFETY,541963889,Community,45207 RESEARCH PLACE,ASHBURN,VA,20147-2418,,"Community organization in ASHBURN, VA with annual revenue of approximately $40M",
ABILIS INC,066009327,Health,50 GLENVILLE ST,GREENWICH,CT,06831-4140,,"Health organization in GREENWICH, CT with annual revenue of approximately $40M",
EPILEPSY-PRALID INC,161422825,Human Services,1650 SOUTH AVENUE,ROCHESTER,NY,14620-3927,,"Human Services organization in ROCHESTER, NY with annual revenue of approximately $40M",
THE HIGHLANDS AT WYOMISSING,222790840,Human Services,2000 CAMBRIDGE AVE,WYOMISSING,PA,19610-2714,,"Human Services organization in WYOMISSING, PA with annual revenue of approximately $40M",
