name,ein,category,address,city,state,zip_code,website,description,phone
COMMUNITY MEMORIAL HOSPITAL ASSOCIATION,410743546,Health,512 SKYLINE BLVD,CLOQUET,MN,55720-3787,,"Health organization in CLOQUET, MN with annual revenue of approximately $72M",
WHITE HOUSE HISTORICAL ASSOCIATION,520749685,Arts & Culture,740 JACKSON PLACE NW,WASHINGTON,DC,20006-0000,,"Arts & Culture organization in WASHINGTON, DC with annual revenue of approximately $72M",
GOOD NEIGHBORS GLOBAL PARTNERSHIP CENTER,813404708,International,131 N TUSTIN AVE STE 206,TUSTIN,CA,92780-2964,,"International organization in TUSTIN, CA with annual revenue of approximately $72M",
NEW HANOVER COMMUNITY ENDOWMENT INC,853563370,Community,PO BOX 4730,WILMINGTON,NC,28406-1730,,"Community organization in WILMINGTON, NC with annual revenue of approximately $72M",
LUDWIG INSTITUTE FOR CANCER RESEARCH,237121131,Other,600 3RD AVE FL 32,NEW YORK,NY,10016-1932,,"Other organization in NEW YORK, NY with annual revenue of approximately $72M",
MT WASHINGTON PEDIATRIC HOSPITAL INC,520591483,Health,1708 W ROGERS AVE,BALTIMORE,MD,21209-4545,,"Health organization in BALTIMORE, MD with annual revenue of approximately $72M",
LIFELONG LEARNING ADMINISTRATION CORPORATION,475307489,Education,177 HOLSTON DR,LANCASTER,CA,93535-4570,,"Education organization in LANCASTER, CA with annual revenue of approximately $72M",
SERVEMINNESOTA,412010058,Community,120 S 6TH ST STE 2260,MINNEAPOLIS,MN,55402-1824,,"Community organization in MINNEAPOLIS, MN with annual revenue of approximately $72M",
SAN DIEGO HUMANE SOCIETY AND S P C A,951661688,Health,5500 GAINES ST,SAN DIEGO,CA,92110-2572,,"Health organization in SAN DIEGO, CA with annual revenue of approximately $72M",
VIEWPOINT EDUCATIONAL FOUNDATION,952242261,Other,23620 MULHOLLAND HWY,CALABASAS,CA,91302-2060,,"Other organization in CALABASAS, CA with annual revenue of approximately $72M",
INDIANA UNIVERSITY RADIOLOGY ASSOCIATES INC IU MEDICAL,351464192,Health,550 UNIVERSITY BLVD,INDIANAPOLIS,IN,46202-5149,,"Health organization in INDIANAPOLIS, IN with annual revenue of approximately $72M",
GUIDE DOGS FOR THE BLIND INC,941196195,Human Services,350 LOS RANCHITOS RD,SAN RAFAEL,CA,94903-3606,,"Human Services organization in SAN RAFAEL, CA with annual revenue of approximately $72M",
SOUTHWESTERN MEDICAL FOUNDATION,750945939,Education,3889 MAPLE AVE STE 100,DALLAS,TX,75219-3914,,"Education organization in DALLAS, TX with annual revenue of approximately $72M",
DEXTER SOUTHFIELD INC,042104152,Education,20 NEWTON ST,BROOKLINE,MA,02445-7407,,"Education organization in BROOKLINE, MA with annual revenue of approximately $72M",
PRAIRIE CARDIOVASCULAR CONSULTANTS LTD,371071858,Health,4936 LAVERNA RD,SPRINGFIELD,IL,62707-9797,,"Health organization in SPRINGFIELD, IL with annual revenue of approximately $72M",
ALLHEALTH NETWORK,840472982,Health,116 INVERNESS DR E STE 105,ENGLEWOOD,CO,80112-5125,,"Health organization in ENGLEWOOD, CO with annual revenue of approximately $72M",
CALIFORNIA TEACHING FELLOWS FOUNDATION,200359353,Other,7110 N FRESNO ST STE 300,FRESNO,CA,93720-2997,,"Other organization in FRESNO, CA with annual revenue of approximately $72M",
CAMARENA HEALTH,942503904,Health,730 N I ST STE 202,MADERA,CA,93637-3077,,"Health organization in MADERA, CA with annual revenue of approximately $72M",
THE COLLEGE OF IDAHO INC,820200906,Education,2112 CLEVELAND BLVD,CALDWELL,ID,83605-4432,,"Education organization in CALDWELL, ID with annual revenue of approximately $72M",
BROOKLYN AMBULATORY CARE PC,474447289,Health,972 BRUSH HOLLOW RD 5TH FL,WESTBURY,NY,11590-1740,,"Health organization in WESTBURY, NY with annual revenue of approximately $72M",
YOUTH CONSULTATION SERVICE INC,221487560,Human Services,284 BROADWAY,NEWARK,NJ,07104-4003,,"Human Services organization in NEWARK, NJ with annual revenue of approximately $72M",
HOOPESTON COMMUNITY MEMORIAL HOSPITAL,363637465,Health,611 W PARK ST,URBANA,IL,61801-2529,,"Health organization in URBANA, IL with annual revenue of approximately $72M",
WOLF TRAP FOUNDATION FOR THE PERFORMING ARTS,237011544,Arts & Culture,1645 TRAP RD,VIENNA,VA,22182-2064,,"Arts & Culture organization in VIENNA, VA with annual revenue of approximately $72M",
MOMENTUM HOUSING,470785685,Human Services,11640 ARBOR STREET,OMAHA,NE,68144-5007,,"Human Services organization in OMAHA, NE with annual revenue of approximately $72M",
CHILDRENS HOSPITAL OF CHICAGO MEDICAL CENTER,363357004,Health,225 E CHICAGO AVE BOX 282,CHICAGO,IL,60611-2991,,"Health organization in CHICAGO, IL with annual revenue of approximately $72M",
WELLMONT CARDIOLOGY SERVICES,263557623,Health,311 PRINCETON RD STE 1,JOHNSON CITY,TN,37601-2080,,"Health organization in JOHNSON CITY, TN with annual revenue of approximately $72M",
LONG ISLAND JEWISH MEDICAL CENTER AT HOME PHARMACY INC,113251128,Health,972 BRUSH HOLLOW RD 5TH FL,WESTBURY,NY,11590-1740,,"Health organization in WESTBURY, NY with annual revenue of approximately $72M",
RELIEF INTERNATIONAL INC,954300662,International,1717 K ST NW STE 900,WASHINGTON,DC,20006-5349,,"International organization in WASHINGTON, DC with annual revenue of approximately $72M",
GENERAL CONFERENCE OF SEVENTH DAY ADVENTIST,953867863,Other,1 ADVENTIST HEALTH WAY,ROSEVILLE,CA,95661-3266,,"Other organization in ROSEVILLE, CA with annual revenue of approximately $72M",
PROVIDENCE HEALTH ALLIANCE INC,742696970,Health,PO BOX 45998,SAINT LOUIS,MO,63145-5998,,"Health organization in SAINT LOUIS, MO with annual revenue of approximately $72M",
SOUTHERN MONTEREY COUNTY MEMORIAL HOSPITAL,941502014,Other,300 CANAL ST,KING CITY,CA,93930-3431,,"Other organization in KING CITY, CA with annual revenue of approximately $72M",
MARIN COMMUNITY CLINIC,942237120,Health,9 COMMERCIAL BLVD STE 100,NOVATO,CA,94949-6137,,"Health organization in NOVATO, CA with annual revenue of approximately $72M",
CONVERGENT RESEARCH INC,883013217,Research,160 ALEWIFE BROOK PKWY 1212,CAMBRIDGE,MA,02138-1102,,"Research organization in CAMBRIDGE, MA with annual revenue of approximately $72M",
HAROLD GRINSPOON FOUNDATION,046685725,Other,67 HUNT ST STE 100,AGAWAM,MA,01001-1913,,"Other organization in AGAWAM, MA with annual revenue of approximately $72M",
COOK INLET TRIBAL COUNCIL INC,920094184,Human Services,3600 SAN JERONIMO DRIVE,ANCHORAGE,AK,99508-2870,,"Human Services organization in ANCHORAGE, AK with annual revenue of approximately $72M",
ORIANA HOUSE INC,341334919,Human Services,885 E BUCHTEL AVE,AKRON,OH,44305-2338,,"Human Services organization in AKRON, OH with annual revenue of approximately $72M",
PLANNED PARENTHOOD SHASTA DIABLO INC,941575233,Health,2185 PACHECO ST,CONCORD,CA,94520-2309,,"Health organization in CONCORD, CA with annual revenue of approximately $72M",
KIPP COOPER NORCROSS A NEW JERSEY NONPROFIT CORPORATION,455040456,Education,60 PARK PL STE 802,NEWARK,NJ,07102-5508,,"Education organization in NEWARK, NJ with annual revenue of approximately $72M",
VIRGINIA UNITED METHODIST HOMES INC,540720603,Human Services,120 EASTSHORE DR STE 130,GLEN ALLEN,VA,23059-5985,,"Human Services organization in GLEN ALLEN, VA with annual revenue of approximately $72M",
LIFEPATH INC,237402943,Human Services,3500 HIGH POINT BLVD,BETHLEHEM,PA,18017-7803,,"Human Services organization in BETHLEHEM, PA with annual revenue of approximately $72M",
LOWELL COMMUNITY HEALTH CENTER INC,042881348,Health,161 JACKSON ST,LOWELL,MA,01852-2103,,"Health organization in LOWELL, MA with annual revenue of approximately $72M",
WORKFORCE SOLUTIONS BORDERPLEX INC,742911834,Human Services,304 TEXAS AVE SUITE 1401,EL PASO,TX,79901-1737,,"Human Services organization in EL PASO, TX with annual revenue of approximately $72M",
COMMUNITY COUNSELING OF BRISTOL COUNTY INC,043035697,Health,ONE WASHINGTON STREET,TAUNTON,MA,02780-5293,,"Health organization in TAUNTON, MA with annual revenue of approximately $72M",
CATHERINE HERSHEY SCHOOLS FOR EARLY LEARNING,854322274,Education,PO BOX 830,HERSHEY,PA,17033-0830,,"Education organization in HERSHEY, PA with annual revenue of approximately $72M",
WALNUT HOME THERAPEUTICS INC,232622006,Health,1101 MARKET STREET SUITE 2004,PHILADELPHIA,PA,19107-2934,,"Health organization in PHILADELPHIA, PA with annual revenue of approximately $72M",
NORTH CANYON MEDICAL CENTER INC,261938641,Health,267 N CANYON DR,GOODING,ID,83330-5500,,"Health organization in GOODING, ID with annual revenue of approximately $72M",
JOB OPTIONS INC,330603379,Human Services,3465 CAMINO DEL RIO S STE 300,SAN DIEGO,CA,92108-3908,,"Human Services organization in SAN DIEGO, CA with annual revenue of approximately $72M",
HOSPICE OF MICHIGAN INC,382255529,Human Services,2366 OAK VALLEY DR,ANN ARBOR,MI,48103-8944,,"Human Services organization in ANN ARBOR, MI with annual revenue of approximately $72M",
HOSPICE OF CINCINNATI INCORPORATED,310917155,Other,625 EDEN PARK DRIVE 7TH FLOOR,CINCINNATI,OH,45202-6005,,"Other organization in CINCINNATI, OH with annual revenue of approximately $72M",
DEAN COLLEGE,042104149,Education,99 MAIN ST,FRANKLIN,MA,02038-1941,,"Education organization in FRANKLIN, MA with annual revenue of approximately $72M",
OPERATION COMPASSION A TENNESSEE NON-PROFIT CORPORATION,621697490,Religion,114 STUART RD NE PMB 370,CLEVELAND,TN,37312-5084,,"Religion organization in CLEVELAND, TN with annual revenue of approximately $72M",
PLANNED PARENTHOOD GREAT NORTHWEST HAWAII ALASKA INDIANA & KY INC,910686012,Health,2001 E MADISON ST,SEATTLE,WA,98122-2959,,"Health organization in SEATTLE, WA with annual revenue of approximately $72M",
COLEMAN PROFESSIONAL SERVICES INC,341240178,Health,5982 RHODES RD,KENT,OH,44240-8100,,"Health organization in KENT, OH with annual revenue of approximately $72M",
ST JOSEPHS HOSPITAL AND HEALTH CENTER,450226429,Other,2500 FAIRWAY ST,DICKINSON,ND,58601-2639,,"Other organization in DICKINSON, ND with annual revenue of approximately $71M",
CARDINAL MCCLOSKEY SCHOOL & HOME FOR CHILDREN INC,131740443,Other,115 E STEVENS AVE,VALHALLA,NY,10595-1203,,"Other organization in VALHALLA, NY with annual revenue of approximately $71M",
UNIVERSITY OF SAINT FRANCIS OF FORT WAYNE INDIANA INC,350886846,Education,2701 SPRING ST,FORT WAYNE,IN,46808-3939,,"Education organization in FORT WAYNE, IN with annual revenue of approximately $71M",
SAINT LUKES HEALTH SYSTEM HOME CARE AND HOSPICE,431127200,Health,901 E 104TH STREET MAILSTOP 3000 S,KANSAS CITY,MO,64131-4517,,"Health organization in KANSAS CITY, MO with annual revenue of approximately $71M",
CATO INSTITUTE,237432162,Community,1000 MASSACHUSETTS AVE NW,WASHINGTON,DC,20001-5401,,"Community organization in WASHINGTON, DC with annual revenue of approximately $71M",
SAN JOSE STATE UNIVERSITY RESEARCH FOUNDATION,946017638,Education,1 WASHINGTON SQ,SAN JOSE,CA,95192-0139,,"Education organization in SAN JOSE, CA with annual revenue of approximately $71M",
NEW YORK EDGE INC,113112635,Human Services,58-12 QUEENS BLVD,WOODSIDE,NY,11377-7765,,"Human Services organization in WOODSIDE, NY with annual revenue of approximately $71M",
OAKWOOD UNIVERSITY INC,630366652,Other,7000 ADVENTIST BLVD NW,HUNTSVILLE,AL,35896-0001,,"Other organization in HUNTSVILLE, AL with annual revenue of approximately $71M",
TRANSYLVANIA UNIVERSITY,610444825,Education,300 NORTH BROADWAY,LEXINGTON,KY,40508-1797,,"Education organization in LEXINGTON, KY with annual revenue of approximately $71M",
GEORGIAN COURT UNIVERSITY,210634981,Education,900 LAKEWOOD AVE,LAKEWOOD,NJ,08701-2600,,"Education organization in LAKEWOOD, NJ with annual revenue of approximately $71M",
EVENTIDE,410721640,Human Services,801 MAIN AVE STE 201,MOORHEAD,MN,56560-2871,,"Human Services organization in MOORHEAD, MN with annual revenue of approximately $71M",
LA SIERRA UNIVERSITY,330413730,Education,4500 RIVERWALK PKWY,RIVERSIDE,CA,92505-3344,,"Education organization in RIVERSIDE, CA with annual revenue of approximately $71M",
FIRST CATHOLIC SLOVAK LADIES ASSOC OF THE USA,340220540,Other,24950 CHAGRIN BLVD,BEACHWOOD,OH,44122-5616,,"Other organization in BEACHWOOD, OH with annual revenue of approximately $71M",
DORAL ACADEMY OF NEVADA,461907920,Education,1378 PASEO VERDE PKWY STE 200,HENDERSON,NV,89012-5729,,"Education organization in HENDERSON, NV with annual revenue of approximately $71M",
UNITED STATE OLYMPIC AND PARALYMPIC PROPERTIES LLC,320570956,Human Services,10900 WILSHIRE BLVDSTE 700,LOS ANGELES,CA,90024-0000,,"Human Services organization in LOS ANGELES, CA with annual revenue of approximately $71M",
FOX RUN VILLAGE INC,522291271,Human Services,813 MAIDEN CHOICE LN,CATONSVILLE,MD,21228-3679,,"Human Services organization in CATONSVILLE, MD with annual revenue of approximately $71M",
JOSLIN DIABETES CENTER INC,042203836,Health,CO BILH TAX 529 MAIN ST 4TH FL,CHARLESTOWN,MA,02129-0000,,"Health organization in CHARLESTOWN, MA with annual revenue of approximately $71M",
ALLIANCE HEALTHCARE SERVICES INC,620911518,Other,2220 UNION AVE,MEMPHIS,TN,38104-4315,,"Other organization in MEMPHIS, TN with annual revenue of approximately $71M",
WESTMINSTER-CANTERBURY ON CHESAPEAKE BAY,541071734,Human Services,3100 SHORE DRIVE,VIRGINIA BEACH,VA,23451-1199,,"Human Services organization in VIRGINIA BEACH, VA with annual revenue of approximately $71M",
GROTON SCHOOL,042104265,Education,282 FARMERS ROW,GROTON,MA,01450-1848,,"Education organization in GROTON, MA with annual revenue of approximately $71M",
ALBRIGHT CARE SERVICES,231887138,Human Services,90 MAPLEWOOD DR,LEWISBURG,PA,17837-6307,,"Human Services organization in LEWISBURG, PA with annual revenue of approximately $71M",
POTOMAC SCHOOL,540562160,Education,1301 POTOMAC SCHOOL RD,MCLEAN,VA,22101-2350,,"Education organization in MCLEAN, VA with annual revenue of approximately $71M",
L A FAMILY HOUSING CORPORATION,953920560,Other,7843 LANKERSHIM BLVD,N HOLLYWOOD,CA,91605-2523,,"Other organization in N HOLLYWOOD, CA with annual revenue of approximately $71M",
ALEXIAN BROTHERS SPECIALTY GROUP,800710751,Health,PO BOX 45998,SAINT LOUIS,MO,63145-5998,,"Health organization in SAINT LOUIS, MO with annual revenue of approximately $71M",
MORASHA OLAMI INC,813451968,International,555 MADISON AVE,LAKEWOOD,NJ,08701-3255,,"International organization in LAKEWOOD, NJ with annual revenue of approximately $71M",
CATHOLIC HOSPICE INC,650062530,Human Services,14875 NW 77TH AVE STE 100,MIAMI LAKES,FL,33014-2568,,"Human Services organization in MIAMI LAKES, FL with annual revenue of approximately $71M",
COMMUNITY ACTION KENTUCKY INC,610865554,Community,101 BURCH CT,FRANKFORT,KY,40601-8353,,"Community organization in FRANKFORT, KY with annual revenue of approximately $71M",
VALLEY OPPORTUNITY COUNCIL INC,042692763,Human Services,35 MT CARMEL AVE,CHICOPEE,MA,01013-4113,,"Human Services organization in CHICOPEE, MA with annual revenue of approximately $71M",
SEABROOK VILLAGE INC,522126751,Human Services,813 MAIDEN CHOICE LN,CATONSVILLE,MD,21228-3679,,"Human Services organization in CATONSVILLE, MD with annual revenue of approximately $71M",
LAKE HIGHLAND PREPARATORY SCHOOL INC,590624431,Education,901 HIGHLAND AVE,ORLANDO,FL,32803-3233,,"Education organization in ORLANDO, FL with annual revenue of approximately $71M",
AMERICAN YOUTH SOCCER ORGANIZATION,956205398,Human Services,19700 S VERMONT AVE STE 103,TORRANCE,CA,90502-1148,,"Human Services organization in TORRANCE, CA with annual revenue of approximately $71M",
COASTAL HORIZONS CENTER INC,560950370,Health,615 SHIPYARD BLVD,WILMINGTON,NC,28412-6431,,"Health organization in WILMINGTON, NC with annual revenue of approximately $71M",
NAVICENT HEALTH BALDWIN,823914925,Health,777 HEMLOCK ST,MACON,GA,31201-2102,,"Health organization in MACON, GA with annual revenue of approximately $71M",
NYSARC INC,160968914,Human Services,200 DUNHAM AVE,JAMESTOWN,NY,14701-2528,,"Human Services organization in JAMESTOWN, NY with annual revenue of approximately $71M",
PARKVIEW HEALTH SYSTEMS INC,840935138,Health,400 W 16TH ST,PUEBLO,CO,81003-2745,,"Health organization in PUEBLO, CO with annual revenue of approximately $71M",
AFRICAN AMERICAN PLANNING COMMISSION INC,113305070,Human Services,PO BOX 330704,BROOKLYN,NY,11233-0704,,"Human Services organization in BROOKLYN, NY with annual revenue of approximately $71M",
THE TREVOR PROJECT INC,954681287,Religion,PO BOX 69232,W HOLLYWOOD,CA,90069-0232,,"Religion organization in W HOLLYWOOD, CA with annual revenue of approximately $71M",
THALES ACADEMY,208920342,Education,4641 PARAGON PARK ROAD,RALEIGH,NC,27616-3406,,"Education organization in RALEIGH, NC with annual revenue of approximately $71M",
BERT FISH MEDICAL CENTER INC,593306983,Health,PO BOX 909,NEW SMYRNA,FL,32170-0909,,"Health organization in NEW SMYRNA, FL with annual revenue of approximately $71M",
FEEDING AMERICA RIVERSIDE AND SAN BERNARDINO COUNTIES,330072922,Human Services,4035 TRAIL CREEK RD,RIVERSIDE,CA,92505-5863,,"Human Services organization in RIVERSIDE, CA with annual revenue of approximately $71M",
BUCKINGHAM BROWNE AND NICHOLS SCHOOL,042103751,Education,80 GERRYS LANDING RD,CAMBRIDGE,MA,02138-5504,,"Education organization in CAMBRIDGE, MA with annual revenue of approximately $71M",
ST CROIX REGIONAL MEDICAL CENTER,390890676,Health,235 E STATE ST,ST CROIX FLS,WI,54024-4117,,"Health organization in ST CROIX FLS, WI with annual revenue of approximately $71M",
LUTHERAN COMMUNITY SERVICES NORTHWEST,930386860,Human Services,1944 PACIFIC AVE STE 206,TACOMA,WA,98402-3121,,"Human Services organization in TACOMA, WA with annual revenue of approximately $71M",
NATIONAL SOCIETY FOR HEBREW DAY SCHOOLS,135564128,Religion,620 FOSTER AVE,BROOKLYN,NY,11230-1399,,"Religion organization in BROOKLYN, NY with annual revenue of approximately $71M",
WORKSOURCE GREATER AUSTIN AREA WORKFORCE BOARD,742327454,Human Services,9001 N IH35 SUITE 110 E,AUSTIN,TX,78753-5278,,"Human Services organization in AUSTIN, TX with annual revenue of approximately $71M",
URBAN AFFAIRS COALITION,237046393,Other,1650 ARCH STREET,PHILADELPHIA,PA,19103-2029,,"Other organization in PHILADELPHIA, PA with annual revenue of approximately $71M",
CITIZENS OPTIONS UNLIMITED INC,261520311,Other,189 WHEATLEY RD,BROOKVILLE,NY,11545-2641,,"Other organization in BROOKVILLE, NY with annual revenue of approximately $71M",
PHILANTHROPIC VENTURES FOUNDATION,943136771,Community,1222 PRESERVATION PARK WAY,OAKLAND,CA,94612-1204,,"Community organization in OAKLAND, CA with annual revenue of approximately $71M",
TRILLIUM FAMILY SERVICES INC,930386966,Human Services,3415 SE POWELL BLVD,PORTLAND,OR,97202-3371,,"Human Services organization in PORTLAND, OR with annual revenue of approximately $71M",
ENSWORTH SCHOOL,620598316,Education,7401 HIGHWAY 100,NASHVILLE,TN,37221-3601,,"Education organization in NASHVILLE, TN with annual revenue of approximately $71M",
UNIVERSITY OF CHARLESTON,550357039,Education,2300 MACCORKLE AVE SE,CHARLESTON,WV,25304-1045,,"Education organization in CHARLESTON, WV with annual revenue of approximately $70M",
COX-MONETT HOSPITAL INC,431656689,Health,1000 E US HWY 60,MONETT,MO,65708-8258,,"Health organization in MONETT, MO with annual revenue of approximately $70M",
NORTH TEXAS HIGHER EDUCATION AUTHORITY INC,237133739,Education,4381 W GREEN OAKS BLVD STE 200,ARLINGTON,TX,76016-4477,,"Education organization in ARLINGTON, TX with annual revenue of approximately $70M",
COMPREHENSIVE SENIOR CARE CORPORATION,010866698,Other,200 MICHIGAN AVE W STE 103,BATTLE CREEK,MI,49017-3632,,"Other organization in BATTLE CREEK, MI with annual revenue of approximately $70M",
MARYLAND LEGAL SERVICES CORP,521266744,Human Services,15 CHARLES PLZ STE 102,BALTIMORE,MD,21201-3994,,"Human Services organization in BALTIMORE, MD with annual revenue of approximately $70M",
ELK REGIONAL HEALTH CENTER,250585280,Health,204 HOSPITAL AVE,DU BOIS,PA,15801-1442,,"Health organization in DU BOIS, PA with annual revenue of approximately $70M",
MOBILE MEDICAL RESPONSE INC,383198397,Health,4305 STATE ST,SAGINAW,MI,48603-4068,,"Health organization in SAGINAW, MI with annual revenue of approximately $70M",
MOSAIC COMMUNITY HEALTH,931329158,Health,375 NW BEAVER ST STE 101,PRINEVILLE,OR,97754-1802,,"Health organization in PRINEVILLE, OR with annual revenue of approximately $70M",
ST LUKES HOSPITAL-EASTON CAMPUS,844475996,Health,1110 ST LUKES WAY,ALLENTOWN,PA,18109-9153,,"Health organization in ALLENTOWN, PA with annual revenue of approximately $70M",
GENEVA FOUNDATION 04-15-93,911593913,Research,950 BROADWAYSUITE 307,TACOMA,WA,98402-0000,,"Research organization in TACOMA, WA with annual revenue of approximately $70M",
OMAHA ZOOLOGICAL SOCIETY INC,470469782,Health,3701 S 10TH ST,OMAHA,NE,68107-2299,,"Health organization in OMAHA, NE with annual revenue of approximately $70M",
KIPP NASHVILLE,202799123,Education,123 DOUGLAS AVE,NASHVILLE,TN,37207-5155,,"Education organization in NASHVILLE, TN with annual revenue of approximately $70M",
TELAMON CORPORATION,561022483,Human Services,5560 MUNFORD RD STE 201,RALEIGH,NC,27612-2731,,"Human Services organization in RALEIGH, NC with annual revenue of approximately $70M",
THE JAMES FAMILY CHARITABLE TRUST,473856889,Community,165 TOWNSHIP LINE RD STE 1200,JENKINTOWN,PA,19046-3549,,"Community organization in JENKINTOWN, PA with annual revenue of approximately $70M",
METRO COMMUNITY PROVIDER NETWORK INC,742477108,Health,7495 W 29TH AVE,WHEAT RIDGE,CO,80033-8002,,"Health organization in WHEAT RIDGE, CO with annual revenue of approximately $70M",
GOODWILL INDUSTRIES INC,410706171,Other,553 FAIRVIEW AVE N,SAINT PAUL,MN,55104-1708,,"Other organization in SAINT PAUL, MN with annual revenue of approximately $70M",
WASHINGTON COUNTY MENTAL HEALTH SERVICES INC,030215872,Other,PO BOX 647,MONTPELIER,VT,05601-0647,,"Other organization in MONTPELIER, VT with annual revenue of approximately $70M",
TRILLIUM HEALTH INC,161356734,Other,259 MONROE AVE,ROCHESTER,NY,14607-3632,,"Other organization in ROCHESTER, NY with annual revenue of approximately $70M",
REGENTS OF THE MERCERSBURG COLLEGE,231365963,Education,100 ACADEMY DR,MERCERSBURG,PA,17236-1524,,"Education organization in MERCERSBURG, PA with annual revenue of approximately $70M",
NORTHERN MAINE MEDICAL CENTER,010234189,Health,194 E MAIN ST,FORT KENT,ME,04743-1428,,"Health organization in FORT KENT, ME with annual revenue of approximately $70M",
SENIOR HEALTH PROPERTIES-SOUTH INC,311571683,Human Services,TWO BALA CYNWYD PLAZA 300,BALA CYNWYD,PA,19004-1512,,"Human Services organization in BALA CYNWYD, PA with annual revenue of approximately $70M",
KENDAL-CROSSLANDS COMMUNITIES,231906212,Human Services,PO BOX 100,KENNETT SQ,PA,19348-0100,,"Human Services organization in KENNETT SQ, PA with annual revenue of approximately $70M",
AIDS CARE GROUP,232965785,Health,2304 EDGMONT AVE,CHESTER,PA,19013-5038,,"Health organization in CHESTER, PA with annual revenue of approximately $70M",
MEDICAL TEAMS INTERNATIONAL,930878944,International,14150 SW MILTON CT,TIGARD,OR,97224-8024,,"International organization in TIGARD, OR with annual revenue of approximately $70M",
ETHIOPIAN COMMUNITY DEVELOPMENT COUNCIL INC,521308986,Human Services,901 S HIGHLAND ST,ARLINGTON,VA,22204-2400,,"Human Services organization in ARLINGTON, VA with annual revenue of approximately $70M",
SHASTA COMMUNITY HEALTH CENTER,680165855,Health,1035 PLACER ST,REDDING,CA,96001-1125,,"Health organization in REDDING, CA with annual revenue of approximately $70M",
PENNY LANE CENTERS,952633765,Other,10526 DUBNOFF WAY,N HOLLYWOOD,CA,91606-3921,,"Other organization in N HOLLYWOOD, CA with annual revenue of approximately $70M",
FEED MY STARVING CHILDREN,411601449,International,401 93RD AVE NW,COON RAPIDS,MN,55433-5822,,"International organization in COON RAPIDS, MN with annual revenue of approximately $70M",
REMINGTON COLLEGE,273339369,Education,9451 LYNDON B JOHNSON FWY 200,DALLAS,TX,75243-4538,,"Education organization in DALLAS, TX with annual revenue of approximately $70M",
OPTIONS FOR SOUTHERN OREGON,930804385,Health,1215 SW G ST,GRANTS PASS,OR,97526-2544,,"Health organization in GRANTS PASS, OR with annual revenue of approximately $70M",
HUMAN RESOURCES RESEARCH ORGANIZATION,237029310,Research,66 CANAL CENTER PLZ STE 700,ALEXANDRIA,VA,22314-1578,,"Research organization in ALEXANDRIA, VA with annual revenue of approximately $70M",
THE HEMOPHILIA CENTER OF WESTERN PENNSYLVANIA,251562716,Health,875 GREENTREE RD 5 PARKWAY CENTER,PITTSBURGH,PA,15220-0000,,"Health organization in PITTSBURGH, PA with annual revenue of approximately $70M",
REHOBOTH MCKINLEY CHRISTIAN HEALTH CARE SERVICE INC,850313268,Health,1901 RED ROCK DR,GALLUP,NM,87301-5683,,"Health organization in GALLUP, NM with annual revenue of approximately $70M",
OKLAHOMA CHRISTIAN UNIVERSITY INC,730555460,Education,2501 E MEMORIAL RD,EDMOND,OK,73013-5525,,"Education organization in EDMOND, OK with annual revenue of approximately $70M",
SAN FRANCISCO BALLET ASSOCIATION,941415298,Arts & Culture,455 FRANKLIN ST 3RD FLR,SAN FRANCISCO,CA,94102-4438,,"Arts & Culture organization in SAN FRANCISCO, CA with annual revenue of approximately $70M",
COMMUNITIES OF DON GUANELLA AND DIVINE PROVIDENCE,232313873,Other,222 N 17TH ST,PHILADELPHIA,PA,19103-1202,,"Other organization in PHILADELPHIA, PA with annual revenue of approximately $70M",
MURPHY MEDICAL CENTER INC,561844262,Health,3990 E US HWY 64 ALT,MURPHY,NC,28906-0000,,"Health organization in MURPHY, NC with annual revenue of approximately $70M",
CNFA,521447902,International,1828 L ST NW STE 710,WASHINGTON,DC,20036-5104,,"International organization in WASHINGTON, DC with annual revenue of approximately $70M",
MATER ACADEMY OF NEVADA,465122331,Education,3445 MOUNTAIN VISTA ST,LAS VEGAS,NV,89121-7102,,"Education organization in LAS VEGAS, NV with annual revenue of approximately $70M",
REHABILITATION SUPPORT SERVICES INC,141609149,Health,5172 WESTERN TPKE,ALTAMONT,NY,12009-3810,,"Health organization in ALTAMONT, NY with annual revenue of approximately $70M",
AMERICAN EAGLE LIFECARE CORPORATION,010706736,Health,1050 CHINOE ROAD,LEXINGTON,KY,40502-6571,,"Health organization in LEXINGTON, KY with annual revenue of approximately $70M",
GEORGIA CONNECTIONS ACADEMY CHARTER SCHOOL INC,270791620,Education,2763 MEADOW CHURCH ROAD,DULUTH,GA,30097-4989,,"Education organization in DULUTH, GA with annual revenue of approximately $70M",
NORTH GREENVILLE UNIVERSITY,570314406,Education,PO BOX 1892,TIGERVILLE,SC,29688-1892,,"Education organization in TIGERVILLE, SC with annual revenue of approximately $70M",
NORTHERN NEVADA HIV OUTPATIENT PROGRAM EDUCATION AND SERVICES,860865357,Health,580 W 5TH ST,RENO,NV,89503-4419,,"Health organization in RENO, NV with annual revenue of approximately $70M",
KAUAI MEDICAL CLINIC,990326099,Health,55 MERCHANT STREET 24TH FLOOR,HONOLULU,HI,96813-4333,,"Health organization in HONOLULU, HI with annual revenue of approximately $70M",
PROVIDENCE DAY SCHOOL,560952382,Education,5800 SARDIS RD,CHARLOTTE,NC,28270-5366,,"Education organization in CHARLOTTE, NC with annual revenue of approximately $70M",
VALLEY REGIONAL HOSPITAL INC,020222118,Health,243 ELM ST,CLAREMONT,NH,03743-4921,,"Health organization in CLAREMONT, NH with annual revenue of approximately $70M",
GOODWILL INDUSTRIES OF ARKANSAS INC,710236903,Other,7400 SCOTT HAMILTON DR STE 50,LITTLE ROCK,AR,72209-3179,,"Other organization in LITTLE ROCK, AR with annual revenue of approximately $70M",
DEVELOPMENTAL PATHWAYS INC,840534643,Human Services,14280 E JEWELL AVE STE A,AURORA,CO,80012-7939,,"Human Services organization in AURORA, CO with annual revenue of approximately $70M",
LORETTO HEALTH AND REHABILITATION CENTER,200503099,Health,700 E BRIGHTON AVE,SYRACUSE,NY,13205-2201,,"Health organization in SYRACUSE, NY with annual revenue of approximately $70M",
TEMPLE PHYSICIANS INC,232790607,Health,3509 N BROAD ST BOYER PAV 225,PHILADELPHIA,PA,19140-4105,,"Health organization in PHILADELPHIA, PA with annual revenue of approximately $70M",
FISHER HOUSE FOUNDATION INC,113158401,Other,12300 TWINBROOK PKWY STE 410,ROCKVILLE,MD,20852-1650,,"Other organization in ROCKVILLE, MD with annual revenue of approximately $70M",
WRIGHT CENTER MEDICAL GROUP,232772504,Religion,501 S WASHINGTON AVE STE 1000,SCRANTON,PA,18505-3805,,"Religion organization in SCRANTON, PA with annual revenue of approximately $69M",
PENNSYLVANIA LEADERSHIP CHARTER SCHOOLS,352225538,Education,1332 ENTERPRISE DR,WEST CHESTER,PA,19380-5970,,"Education organization in WEST CHESTER, PA with annual revenue of approximately $69M",
EVANGEL UNIVERSITY OF THE ASSEMBLIES OF GOD,440589787,Education,1111 N GLENSTONE AVE,SPRINGFIELD,MO,65802-2125,,"Education organization in SPRINGFIELD, MO with annual revenue of approximately $69M",
CHINESE AMERICAN PLANNING COUNCIL INC,136202692,Human Services,45 SUFFOLK ST,NEW YORK,NY,10002-3912,,"Human Services organization in NEW YORK, NY with annual revenue of approximately $69M",
HEALTHLINC INC,352147791,Other,2401 VALLEY DR,VALPARAISO,IN,46383-2520,,"Other organization in VALPARAISO, IN with annual revenue of approximately $69M",
HOLLINS UNIVERSITY CORPORATION,540506314,Education,7916 WILLIAMSON RD,ROANOKE,VA,24019-4421,,"Education organization in ROANOKE, VA with annual revenue of approximately $69M",
VAUGHN NEXT CENTURY LEARNING CENTER,954423356,Education,13330 VAUGHN ST,SAN FERNANDO,CA,91340-2216,,"Education organization in SAN FERNANDO, CA with annual revenue of approximately $69M",
WESTMINSTER COLLEGE,250981156,Education,319 S MARKET ST,NEW WILMNGTN,PA,16172-0002,,"Education organization in NEW WILMNGTN, PA with annual revenue of approximately $69M",
COPA HEALTH INC,844608444,Health,924 N COUNTRY CLUB DR,MESA,AZ,85201-4108,,"Health organization in MESA, AZ with annual revenue of approximately $69M",
MERCY HEALTH SOUTHWEST MISSOURI KANSAS COMMUNITIES,300584463,Other,100 MERCY WAY,JOPLIN,MO,64804-4524,,"Other organization in JOPLIN, MO with annual revenue of approximately $69M",
WESTCARE CALIFORNIA INC,237368450,Health,1711 WHITNEY MESA DR,HENDERSON,NV,89014-2056,,"Health organization in HENDERSON, NV with annual revenue of approximately $69M",
GEORGIA GOAL SCHOLARSHIP PROGRAM INC,651280229,Education,3740 DAVINCI CT STE 375,PEACHTREE COR,GA,30092-7643,,"Education organization in PEACHTREE COR, GA with annual revenue of approximately $69M",
DENVER CENTER FOR THE PERFORMING ARTS,840407760,Arts & Culture,1101 13TH ST,DENVER,CO,80204-5319,,"Arts & Culture organization in DENVER, CO with annual revenue of approximately $69M",
GIVE BACK FOUNDATION,262449481,Community,2302 INTERNATIONAL LANE,MADISON,WI,53704-3136,,"Community organization in MADISON, WI with annual revenue of approximately $69M",
OHIO UNIVERSITY FOUNDATION,316402269,Education,PO BOX 869,ATHENS,OH,45701-0869,,"Education organization in ATHENS, OH with annual revenue of approximately $69M",
PRAGER UNIVERSITY FOUNDATION,271763901,Education,15021 VENTURA BLVD,SHERMAN OAKS,CA,91403-2442,,"Education organization in SHERMAN OAKS, CA with annual revenue of approximately $69M",
BULLIS SCHOOL INC,520635080,Education,10601 FALLS RD,POTOMAC,MD,20854-4404,,"Education organization in POTOMAC, MD with annual revenue of approximately $69M",
BENEDICT COLLEGE,570314365,Education,1600 HARDEN ST,COLUMBIA,SC,29204-1058,,"Education organization in COLUMBIA, SC with annual revenue of approximately $69M",
PROJECT LEAD THE WAY INC,364802935,Education,5939 CASTLE CREEK PARKWAY NORTH DR,INDIANAPOLIS,IN,46250-4343,,"Education organization in INDIANAPOLIS, IN with annual revenue of approximately $69M",
WALSH UNIVERSITY,340868798,Education,2020 E MAPLE ST,N CANTON,OH,44720-3336,,"Education organization in N CANTON, OH with annual revenue of approximately $69M",
WAYNE HOSPITAL COMPANY,344428598,Health,835 SWEITZER ST,GREENVILLE,OH,45331-1007,,"Health organization in GREENVILLE, OH with annual revenue of approximately $69M",
GARNET HEALTH DOCTORS PC,371743537,Health,707 E MAIN ST,MIDDLETOWN,NY,10940-2650,,"Health organization in MIDDLETOWN, NY with annual revenue of approximately $69M",
GREATER HORIZONS TRUST,822581863,Community,1055 BROADWAY BLVD STE 130,KANSAS CITY,MO,64105-1595,,"Community organization in KANSAS CITY, MO with annual revenue of approximately $69M",
GIVE KIDS THE WORLD INC,592654440,Other,210 S BASS RD,KISSIMMEE,FL,34746-6034,,"Other organization in KISSIMMEE, FL with annual revenue of approximately $69M",
ENTREPRENEURS ORGANIZATION,521651248,Education,500 MONTGOMERY ST STE 600,ALEXANDRIA,VA,22314-1581,,"Education organization in ALEXANDRIA, VA with annual revenue of approximately $69M",
CENTRAL PENNSYLVANIA SCHOLARSHIP FUND,454423429,Education,501 3RD ST,TYRONE,PA,16686-1266,,"Education organization in TYRONE, PA with annual revenue of approximately $69M",
VITAL STRATEGIES INC,223419667,International,100 BROADWAY 4TH FL,NEW YORK,NY,10005-4517,,"International organization in NEW YORK, NY with annual revenue of approximately $69M",
BUCK INSTITUTE FOR RESEARCH ON AGING,943030609,Research,8001 REDWOOD BLVD,NOVATO,CA,94945-1400,,"Research organization in NOVATO, CA with annual revenue of approximately $69M",
AUGUSTANA CARE,411728753,Other,7171 OHMS LN,EDINA,MN,55439-2142,,"Other organization in EDINA, MN with annual revenue of approximately $69M",
AMIKIDS INC,592878383,Human Services,5915 BENJAMIN CENTER DR,TAMPA,FL,33634-5239,,"Human Services organization in TAMPA, FL with annual revenue of approximately $69M",
ABBOTT HOUSE,131991946,Human Services,100 NORTH BROADWAY,IRVINGTON,NY,10533-1254,,"Human Services organization in IRVINGTON, NY with annual revenue of approximately $69M",
MAG AMERICA INC,522302253,Human Services,1233 20TH ST NW STE 640,WASHINGTON,DC,20036-3680,,"Human Services organization in WASHINGTON, DC with annual revenue of approximately $69M",
INSTITUTE FOR ADVANCED STUDY,210634988,Research,1 EINSTEIN DR,PRINCETON,NJ,08540-4952,,"Research organization in PRINCETON, NJ with annual revenue of approximately $69M",
GLOBAL FISHING WATCH INC,815461345,Environment,1025 CONNECTICUT AVE NW STE 200,WASHINGTON,DC,20036-5425,,"Environment organization in WASHINGTON, DC with annual revenue of approximately $69M",
ESCUELA AGRICOLA PANAMERICANA,042104172,International,1701 PENNSYLVANIA AVE NW STE 300,WASHINGTON,DC,20006-5812,,"International organization in WASHINGTON, DC with annual revenue of approximately $69M",
HEARTLAND FOR CHILDREN INC,020619609,Human Services,1239 EAST MAIN STREET,BARTOW,FL,33830-5058,,"Human Services organization in BARTOW, FL with annual revenue of approximately $69M",
TELESCOPE FUND,862577635,Community,1050 CONNECTICUT AVE NW STE 500,WASHINGTON,DC,20036-5304,,"Community organization in WASHINGTON, DC with annual revenue of approximately $69M",
CAPITAL IMPACT PARTNERS,521290127,Community,1400 CRYSTAL DR STE 500,ARLINGTON,VA,22202-4166,,"Community organization in ARLINGTON, VA with annual revenue of approximately $69M",
JOINT RESTORATION FOUNDATION INC,205839402,Health,7245 S HAVANA ST STE 300,CENTENNIAL,CO,80112-4801,,"Health organization in CENTENNIAL, CO with annual revenue of approximately $69M",
SHARING EXCESS,862161466,Human Services,6700 ESSINGTON AVE STE E207,PHILADELPHIA,PA,19153-3425,,"Human Services organization in PHILADELPHIA, PA with annual revenue of approximately $69M",
THE MENNINGER CLINIC,371453409,Health,12301 MAIN ST,HOUSTON,TX,77035-6207,,"Health organization in HOUSTON, TX with annual revenue of approximately $69M",
COMMUNITY FIRM,844867019,Human Services,1600 N DOWNING ST STE 600,DENVER,CO,80218-1551,,"Human Services organization in DENVER, CO with annual revenue of approximately $69M",
THE JEWISH FEDERATION OF GREATER WASHINGTON INC,530212445,Community,6101 EXECUTIVE BLVD,NORTH BETHESDA,MD,20852-3907,,"Community organization in NORTH BETHESDA, MD with annual revenue of approximately $69M",
CATHOLIC CHARITIES OF LOS ANGELES,951690973,Human Services,1531 JAMES M WOOD BLVD,LOS ANGELES,CA,90015-1112,,"Human Services organization in LOS ANGELES, CA with annual revenue of approximately $69M",
MARY INSTITUTE AND SAINT LOUIS COUNTRY DAY SCHOOL,430653366,Education,101 N WARSON RD,SAINT LOUIS,MO,63124-1326,,"Education organization in SAINT LOUIS, MO with annual revenue of approximately $69M",
DILLARD UNIVERSITY,720408929,Education,2601 GENTILLY BLVD,NEW ORLEANS,LA,70122-3043,,"Education organization in NEW ORLEANS, LA with annual revenue of approximately $69M",
TRANSPORTATION RESEARCH CENTER INC,311228202,Community,10820 STATE ROUTE 347,EAST LIBERTY,OH,43319-9473,,"Community organization in EAST LIBERTY, OH with annual revenue of approximately $69M",
CATHOLIC CHARITIES OF LOUISVILLE INC,611239600,Human Services,435 E BROADWAY,LOUISVILLE,KY,40202-1705,,"Human Services organization in LOUISVILLE, KY with annual revenue of approximately $69M",
BRENAU UNIVERSITY INC,580566143,Education,500 WASHINGTON ST SE,GAINESVILLE,GA,30501-3628,,"Education organization in GAINESVILLE, GA with annual revenue of approximately $69M",
HENRY FRANCIS DU PONT WINTERTHUR MUSEUM INC,510066038,Arts & Culture,5105 KENNETT PIKE,WINTERTHUR,DE,19735-1819,,"Arts & Culture organization in WINTERTHUR, DE with annual revenue of approximately $69M",
SOUTH DAKOTA COMMUNITY FOUNDATION,460398115,Community,PO BOX 296,PIERRE,SD,57501-0296,,"Community organization in PIERRE, SD with annual revenue of approximately $69M",
OPERATION WARM INC,383663310,Human Services,50 APPLIED BANK BLVD STE 204,GLEN MILLS,PA,19342-1092,,"Human Services organization in GLEN MILLS, PA with annual revenue of approximately $69M",
WESTMINSTER UNIVERSITY,870212470,Education,1840 S 1300 E,SALT LAKE CTY,UT,84105-3617,,"Education organization in SALT LAKE CTY, UT with annual revenue of approximately $69M",
YMCA OF THE ROCKIES,840404913,Human Services,2515 TUNNEL RD,ESTES PARK,CO,80511-9500,,"Human Services organization in ESTES PARK, CO with annual revenue of approximately $69M",
UFCW CHARITY FOUNDATION,521979561,Community,1775 K STREET NW,WASHINGTON,DC,20006-1502,,"Community organization in WASHINGTON, DC with annual revenue of approximately $69M",
FREED-HARDEMAN UNIVERSITY,620518288,Education,158 E MAIN ST,HENDERSON,TN,38340-2306,,"Education organization in HENDERSON, TN with annual revenue of approximately $69M",
CINCINNATI CENTER CITY DEVELOPMENT CORPORATION,200446324,Community,1203 WALNUT STREET 4TH FLOOR,CINCINNATI,OH,45202-3775,,"Community organization in CINCINNATI, OH with annual revenue of approximately $69M",
POLK COUNTY SCHOOL READINESS COALITION INC,593648316,Education,115 S MISSOURI AVE STE 501,LAKELAND,FL,33815-4602,,"Education organization in LAKELAND, FL with annual revenue of approximately $69M",
INTERMOUNTAIN HEALTHCARE FOUNDATION INC,800225150,Health,36 S STATE ST STE 2200,SALT LAKE CTY,UT,84111-1470,,"Health organization in SALT LAKE CTY, UT with annual revenue of approximately $69M",
GOAL ACADEMY,271151001,Education,304 S VICTORIA,PUEBLO,CO,81003-3481,,"Education organization in PUEBLO, CO with annual revenue of approximately $69M",
UNION ASSOCIATED PHYSICIANS CLINIC LLC,270581401,Other,1606 N 7TH ST,TERRE HAUTE,IN,47804-2706,,"Other organization in TERRE HAUTE, IN with annual revenue of approximately $69M",
ASCENSION VIA CHRISTI HOSPITAL PITTSBURG INC,480543778,Health,PO BOX 45998,SAINT LOUIS,MO,63145-5998,,"Health organization in SAINT LOUIS, MO with annual revenue of approximately $69M",
UT LE BONHEUR PEDIATRIC SPECIALISTS INC,273426141,Health,1211 UNION AVE STE 700,MEMPHIS,TN,38104-6600,,"Health organization in MEMPHIS, TN with annual revenue of approximately $69M",
SANTA BARBARA COTTAGE HOSPITAL FOUNDATION,953802238,Health,PO BOX 689,SANTA BARBARA,CA,93102-0689,,"Health organization in SANTA BARBARA, CA with annual revenue of approximately $69M",
NORTH DAKOTA STATE UNIVERSITY FOUNDATION,237120898,Education,1241 UNIVERSITY DR N,FARGO,ND,58102-2524,,"Education organization in FARGO, ND with annual revenue of approximately $69M",
VERSITI MICHIGAN INC,381550001,Health,1036 FULLER AVE NE,GRAND RAPIDS,MI,49503-1304,,"Health organization in GRAND RAPIDS, MI with annual revenue of approximately $69M",
SAINT LUKES HOSPITAL OF CHILLICOTHE,431735565,Health,2799 N WASHINGTON ST,CHILLICOTHE,MO,64601-2902,,"Health organization in CHILLICOTHE, MO with annual revenue of approximately $69M",
ASSOCIATED HEALTH SERVICES INC,561845329,Health,2200 W MAIN ST STE 300,DURHAM,NC,27705-4677,,"Health organization in DURHAM, NC with annual revenue of approximately $69M",
SAINT DOMINICS FAMILY SERVICES,131740399,Other,500 WESTERN HWY,BLAUVELT,NY,10913-2022,,"Other organization in BLAUVELT, NY with annual revenue of approximately $69M",
TENDERLOIN HOUSING CLINIC INC,942681706,Human Services,126 HYDE ST,SAN FRANCISCO,CA,94102-3606,,"Human Services organization in SAN FRANCISCO, CA with annual revenue of approximately $69M",
REGIONAL EAST TEXAS FOOD BANK,752222686,Other,3201 ROBERTSON RD,TYLER,TX,75701-2532,,"Other organization in TYLER, TX with annual revenue of approximately $69M",
WATERSTONE SUPPORT FOUNDATION INC,841430063,Community,10807 NEW ALLEGIANCE DR STE 240,COLORADO SPGS,CO,80921-3803,,"Community organization in COLORADO SPGS, CO with annual revenue of approximately $68M",
BUCKNER RETIREMENT SERVICES INC,752571394,Human Services,700 N PEARL ST,DALLAS,TX,75201-2824,,"Human Services organization in DALLAS, TX with annual revenue of approximately $68M",
SERVICIOS MEDICOS UNIVERSITARIOS INC,660561027,Health,KM 8 CALLE 3 AVE 65 DE INFANTERIA,CAROLINA,PR,00984-0000,,"Health organization in CAROLINA, PR with annual revenue of approximately $68M",
PRAIRIE DU CHIEN MEMORIAL HOSPITAL ASSOCIATION INC,390926284,Health,37868 US HIGHWAY 18,PR DU CHIEN,WI,53821-8416,,"Health organization in PR DU CHIEN, WI with annual revenue of approximately $68M",
WALLA WALLA UNIVERSITY,910617727,Education,204 S COLLEGE AVE,COLLEGE PLACE,WA,99324-1139,,"Education organization in COLLEGE PLACE, WA with annual revenue of approximately $68M",
GOODWILL INDUSTRIES OF SOUTHERN NEW JERSEY,210681239,Human Services,2835 ROUTE 73 S,MAPLE SHADE,NJ,08052-1627,,"Human Services organization in MAPLE SHADE, NJ with annual revenue of approximately $68M",
BROOKS-TLC HOSPITAL SYSTEM INC,160743301,Health,529 CENTRAL AVE,DUNKIRK,NY,14048-2514,,"Health organization in DUNKIRK, NY with annual revenue of approximately $68M",
HASTINGS COLLEGE,470376525,Education,710 N TURNER AVE,HASTINGS,NE,68901-7621,,"Education organization in HASTINGS, NE with annual revenue of approximately $68M",
CHRISTIAN BROTHERS UNIVERSITY,620476666,Education,650 E PARKWAY S,MEMPHIS,TN,38104-5519,,"Education organization in MEMPHIS, TN with annual revenue of approximately $68M",
VALLEY HOME CARE INC,223208480,Health,15 ESSEX ROAD 3RD FLOOR 301,PARAMUS,NJ,07652-1451,,"Health organization in PARAMUS, NJ with annual revenue of approximately $68M",
HEARTLAND HUMAN CARE SERVICES INC,364053244,Human Services,4822 N BROADWAY ST,CHICAGO,IL,60640-3604,,"Human Services organization in CHICAGO, IL with annual revenue of approximately $68M",
HOLYOKE HEALTH CENTER INC,042492730,Other,230 MAPLE STREET,HOLYOKE,MA,01040-5144,,"Other organization in HOLYOKE, MA with annual revenue of approximately $68M",
PARKVIEW WABASH HOSPITAL INC,471753440,Health,10 JOHN KISSINGER DR,WABASH,IN,46992-1648,,"Health organization in WABASH, IN with annual revenue of approximately $68M",
WORD OF LIFE FELLOWSHIP INC,135648615,Religion,PO BOX 600,SCHROON LAKE,NY,12870-0600,,"Religion organization in SCHROON LAKE, NY with annual revenue of approximately $68M",
SCHEURER HOSPITAL,381456056,Health,CASEVILLE RD,PIGEON,MI,48755-0000,,"Health organization in PIGEON, MI with annual revenue of approximately $68M",
METROPOLITAN AREA ADVISORY COM ON ANTI-POVERTY OF SAN DIEGO CNTY INC,952457354,Human Services,1355 THIRD AVE,CHULA VISTA,CA,91911-4302,,"Human Services organization in CHULA VISTA, CA with annual revenue of approximately $68M",
ALLIED SERVICES FOUNDATION,232523682,Health,100 ABINGTON EXECUTIVE PARK,CLARKS SUMMIT,PA,18411-2260,,"Health organization in CLARKS SUMMIT, PA with annual revenue of approximately $68M",
UNIVERSITY OF TEXAS FOUNDATION,741587488,Other,9011 MOUNTAIN RIDGE DR STE 150,AUSTIN,TX,78759-7396,,"Other organization in AUSTIN, TX with annual revenue of approximately $68M",
CALIFORNIA STATE UNIVERSITY LONG BEACH RESEARCH FOUNDATION,956106694,Education,6300 E STATE UNIVERSITY DR STE 332,LONG BEACH,CA,90815-4670,,"Education organization in LONG BEACH, CA with annual revenue of approximately $68M",
TRUE SOJOURNERS,262087340,International,209 E LIBERTY DR,WHEATON,IL,60187-5472,,"International organization in WHEATON, IL with annual revenue of approximately $68M",
GRANCELL VILLAGE OF THE LOS ANGELES JEWISH HOME FOR THE AGING,951831045,Human Services,7150 TAMPA AVE,RESEDA,CA,91335-3700,,"Human Services organization in RESEDA, CA with annual revenue of approximately $68M",
EVERGREEN PRESBYTERIAN MINISTRIES INC,720537029,Human Services,2101 HIGHWAY 80,HAUGHTON,LA,71037-9488,,"Human Services organization in HAUGHTON, LA with annual revenue of approximately $68M",
MCNC,581406628,Research,PO BOX 12889,RTP,NC,27709-2889,,"Research organization in RTP, NC with annual revenue of approximately $68M",
DONOR ALLIANCE INC,841003771,Health,200 SPRUCE ST STE 200,DENVER,CO,80230-7127,,"Health organization in DENVER, CO with annual revenue of approximately $68M",
CATHOLIC CHARITIES HAWAII,990073547,Human Services,1822 KEEAUMOKU ST,HONOLULU,HI,96822-3001,,"Human Services organization in HONOLULU, HI with annual revenue of approximately $68M",
CLINICA CAMPESINA FAMILY HEALTH SERVICES,840743432,Health,1735 S PUBLIC ROAD SUITE 201,LAFAYETTE,CO,80026-7093,,"Health organization in LAFAYETTE, CO with annual revenue of approximately $68M",
CREATE HEALTHY MANAGEMENT,746083124,Health,PO BOX 1339,FREDERICKSBRG,TX,78624-1339,,"Health organization in FREDERICKSBRG, TX with annual revenue of approximately $68M",
NORTHEAST MICHIGAN COMMUNITY SERVICE AGENCY INC,381873461,Human Services,2569 US 23 SOUTH,ALPENA,MI,49707-4617,,"Human Services organization in ALPENA, MI with annual revenue of approximately $68M",
UFW FOUNDATION,952703575,Other,PO BOX 23400,LOS ANGELES,CA,90023-0400,,"Other organization in LOS ANGELES, CA with annual revenue of approximately $68M",
ADVENTIST REHABILITATION HOSPITAL OF MARYLAND INC,201486678,Health,820 W DIAMOND AVE STE 600,GAITHERSBURG,MD,20878-1469,,"Health organization in GAITHERSBURG, MD with annual revenue of approximately $68M",
HOME & COMMUNITY SERVICES INC,432007492,Health,PO BOX 1037,MACON,GA,31202-1037,,"Health organization in MACON, GA with annual revenue of approximately $68M",
PRISON FELLOWSHIP MINISTRIES,620988294,Human Services,44180 RIVERSIDE PARKWAY,LANSDOWNE,VA,20176-8283,,"Human Services organization in LANSDOWNE, VA with annual revenue of approximately $68M",
LUTHERAN SOCIAL SERVICES OF WISCONSIN AND UPPER MICHIGAN,390816846,Human Services,6737 W WASHINGTON ST SUITE 227,WEST ALLIS,WI,53214-5647,,"Human Services organization in WEST ALLIS, WI with annual revenue of approximately $68M",
ARTHRITIS FOUNDATION INC,581341679,Health,1355 PEACHTREE ST NE STE 600,ATLANTA,GA,30309-3234,,"Health organization in ATLANTA, GA with annual revenue of approximately $68M",
MUSKINGUM UNIVERSITY,314379515,Education,260 STADIUM DR,NEW CONCORD,OH,43762-1146,,"Education organization in NEW CONCORD, OH with annual revenue of approximately $68M",
BROOKLYN INSTITUTE OF ARTS AND SCIENCES,111672743,Arts & Culture,200 EASTERN PKWY,BROOKLYN,NY,11238-6052,,"Arts & Culture organization in BROOKLYN, NY with annual revenue of approximately $68M",
CAPITAL AREA HEALTH CONSORTIUM INC,510173264,Other,270 FARMINGTON AVE,FARMINGTON,CT,06032-1909,,"Other organization in FARMINGTON, CT with annual revenue of approximately $68M",
AREA AGENCY OF AGING DISTRICT 7 INC,310971399,Other,1 ACY AVE,JACKSON,OH,45640-9562,,"Other organization in JACKSON, OH with annual revenue of approximately $68M",
BECKET ACADEMY INC,020511096,Health,633 NH ROUTE 10,ORFORD,NH,03777-4109,,"Health organization in ORFORD, NH with annual revenue of approximately $68M",
IHM SENIOR LIVING COMMUNITY INC,822900699,Other,1660 HIGHWAY 100 S STE 103,ST LOUIS PARK,MN,55416-1599,,"Other organization in ST LOUIS PARK, MN with annual revenue of approximately $68M",
KENNEDY KRIEGER EDUCATION AND COMMUNITY SERVICES INC,521753040,Community,707 N BROADWAY,BALTIMORE,MD,21205-1832,,"Community organization in BALTIMORE, MD with annual revenue of approximately $68M",
PENNSYLVANIA INTEREST ON LAWYER TRUST ACCOUNT BOARD,251802119,Other,601 COMMONWEALTH AVE SUITE 2400,HARRISBURG,PA,17120-0902,,"Other organization in HARRISBURG, PA with annual revenue of approximately $68M",
OPTICAL SOCIETY OF AMERICA INC,530259696,Health,2010 MASSACHUSETTS AVE NW,WASHINGTON,DC,20036-1012,,"Health organization in WASHINGTON, DC with annual revenue of approximately $68M",
BREARLEY SCHOOL,131623915,Education,610 EAST 83RD STREET,NEW YORK,NY,10028-7902,,"Education organization in NEW YORK, NY with annual revenue of approximately $68M",
SOLANO FAMILY & CHILDRENS COUNCIL,942369308,Human Services,421 EXECUTIVE CT N,FAIRFIELD,CA,94534-4019,,"Human Services organization in FAIRFIELD, CA with annual revenue of approximately $68M",
BROOKLYN PROSPECT CHARTER SCHOOL,263206518,Education,397 BRIDGE STREET 9TH FL,BROOKLYN,NY,11201-5247,,"Education organization in BROOKLYN, NY with annual revenue of approximately $68M",
WESLEY FAMILY SERVICES,820653875,Human Services,221 PENN AVENUE,PITTSBURGH,PA,15221-2118,,"Human Services organization in PITTSBURGH, PA with annual revenue of approximately $68M",
METROPOLITAN JEWISH HEALTH SYSTEM INC,113538697,Health,55 WATER ST 46TH FLOOR,NEW YORK,NY,10041-3211,,"Health organization in NEW YORK, NY with annual revenue of approximately $68M",
NORTHSTAR EDUCATION FINANCE INC,411961427,Education,9855 W 78TH ST 012,EDEN PRAIRIE,MN,55344-8003,,"Education organization in EDEN PRAIRIE, MN with annual revenue of approximately $68M",
THE ALBERTSONS COMPANIES FOUNDATION,912144510,Community,11555 DUBLIN CANYON RD,PLEASANTON,CA,94588-2815,,"Community organization in PLEASANTON, CA with annual revenue of approximately $68M",
MOUNT ST JOSEPH UNIVERSITY,237179567,Education,5701 DELHI RD,CINCINNATI,OH,45233-1669,,"Education organization in CINCINNATI, OH with annual revenue of approximately $68M",
THIRD SECTOR NEW ENGLAND INC,042261109,Community,89 SOUTH ST STE 700,BOSTON,MA,02111-2679,,"Community organization in BOSTON, MA with annual revenue of approximately $68M",
MEDICAL EDUCATION ASSISTANCE CORPORATION,621052914,Other,PO BOX 699,MOUNTAIN HOME,TN,37684-0699,,"Other organization in MOUNTAIN HOME, TN with annual revenue of approximately $68M",
D C PREPARATORY ACADEMY,020550253,Education,2330 POMEROY RD SE,WASHINGTON,DC,20020-3552,,"Education organization in WASHINGTON, DC with annual revenue of approximately $68M",
HEBREW HOME OF GREATER WASHINGTON INC,530196508,Health,6121 MONTROSE RD,ROCKVILLE,MD,20852-4803,,"Health organization in ROCKVILLE, MD with annual revenue of approximately $67M",
UNITY HEALTHCARE,420680337,Health,1518 MULBERRY AVE,MUSCATINE,IA,52761-3433,,"Health organization in MUSCATINE, IA with annual revenue of approximately $67M",
AMERICAN ENTERPRISE INSTITUTE FOR PUBLIC POLICY RESEARCH,530218495,Research,1789 MASSACHUSETTS AVE NW,WASHINGTON,DC,20036-2103,,"Research organization in WASHINGTON, DC with annual revenue of approximately $67M",
THE LAKES COMMUNITY HEALTH CENTER INC,352297925,Other,7665 US HIGHWAY 2,IRON RIVER,WI,54847-4690,,"Other organization in IRON RIVER, WI with annual revenue of approximately $67M",
BLACK VETERANS FOR SOCIAL JUSTICE INC,112608983,Community,665 WILLOUGHBY AVE,BROOKLYN,NY,11206-6903,,"Community organization in BROOKLYN, NY with annual revenue of approximately $67M",
COMMUNITY ACTION PROJECT OF TULSA COUNTY INC,731019247,Human Services,5330 E 31ST ST STE 300,TULSA,OK,74135-5000,,"Human Services organization in TULSA, OK with annual revenue of approximately $67M",
PRESBYTERIAN COLLEGE,570314408,Human Services,503 S BROAD ST,CLINTON,SC,29325-2865,,"Human Services organization in CLINTON, SC with annual revenue of approximately $67M",
LYCEE FRANCAIS DE NEW YORK,130990710,Education,505 E 75TH ST,NEW YORK,NY,10021-3462,,"Education organization in NEW YORK, NY with annual revenue of approximately $67M",
KOREAN WOMENS ASSOCIATION,911066806,Human Services,3625 PERKINS LN SW,LAKEWOOD,WA,98499-4784,,"Human Services organization in LAKEWOOD, WA with annual revenue of approximately $67M",
GRAND ISLAND REGIONAL MEDICAL CENTER,352621082,Health,1600 S 48TH ST,LINCOLN,NE,68506-1227,,"Health organization in LINCOLN, NE with annual revenue of approximately $67M",
UNIVERSITY OF ST FRANCIS,362170999,Other,500 WILCOX ST,JOLIET,IL,60435-6169,,"Other organization in JOLIET, IL with annual revenue of approximately $67M",
SAN FRANCISCO SYMPHONY,941156284,Arts & Culture,DAVIES SYMPHONY HALL 201 VAN NESS,SAN FRANCISCO,CA,94102-0000,,"Arts & Culture organization in SAN FRANCISCO, CA with annual revenue of approximately $67M",
CENTRAL INDIANA COMMUNITY FOUNDATION INC,351793680,Community,615 N ALABAMA ST STE 300,INDIANAPOLIS,IN,46204-1431,,"Community organization in INDIANAPOLIS, IN with annual revenue of approximately $67M",
SAN ANTONIO AREA FOUNDATION,746065414,Community,155 CONCORD PLAZA DR STE 301,SAN ANTONIO,TX,78216-1786,,"Community organization in SAN ANTONIO, TX with annual revenue of approximately $67M",
ALBANY AREA PRIMARY HEALTH CARE INC,581344015,Health,2408 WESTGATE DR,ALBANY,GA,31707-2277,,"Health organization in ALBANY, GA with annual revenue of approximately $67M",
SAINT AGNES MEDICAL FOUNDATION,942839324,Health,1303 E HERNDON AVE,FRESNO,CA,93720-3309,,"Health organization in FRESNO, CA with annual revenue of approximately $67M",
ADVENTHEALTH SOUTH OVERLAND PARK INC,364595806,Health,7820 W 165TH ST,OVERLAND PARK,KS,66223-2925,,"Health organization in OVERLAND PARK, KS with annual revenue of approximately $67M",
SELF HELP VENTURES FUND,581562750,Community,301 W MAIN ST,DURHAM,NC,27701-3215,,"Community organization in DURHAM, NC with annual revenue of approximately $67M",
ST MARGARETS HEALTH SPRING VALLEY,362167884,Health,600 E 1ST ST,SPRING VALLEY,IL,61362-1512,,"Health organization in SPRING VALLEY, IL with annual revenue of approximately $67M",
WEST LOUISIANA HEALTH SERVICES INC,720491106,Health,PO BOX 730,DERIDDER,LA,70634-0730,,"Health organization in DERIDDER, LA with annual revenue of approximately $67M",
EPISCOPAL COMMUNITY SERVICES OF SAN FRANCISCO,943096716,Human Services,165 8TH STREET 3RD FLOOR,SAN FRANCISCO,CA,94103-2726,,"Human Services organization in SAN FRANCISCO, CA with annual revenue of approximately $67M",
PONTIFICAL CATHOLIC UNIVERSITY OF PUERTO RICO,660191965,Education,2250 BLVD LUIS A FERRE SUITE 523,PONCE,PR,00717-0655,,"Education organization in PONCE, PR with annual revenue of approximately $67M",
BORINQUEN HEALTH CARE CENTER INC,591417397,Other,3601 FEDERAL HWY,MIAMI,FL,33137-3795,,"Other organization in MIAMI, FL with annual revenue of approximately $67M",
MORNINGSIDE UNIVERSITY,420680400,Education,1501 MORNINGSIDE AVE,SIOUX CITY,IA,51106-1717,,"Education organization in SIOUX CITY, IA with annual revenue of approximately $67M",
CHESAPEAKE LIGHTHOUSE FOUNDATION INC,830356333,Education,6151 CHEVY CHASE DR,LAUREL,MD,20707-2918,,"Education organization in LAUREL, MD with annual revenue of approximately $67M",
SOUTHWESTERN LAW SCHOOL,951246140,Education,3050 WILSHIRE BLVD,LOS ANGELES,CA,90010-1106,,"Education organization in LOS ANGELES, CA with annual revenue of approximately $67M",
THE INSTITUTES OF APPLIED HUMAN DYNAMICS INC,132573827,Human Services,32 WARREN AVE,TARRYTOWN,NY,10591-3021,,"Human Services organization in TARRYTOWN, NY with annual revenue of approximately $67M",
COMMUNITY HEALTH SYSTEMS INC,550490878,Other,252 RURAL ACRES DR,BECKLEY,WV,25801-3503,,"Other organization in BECKLEY, WV with annual revenue of approximately $67M",
FIRSTDAY FOUNDATION,742874382,Human Services,1506 BEXAR CROSSING ST,SAN ANTONIO,TX,78232-1587,,"Human Services organization in SAN ANTONIO, TX with annual revenue of approximately $67M",
CHILDRENS HEALTH CARE ASSOCIATES OF NEW JERSEY PC,233036699,Health,3615 CIVIC CENTER BLVD SUITE 1346,PHILADELPHIA,PA,19104-4318,,"Health organization in PHILADELPHIA, PA with annual revenue of approximately $67M",
THE BAYLOR SCHOOL,620126365,Education,171 BAYLOR SCHOOL RD,CHATTANOOGA,TN,37405-2506,,"Education organization in CHATTANOOGA, TN with annual revenue of approximately $67M",
COMMUNITY BASED CARE OF BREVARD INC,020545137,Health,389 COMMERCE PKWY STE 120,ROCKLEDGE,FL,32955-4202,,"Health organization in ROCKLEDGE, FL with annual revenue of approximately $67M",
HARTFORD FOUNDATION FOR PUBLIC GIVING,060699252,Community,10 COLUMBUS BLVD 8TH FL,HARTFORD,CT,06106-1976,,"Community organization in HARTFORD, CT with annual revenue of approximately $67M",
COLLEGIUM CHARTER SCHOOL,232991473,Education,456 CREAMERY WAY STE 100,EXTON,PA,19341-2946,,"Education organization in EXTON, PA with annual revenue of approximately $67M",
YMCA OF GREATER ROCHESTER,160743242,Human Services,444 E MAIN ST,ROCHESTER,NY,14604-2508,,"Human Services organization in ROCHESTER, NY with annual revenue of approximately $67M",
BAY PATH UNIVERSITY,042103865,Education,588 LONGMEADOW ST,LONGMEADOW,MA,01106-2212,,"Education organization in LONGMEADOW, MA with annual revenue of approximately $67M",
WELLSTAR ATLANTA MEDICAL CENTER INC,810837031,Health,793 SAWYER RD,MARIETTA,GA,30062-2222,,"Health organization in MARIETTA, GA with annual revenue of approximately $67M",
STONY BROOK CHILDRENS SERVICE UNIVERSITY FACULTY PRACTICE CORP,112571524,Health,PO BOX 1554,STONY BROOK,NY,11790-0988,,"Health organization in STONY BROOK, NY with annual revenue of approximately $67M",
BREVARD HEALTH ALLIANCE INC,900068515,Health,4315 WOODLAND PARK DR,WEST MELBOURNE,FL,32904-2097,,"Health organization in WEST MELBOURNE, FL with annual revenue of approximately $67M",
AREA AGENCY ON AGING OF WESTERN MICHIGAN INC,382058542,Human Services,3215 EAGLE CREST DR NE,GRAND RAPIDS,MI,49525-7005,,"Human Services organization in GRAND RAPIDS, MI with annual revenue of approximately $67M",
BASIS TEXAS CHARTER SCHOOLS INC,454269957,Education,404 E RAMSEY RD STE 106,SAN ANTONIO,TX,78216-4665,,"Education organization in SAN ANTONIO, TX with annual revenue of approximately $67M",
WEST VIRGINIA HEALTH CARE COOPERATIVE INC,550650441,Other,400 FAIRVIEW HEIGHTS RD,SUMMERSVILLE,WV,26651-9308,,"Other organization in SUMMERSVILLE, WV with annual revenue of approximately $67M",
RCAP SOLUTIONS INC,042454675,Other,191 MAY ST,WORCESTER,MA,01602-4353,,"Other organization in WORCESTER, MA with annual revenue of approximately $67M",
FOLLOW YOUR DREAM FOUNDATION INC,383581515,International,45 WEST 36TH ST 8TH FLOOR,NEW YORK,NY,10018-7633,,"International organization in NEW YORK, NY with annual revenue of approximately $67M",
NORTHWESTERN COLLEGE,420698196,Education,101 7TH ST SW,ORANGE CITY,IA,51041-1923,,"Education organization in ORANGE CITY, IA with annual revenue of approximately $67M",
CABRILLO POINT ACADEMY,821769676,Education,13915 DANIELSON ST STE 200,POWAY,CA,92064-8884,,"Education organization in POWAY, CA with annual revenue of approximately $67M",
UNITED WAY OF KING COUNTY,910565555,Community,720 2ND AVE,SEATTLE,WA,98104-1702,,"Community organization in SEATTLE, WA with annual revenue of approximately $67M",
POPULATION COUNCIL INC,131687001,International,ONE DAG HAMMARSKJOLD PLAZA 3RD FLOO,NEW YORK,NY,10017-2251,,"International organization in NEW YORK, NY with annual revenue of approximately $67M",
ADVENTIST HEALTH TULARE,832351753,Other,1 ADVENTIST HEALTH WAY,ROSEVILLE,CA,95661-3266,,"Other organization in ROSEVILLE, CA with annual revenue of approximately $67M",
DALLAS THEOLOGICAL SEMINARY,750827421,Education,3909 SWISS AVE,DALLAS,TX,75204-6411,,"Education organization in DALLAS, TX with annual revenue of approximately $67M",
GREATER LYNN SENIOR SERVICES INC,042581129,Other,8 SILSBEE ST,LYNN,MA,01901-1404,,"Other organization in LYNN, MA with annual revenue of approximately $67M",
ASCENSION LIVING BETHLEHEM WOODS VILLAGE,237061646,Health,PO BOX 45998,SAINT LOUIS,MO,63145-5998,,"Health organization in SAINT LOUIS, MO with annual revenue of approximately $67M",
CONCEPT SCHOOLS INC,030503751,Education,1336 BASSWOOD RD,SCHAUMBURG,IL,60173-4544,,"Education organization in SCHAUMBURG, IL with annual revenue of approximately $67M",
AVANCE INC,912074499,Community,824 BROADWAY ST STE 204,SAN ANTONIO,TX,78215-1543,,"Community organization in SAN ANTONIO, TX with annual revenue of approximately $67M",
CENTERSTONE OF FLORIDA INC,591009537,Health,1921 RANSOM PL,NASHVILLE,TN,37217-3841,,"Health organization in NASHVILLE, TN with annual revenue of approximately $67M",
CLINICAL & SUPPORT OPTIONS INC,042206041,Other,8 ATWOOD DR STE 301,NORTHAMPTON,MA,01060-4266,,"Other organization in NORTHAMPTON, MA with annual revenue of approximately $67M",
BAYLOR HEALTH CARE SYSTEM,751812652,Health,301 N WASHINGTON AVE,DALLAS,TX,75246-1754,,"Health organization in DALLAS, TX with annual revenue of approximately $67M",
RBC MINISTRIES,381613981,Religion,3000 KRAFT AVE SE,GRAND RAPIDS,MI,49512-2024,,"Religion organization in GRAND RAPIDS, MI with annual revenue of approximately $67M",
HATHAWAY-SYCAMORES CHILD AND FAMILY SERVICES,951691005,Human Services,100 W WALNUT ST STE 375,PASADENA,CA,91103-3744,,"Human Services organization in PASADENA, CA with annual revenue of approximately $67M",
DISTRICT ENERGY ST PAUL INC,411358662,Community,305 SAINT PETER ST,SAINT PAUL,MN,55102-1607,,"Community organization in SAINT PAUL, MN with annual revenue of approximately $67M",
IMAGINE THE POSSIBILITIES INC,237224698,Other,1710 E MAPLE ST,MAQUOKETA,IA,52060-9214,,"Other organization in MAQUOKETA, IA with annual revenue of approximately $67M",
FAIR HAVEN COMMUNITY HEALTH CLINIC INC,060883545,Health,374 GRAND AVE,NEW HAVEN,CT,06513-3733,,"Health organization in NEW HAVEN, CT with annual revenue of approximately $66M",
JEWISH FAMILY & CHILDRENS SERVICES,941156528,Human Services,2180 POST ST,SAN FRANCISCO,CA,94115-6013,,"Human Services organization in SAN FRANCISCO, CA with annual revenue of approximately $66M",
FUND FOR THE CITY OF NEW YORK INC,132612524,Community,121 SIXTH AVENUE 6TH FLOOR,NEW YORK,NY,10013-1510,,"Community organization in NEW YORK, NY with annual revenue of approximately $66M",
PARKER INSTITUTE FOR CANCER IMMUNOTHERAPY,473355381,Health,1 LETTERMAN DR STE D3500,SAN FRANCISCO,CA,94129-1504,,"Health organization in SAN FRANCISCO, CA with annual revenue of approximately $66M",
BALL STATE UNIVERSITY FOUNDATION,356024566,Education,2800 W BETHEL AVE,MUNCIE,IN,47304-2619,,"Education organization in MUNCIE, IN with annual revenue of approximately $66M",
GEORGETOWN COLLEGE,610444695,Education,400 E COLLEGE ST,GEORGETOWN,KY,40324-1620,,"Education organization in GEORGETOWN, KY with annual revenue of approximately $66M",
KEDREN COMMUNITY HEALTH CENTER INC KEDREN CHILD DEVELOPMENT CENTER,952459796,Health,4211 AVALON BLVD,LOS ANGELES,CA,90011-5622,,"Health organization in LOS ANGELES, CA with annual revenue of approximately $66M",
SOUTHWEST MEDICAL CENTER,480684878,Health,315W15THST,LIBERAL,KS,67901-0000,,"Health organization in LIBERAL, KS with annual revenue of approximately $66M",
NAVY PIER INC,274813461,Arts & Culture,600 EAST GRAND AVENUE,CHICAGO,IL,60611-3419,,"Arts & Culture organization in CHICAGO, IL with annual revenue of approximately $66M",
HOSPITAL DEVELOPMENT CO,550484469,Other,200 HOSPITAL DR,SPENCER,WV,25276-1050,,"Other organization in SPENCER, WV with annual revenue of approximately $66M",
CROSSROADS YOUNG MENS CHRISTIAN ASSOCIATION INC,351369437,Human Services,9801 CONNECTICUT DR STE 150,CROWN POINT,IN,46307-7773,,"Human Services organization in CROWN POINT, IN with annual revenue of approximately $66M",
ASSOCIATED STUDENTS UCLA,951777979,Education,308 WESTWOOD PLAZA 3519AU,LOS ANGELES,CA,90095-1640,,"Education organization in LOS ANGELES, CA with annual revenue of approximately $66M",
THE AWTY INTERNATIONAL SCHOOL,237258712,Other,7455 AWTY SCHOOL LN,HOUSTON,TX,77055-7222,,"Other organization in HOUSTON, TX with annual revenue of approximately $66M",
EPISCOPAL COMMUNITIES & SERVICES FOR SENIORS,951642373,Human Services,2212 EL MOLINO AVE,ALTADENA,CA,91001-3000,,"Human Services organization in ALTADENA, CA with annual revenue of approximately $66M",
COLORADO SCHOOL OF MINES FOUNDATION,840509064,Education,1812 ILLINOIS ST,GOLDEN,CO,80401-1838,,"Education organization in GOLDEN, CO with annual revenue of approximately $66M",
SIXTEENTH STREET COMMUNITY HEALTH CENTERS INC,391180475,Other,1032 S CESAR E CHAVEZ DR,MILWAUKEE,WI,53204-2203,,"Other organization in MILWAUKEE, WI with annual revenue of approximately $66M",
FELTON INSTITUTE,941156530,Other,1005 ATLANTIC AVE,ALAMEDA,CA,94501-1148,,"Other organization in ALAMEDA, CA with annual revenue of approximately $66M",
CHIRICAHUA COMMUNITY HEALTH CENTERS INC,860814898,Health,PO BOX 263,ELFRIDA,AZ,85610-0263,,"Health organization in ELFRIDA, AZ with annual revenue of approximately $66M",
ALLEGHENY COUNCIL TO IMPROVE OUR NEIGHBORHOODS-HOUSING INCORPORATED,250965469,Human Services,611 WILLIAM PENN PL STE 800,PITTSBURGH,PA,15219-6927,,"Human Services organization in PITTSBURGH, PA with annual revenue of approximately $66M",
SIMPSON COLLEGE,420680389,Education,701 N C ST,INDIANOLA,IA,50125-1264,,"Education organization in INDIANOLA, IA with annual revenue of approximately $66M",
ABRAHAM JOSHUA HESCHEL SCHOOL,133091539,Education,20 W END AVE,NEW YORK,NY,10023-7809,,"Education organization in NEW YORK, NY with annual revenue of approximately $66M",
FAMILY HEALTH CENTER OF WORCESTER INC,042485308,Other,26 QUEEN STREET,WORCESTER,MA,01610-2473,,"Other organization in WORCESTER, MA with annual revenue of approximately $66M",
THE EXPLORATORIUM,941696494,Arts & Culture,PIER 17 SUITE 100,SAN FRANCISCO,CA,94111-0000,,"Arts & Culture organization in SAN FRANCISCO, CA with annual revenue of approximately $66M",
MERIDIAN BEHAVIORAL HEALTHCARE INC,591906214,Health,4300 SW 13TH ST,GAINESVILLE,FL,32608-4006,,"Health organization in GAINESVILLE, FL with annual revenue of approximately $66M",
CHILDRENS HOSPITAL FOUNDATION,521640402,Health,111 MICHIGAN AVE NW,WASHINGTON,DC,20010-2916,,"Health organization in WASHINGTON, DC with annual revenue of approximately $66M",
GOODWIN UNIVERSITY INC,061627882,Education,1 RIVERSIDE DR,EAST HARTFORD,CT,06118-1837,,"Education organization in EAST HARTFORD, CT with annual revenue of approximately $66M",
PLANNED PARENTHOOD NORTH CENTRAL STATES,830614523,Health,671 VANDALIA ST,SAINT PAUL,MN,55114-1312,,"Health organization in SAINT PAUL, MN with annual revenue of approximately $66M",
BURNING MAN PROJECT,452638273,Community,660 ALABAMA ST STE 4,SAN FRANCISCO,CA,94110-2190,,"Community organization in SAN FRANCISCO, CA with annual revenue of approximately $66M",
ASBURY COLLEGE,610458355,Education,1 MACKLEM DR,WILMORE,KY,40390-1152,,"Education organization in WILMORE, KY with annual revenue of approximately $66M",
UNC ROCKINGHAM HEALTH CARE INC,823745228,Health,117 E KINGS HWY,EDEN,NC,27288-5201,,"Health organization in EDEN, NC with annual revenue of approximately $66M",
ROOM TO READ,912003533,Education,465 CALIFORNIA ST STE 1000,SAN FRANCISCO,CA,94104-1824,,"Education organization in SAN FRANCISCO, CA with annual revenue of approximately $66M",
FLORIDA WEST COAST SYMPHONY INC,592603081,Arts & Culture,709 N TAMIAMI TRL,SARASOTA,FL,34236-4047,,"Arts & Culture organization in SARASOTA, FL with annual revenue of approximately $66M",
CHILDRENS SERVICE SOCIETY OF WISCONSIN,390806380,Other,PO BOX 1997,MILWAUKEE,WI,53201-1997,,"Other organization in MILWAUKEE, WI with annual revenue of approximately $66M",
UNITED CHURCH OF CHRIST HOMES,231615155,Human Services,30 N 31ST ST,CAMP HILL,PA,17011-2913,,"Human Services organization in CAMP HILL, PA with annual revenue of approximately $66M",
NYSARC INC,111845294,Human Services,2900 VETERANS MEMORIAL HWY,BOHEMIA,NY,11716-1022,,"Human Services organization in BOHEMIA, NY with annual revenue of approximately $66M",
EDWARD CHARLES FOUNDATION,264245043,Human Services,269 S BEVERLY DR STE 338,BEVERLY HILLS,CA,90212-3851,,"Human Services organization in BEVERLY HILLS, CA with annual revenue of approximately $66M",
NEBRASKA COMMUNITY FOUNDATION,470769903,Community,8100 S 15TH ST STE A,LINCOLN,NE,68512-9438,,"Community organization in LINCOLN, NE with annual revenue of approximately $66M",
LUBBOCK CHRISTIAN UNIVERSITY,750950119,Education,5601 19TH ST,LUBBOCK,TX,79407-2031,,"Education organization in LUBBOCK, TX with annual revenue of approximately $66M",
GOODWILL OF CENTRAL AND COASTAL VIRGINIA INC,540455395,Human Services,6301 MIDLOTHIAN TPKE,RICHMOND,VA,23225-5707,,"Human Services organization in RICHMOND, VA with annual revenue of approximately $66M",
TRUSTEES FOR HARVARD UNIVERSITY,530199180,Education,1033 MASSACHUSETTS AVE STE 3,CAMBRIDGE,MA,02138-5366,,"Education organization in CAMBRIDGE, MA with annual revenue of approximately $66M",
POLICYLINK,943297479,Community,1438 WEBSTER ST STE 303,OAKLAND,CA,94612-3228,,"Community organization in OAKLAND, CA with annual revenue of approximately $66M",
PENQUIS C A P INC,016023748,Human Services,PO BOX 1162,BANGOR,ME,04402-1162,,"Human Services organization in BANGOR, ME with annual revenue of approximately $66M",
ALPHAPOINTE,440552486,Human Services,7501 PROSPECT AVE,KANSAS CITY,MO,64132-2103,,"Human Services organization in KANSAS CITY, MO with annual revenue of approximately $66M",
MASSACHUSETTS INSTITUTE OF TECHNOLOGY WELFARE BENEFIT PLANS T,043177556,Other,77 MASSACHUSETTS AVENUE NE49-3142,CAMBRIDGE,MA,02139-4301,,"Other organization in CAMBRIDGE, MA with annual revenue of approximately $66M",
CENTRAL MAINE HEALTHCARE CORPORATION,010386913,Health,29 LOWELL ST,LEWISTON,ME,04240-7639,,"Health organization in LEWISTON, ME with annual revenue of approximately $66M",
AUGUSTINE INSTITUTE INC,202349108,Education,6160 S SYRACUSE WAY STE 310,GREENWOOD VLG,CO,80111-4781,,"Education organization in GREENWOOD VLG, CO with annual revenue of approximately $66M",
SOUTH PLAINS COMMUNITY ACTION ASSOCIATION INC,751230219,Human Services,PO BOX 610,LEVELLAND,TX,79336-0610,,"Human Services organization in LEVELLAND, TX with annual revenue of approximately $66M",
ADVENTHEALTH SENIOR CARE INC,841817046,Other,900 HOPE WAY,ALTAMONTE SPG,FL,32714-1502,,"Other organization in ALTAMONTE SPG, FL with annual revenue of approximately $66M",
DOE FUND INC,133412540,Human Services,345 EAST 102 ST 3RD FL,NEW YORK,NY,10029-5611,,"Human Services organization in NEW YORK, NY with annual revenue of approximately $66M",
GRACE COMMUNITY HEALTH CENTER INC,261779437,Health,1019CUMBERLAND FALLS HWY,CORBIN,KY,40701-2735,,"Health organization in CORBIN, KY with annual revenue of approximately $66M",
ATRIUM HEALTH FOUNDATION,566060481,Health,PO BOX 32861,CHARLOTTE,NC,28232-2861,,"Health organization in CHARLOTTE, NC with annual revenue of approximately $66M",
KNIGHTS OF COLUMBUS CHARITABLE FUND INC,815466677,Community,1 COLUMBUS PLAZA 19 FL,NEW HAVEN,CT,06510-3325,,"Community organization in NEW HAVEN, CT with annual revenue of approximately $66M",
ST VINCENTS SERVICES INC,111631823,Human Services,330 JAY STREET 29TH FLOOR,BROOKLYN,NY,11201-2935,,"Human Services organization in BROOKLYN, NY with annual revenue of approximately $66M",
HIGHLAND SPRINGS INC,510536892,Human Services,813 MAIDEN CHOICE LN,CATONSVILLE,MD,21228-3679,,"Human Services organization in CATONSVILLE, MD with annual revenue of approximately $66M",
MADISON COUNTY COMMUNITY HOSPITAL,311657206,Health,210 N MAIN ST,LONDON,OH,43140-1115,,"Health organization in LONDON, OH with annual revenue of approximately $66M",
MEDASSIST OF MECKLENBURG,562018957,Human Services,4428 TAGGART CREEK RD STE 101,CHARLOTTE,NC,28208-5400,,"Human Services organization in CHARLOTTE, NC with annual revenue of approximately $66M",
UNIVERSITY ORTHOPAEDIC SERVICES INC,161406947,Health,4225 GENESEE ST STE 400,CHEEKTOWAGA,NY,14225-1994,,"Health organization in CHEEKTOWAGA, NY with annual revenue of approximately $66M",
YOUNG MENS CHRISTIAN ASSOCIATION OF GREATER INDIANAPOLIS,350868211,Human Services,6610 N SHADELAND AVENUE,INDIANAPOLIS,IN,46220-4392,,"Human Services organization in INDIANAPOLIS, IN with annual revenue of approximately $66M",
SOUTH CAROLINA FIRST STEPS TO SCHOOL READINESS BOARD OF TRUSTEES,571087576,Education,636 ROSEWOOD DRIVE,COLUMBIA,SC,29201-4683,,"Education organization in COLUMBIA, SC with annual revenue of approximately $66M",
