name,ein,category,address,city,state,zip_code,website,description,phone
EEC,800274093,Education,15505 CIVIC DR,VICTORVILLE,CA,92392-2357,,"Education organization in VICTORVILLE, CA with annual revenue of approximately $35M",
AEON,411558711,Human Services,901 N 3RD ST STE 150,MINNEAPOLIS,MN,55401-1175,,"Human Services organization in MINNEAPOLIS, MN with annual revenue of approximately $35M",
AMERICAN UROLOGICAL ASSOCIATION EDUCATION AND RESEARCH INC,430691437,Health,1000 CORPORATE BLVD,LINTHICUM,MD,21090-2260,,"Health organization in LINTHICUM, MD with annual revenue of approximately $35M",
CRETE AREA MEDICAL CENTER,470841285,Health,1600 S 48TH ST,LINCOLN,NE,68506-1227,,"Health organization in LINCOLN, NE with annual revenue of approximately $35M",
RAMAH NAVAJO SCHOOL BOARD INC,850208375,Education,PO BOX 70,PINEHILL,NM,87357-0070,,"Education organization in PINEHILL, NM with annual revenue of approximately $35M",
CSI SUPPORT AND DEVELOPMENT SERVICES,201935580,Human Services,8425 E 12 MILE RD,WARREN,MI,48093-2738,,"Human Services organization in WARREN, MI with annual revenue of approximately $35M",
SOUTHSIDE COMMUNITIES FIRE PROTECTION INC,580870522,Other,1399 DEAN FOREST RD,SAVANNAH,GA,31405-9307,,"Other organization in SAVANNAH, GA with annual revenue of approximately $35M",
PUBLIC LIBRARY ASSOCIATION OF ANNAPOLIS AND A A CO INC,526001871,Other,5 HARRY S TRUMAN PKWY,ANNAPOLIS,MD,21401-7042,,"Other organization in ANNAPOLIS, MD with annual revenue of approximately $35M",
GREAT PLAINS FOOD BANK,472229589,Human Services,1720 3RD AVE N,FARGO,ND,58102-4254,,"Human Services organization in FARGO, ND with annual revenue of approximately $35M",
MERCY HOSPITAL AURORA,431936696,Health,500 PORTER AVE,AURORA,MO,65605-2365,,"Health organization in AURORA, MO with annual revenue of approximately $35M",
UATX,871925354,Education,522 CONGRESS AVE,AUSTIN,TX,78701-3552,,"Education organization in AUSTIN, TX with annual revenue of approximately $35M",
LCTCS FACILITIES CORPORATION,261871311,Education,3850 N CAUSEWAY BLVD STE 1930,METAIRIE,LA,70002-7280,,"Education organization in METAIRIE, LA with annual revenue of approximately $35M",
AVERA HOLY FAMILY,420680370,Health,826 N 8TH ST,ESTHERVILLE,IA,51334-1528,,"Health organization in ESTHERVILLE, IA with annual revenue of approximately $35M",
AREAWIDE COUNCIL ON AGING OF BROWARD COUNTY INC,591529419,Human Services,5300 N HIATUS RD,SUNRISE,FL,33351-8701,,"Human Services organization in SUNRISE, FL with annual revenue of approximately $35M",
AREA AGENCY ON AGING OF PASCO-PINELLAS INC,311710636,Human Services,9549 KOGER BLVD N STE 100,ST PETERSBURG,FL,33702-2455,,"Human Services organization in ST PETERSBURG, FL with annual revenue of approximately $35M",
WESTERN PENNSYLVANIA SCHOOL FOR THE DEAF,251095386,Education,300 E SWISSVALE AVE,PITTSBURGH,PA,15218-1443,,"Education organization in PITTSBURGH, PA with annual revenue of approximately $35M",
CORNWALL MANOR,231365158,Human Services,1 BOYD ST,CORNWALL,PA,17016-0000,,"Human Services organization in CORNWALL, PA with annual revenue of approximately $35M",
BALLET THEATRE FOUNDATION INC,131882106,Arts & Culture,890 BROADWAY,NEW YORK,NY,10003-1211,,"Arts & Culture organization in NEW YORK, NY with annual revenue of approximately $35M",
TEXAS ORGAN SHARING ALLIANCE,741849716,Other,5051 HAMILTON WOLFE RD,SAN ANTONIO,TX,78229-4455,,"Other organization in SAN ANTONIO, TX with annual revenue of approximately $35M",
INTERNATIONAL TRAINING FUND,530238416,Community,THREE PARK PLACE,ANNAPOLIS,MD,21401-3687,,"Community organization in ANNAPOLIS, MD with annual revenue of approximately $35M",
ADELBROOK INC,060646920,Other,58 MISSIONARY RD,CROMWELL,CT,06416-2134,,"Other organization in CROMWELL, CT with annual revenue of approximately $35M",
SCHOOL-BASED HEALTH ALLIANCE,541752058,Health,1032 15TH STREET NW STE SUITE 365,WASHINGTON,DC,20005-1502,,"Health organization in WASHINGTON, DC with annual revenue of approximately $35M",
COLUMBIA COLLEGE,570324915,Education,1301 COLUMBIA COLLEGE DR,COLUMBIA,SC,29203-5949,,"Education organization in COLUMBIA, SC with annual revenue of approximately $35M",
PUGET SOUND KIDNEY CENTERS,911102033,Health,1019 PACIFIC AVE,EVERETT,WA,98201-4148,,"Health organization in EVERETT, WA with annual revenue of approximately $35M",
ST BERNARDS HEALTHCARE,710853900,Other,225 E WASHINGTON AVE,JONESBORO,AR,72401-3111,,"Other organization in JONESBORO, AR with annual revenue of approximately $35M",
PERKIOMEN SCHOOL,231352667,Education,200 SEMINARY ST,PENNSBURG,PA,18073-1815,,"Education organization in PENNSBURG, PA with annual revenue of approximately $35M",
JUNIOR ACHIEVEMENT USA,841267604,Human Services,12320 ORACLE BLVD STE 310,COLORADO SPRINGS,CO,80921-3660,,"Human Services organization in COLORADO SPRINGS, CO with annual revenue of approximately $35M",
ONE COMMUNITY HEALTH,930910794,Other,849 PACIFIC AVE,HOOD RIVER,OR,97031-1956,,"Other organization in HOOD RIVER, OR with annual revenue of approximately $35M",
EIHAB HUMAN SERVICES NEW JERSEY INC,371660097,Human Services,16818 S CONDUIT AVE,JAMAICA,NY,11434-4806,,"Human Services organization in JAMAICA, NY with annual revenue of approximately $35M",
BSLC II,452666295,Human Services,15475 GLENEAGLE DR,COLORADO SPGS,CO,80921-2596,,"Human Services organization in COLORADO SPGS, CO with annual revenue of approximately $35M",
GOODWILL TEMPORARY SERVICES INC,742750379,Human Services,1015 NORWOOD PARK BLVD,AUSTIN,TX,78753-6608,,"Human Services organization in AUSTIN, TX with annual revenue of approximately $35M",
NYSARC INC,141485873,Human Services,79 102ND ST,TROY,NY,12180-1125,,"Human Services organization in TROY, NY with annual revenue of approximately $35M",
COPE COMMUNITY SERVICES INC,860363717,Health,1477 W COMMERCE CT,TUCSON,AZ,85746-6016,,"Health organization in TUCSON, AZ with annual revenue of approximately $35M",
GIRLS INCORPORATED,131915124,Human Services,120 WALL STREET,NEW YORK,NY,10005-3904,,"Human Services organization in NEW YORK, NY with annual revenue of approximately $35M",
RMS DEVELOPMENT INC,061241289,Other,PO BOX 7333,KENSINGTON,CT,06037-7333,,"Other organization in KENSINGTON, CT with annual revenue of approximately $35M",
MAUI UNITED WAY INC,990086524,Community,95 MAHALANI ST RM 24,WAILUKU,HI,96793-2521,,"Community organization in WAILUKU, HI with annual revenue of approximately $35M",
COMMUNITY FOUNDATION OF BROWARD INC,592477112,Community,910 EAST LAS OLAS BLVD 200,FORT LAUDERDALE,FL,33301-2312,,"Community organization in FORT LAUDERDALE, FL with annual revenue of approximately $35M",
TRUSTEES OF THE LAWRENCE ACADEMY AT GROTON,042105775,Education,26 POWDERHOUSE RD,GROTON,MA,01450-4700,,"Education organization in GROTON, MA with annual revenue of approximately $35M",
NC HISTORY CENTER ON THE CIVIL WAR EMANCIPATION & RECONSTRUCTION,463062871,Arts & Culture,824 BRANSON ST,FAYETTEVILLE,NC,28305-5402,,"Arts & Culture organization in FAYETTEVILLE, NC with annual revenue of approximately $35M",
ANGEL VIEW INC,951861861,Human Services,67625 EAST PALM CANYON DR STE 7A,CATHEDRAL CITY,CA,92234-5462,,"Human Services organization in CATHEDRAL CITY, CA with annual revenue of approximately $35M",
AMERICAN THORACIC SOCIETY INC,061548706,Education,PO BOX 3421,NEW YORK,NY,10008-3421,,"Education organization in NEW YORK, NY with annual revenue of approximately $35M",
OZARKS AREA COMMUNITY ACTION CORPORATION,430836672,Human Services,215 S BARNES AVE,SPRINGFIELD,MO,65802-2204,,"Human Services organization in SPRINGFIELD, MO with annual revenue of approximately $35M",
BIBLE FELLOWSHIP CHURCH HOMES INC,231705204,Human Services,3000 FELLOWSHIP DR,WHITEHALL,PA,18052-3343,,"Human Services organization in WHITEHALL, PA with annual revenue of approximately $35M",
BENJAMIN FRANKLIN CHARTER SCHOOL - QUEEN CREEK,831355883,Education,690 E WARNER RD STE 141,GILBERT,AZ,85296-3058,,"Education organization in GILBERT, AZ with annual revenue of approximately $35M",
SIGNAL TECHNOLOGY FOUNDATION,824506840,Community,650 CASTRO ST STE 120 PMB 223,MOUNTAIN VIEW,CA,94041-2093,,"Community organization in MOUNTAIN VIEW, CA with annual revenue of approximately $35M",
CHILD AND FAMILY GUIDANCE CENTER,952217348,Human Services,9650 ZELZAH AVE,NORTHRIDGE,CA,91325-2003,,"Human Services organization in NORTHRIDGE, CA with annual revenue of approximately $35M",
ELEMENTAL EXCELERATOR INC,821112859,Environment,1099 ALAKEA ST STE 1250,HONOLULU,HI,96813-4517,,"Environment organization in HONOLULU, HI with annual revenue of approximately $35M",
LIBERTY SCIENCE CENTER INC,222302253,Arts & Culture,222 JERSEY CITY BLVD,JERSEY CITY,NJ,07305-4636,,"Arts & Culture organization in JERSEY CITY, NJ with annual revenue of approximately $35M",
SUNBELT HUMAN ADVANCEMENT RESOURCES INC,576028253,Education,254 SOUTH PLEASANTBURG DRIVE,GREENVILLE,SC,29607-2562,,"Education organization in GREENVILLE, SC with annual revenue of approximately $35M",
CENTER FOR HOUSING AND HEALTH,264287202,Human Services,200 W MONROE ST STE 1150,CHICAGO,IL,60606-5036,,"Human Services organization in CHICAGO, IL with annual revenue of approximately $35M",
SALISH KOOTENAI COLLEGE INC,810378823,Education,PO BOX 70,PABLO,MT,59855-0070,,"Education organization in PABLO, MT with annual revenue of approximately $35M",
NEW ORLEANS PHYSICIAN SERVICES INC,464568405,Community,1101 MEDICAL CENTER BLVD,MARRERO,LA,70072-3147,,"Community organization in MARRERO, LA with annual revenue of approximately $35M",
COMMUNITY REINVESTMENT FUND INC,411616861,Community,801 NICOLLET MALL STE 1700W,MINNEAPOLIS,MN,55402-2532,,"Community organization in MINNEAPOLIS, MN with annual revenue of approximately $35M",
THE ARMY RETIREMENT RESIDENCE FOUNDATION - SAN ANTONIO,742244155,Human Services,7400 CRESTWAY RD,SAN ANTONIO,TX,78239-3007,,"Human Services organization in SAN ANTONIO, TX with annual revenue of approximately $35M",
UNITY HOUSE OF TROY INCORPORATED,232378930,Health,2431 6TH AVE,TROY,NY,12180-2227,,"Health organization in TROY, NY with annual revenue of approximately $35M",
FOUNDATION FIGHTING BLINDNESS INC,237135845,Health,6925 OAKLAND MILLS RD701,COLUMBIA,MD,21045-4714,,"Health organization in COLUMBIA, MD with annual revenue of approximately $35M",
BUSHNELL UNIVERSITY,930433696,Education,828 E 11TH AVE,EUGENE,OR,97401-3745,,"Education organization in EUGENE, OR with annual revenue of approximately $35M",
BANANAS INCORPORATED,942247074,Human Services,5232 CLAREMONT AVE,OAKLAND,CA,94618-1033,,"Human Services organization in OAKLAND, CA with annual revenue of approximately $35M",
MILLBROOK SCHOOL,141413770,Education,131 MILLBROOK SCHOOL RD,MILLBROOK,NY,12545-4932,,"Education organization in MILLBROOK, NY with annual revenue of approximately $35M",
LIFE FOR RELIEF AND DEVELOPMENT INC,954402149,International,17300 W 10 MILE RD,SOUTHFIELD,MI,48075-2930,,"International organization in SOUTHFIELD, MI with annual revenue of approximately $35M",
PEDIATRIC SPECIALISTS OF VIRGINIA LLC,461851763,Health,3023 HAMAKER CT STE 200,FAIRFAX,VA,22031-2240,,"Health organization in FAIRFAX, VA with annual revenue of approximately $35M",
CHATTANOOGA CHRISTIAN COMMUNITY FOUNDATION,621536731,Community,345 FRAZIER AVENUE,CHATTANOOGA,TN,37405-4095,,"Community organization in CHATTANOOGA, TN with annual revenue of approximately $35M",
WOMENS HOUSING AND ECONOMIC DEVELOPMENT CORPORATION,113099604,Human Services,50 E 168TH STREET,BRONX,NY,10452-7929,,"Human Services organization in BRONX, NY with annual revenue of approximately $35M",
JEFFERSON COMMUNITY HEALTH CENTER INC,470468078,Health,2200 H ST,FAIRBURY,NE,68352-1119,,"Health organization in FAIRBURY, NE with annual revenue of approximately $35M",
MEMORIAL HOSPITAL OF BOSCOBEL,390845590,Health,205 PARKER ST,BOSCOBEL,WI,53805-1642,,"Health organization in BOSCOBEL, WI with annual revenue of approximately $35M",
LOGAN COMMUNITY RESOURCES INC,350965639,Other,PO BOX 1049,SOUTH BEND,IN,46624-1049,,"Other organization in SOUTH BEND, IN with annual revenue of approximately $35M",
UNITED WAY OF GREATER KANSAS CITY INC,440545812,Other,4801 MAIN ST STE 425,KANSAS CITY,MO,64112-8700,,"Other organization in KANSAS CITY, MO with annual revenue of approximately $35M",
SWORDS TO PLOWSHARES VETERANS RIGHTS ORGANIZATION,942260626,Community,1060 HOWARD ST,SAN FRANCISCO,CA,94103-2820,,"Community organization in SAN FRANCISCO, CA with annual revenue of approximately $35M",
VALOR CHRISTIAN SCHOOLS,203168449,Education,3775 GRACE BLVD,HGHLNDS RANCH,CO,80126-8123,,"Education organization in HGHLNDS RANCH, CO with annual revenue of approximately $35M",
FRIENDS ACADEMY,111633485,Education,DUCK POND RD,LOCUST VALLEY,NY,11560-0000,,"Education organization in LOCUST VALLEY, NY with annual revenue of approximately $35M",
CENTRAL FLORIDA REGIONAL WORKFORCE DEVELOPMENT BOARD INC,593396497,Human Services,390 N ORANGE AVE STE 700,ORLANDO,FL,32801-1673,,"Human Services organization in ORLANDO, FL with annual revenue of approximately $35M",
COMMUNITY SUPPORTS INC,593507238,Human Services,1890 STATE ROAD 436 STE 300,WINTER PARK,FL,32792-2285,,"Human Services organization in WINTER PARK, FL with annual revenue of approximately $35M",
CUSHMAN SCHOOL INC,591382853,Education,592 NE 60TH ST,MIAMI,FL,33137-2246,,"Education organization in MIAMI, FL with annual revenue of approximately $35M",
ST VINCENT DE PAUL REHABILITATION SERVICES OF TEXAS INC,742736120,Human Services,4902 GROVER AVE,AUSTIN,TX,78756-2629,,"Human Services organization in AUSTIN, TX with annual revenue of approximately $35M",
UNIVERSITY OF NORTHERN IOWA FOUNDATION,426058591,Education,204 COMMONS UNI,CEDAR FALLS,IA,50614-0282,,"Education organization in CEDAR FALLS, IA with annual revenue of approximately $35M",
UNITED TRIBES TECHNICAL COLLEGE,450314233,Education,3315 UNIVERSITY DR,BISMARCK,ND,58504-7554,,"Education organization in BISMARCK, ND with annual revenue of approximately $35M",
ST CAMILLUS RESIDENTIAL HEALTH CARE FACILITY,161085780,Other,813 FAY RD,SYRACUSE,NY,13219-3009,,"Other organization in SYRACUSE, NY with annual revenue of approximately $35M",
DEMOCRACY MATTERS FOUNDATION,463009324,Religion,996 MAINE AVE SW PMB 216,WASHINGTON,DC,20024-3440,,"Religion organization in WASHINGTON, DC with annual revenue of approximately $35M",
JANE PAULEY COMMUNITY HEALTH CENTER INC,010945309,Health,1503 N MITTHOEFER RD,INDIANAPOLIS,IN,46229-2425,,"Health organization in INDIANAPOLIS, IN with annual revenue of approximately $35M",
CLINICAL HEALTH NETWORK FOR TRANSFORMATION INC,842471177,Health,390 NE 191ST ST 8466,MIAMI,FL,33179-3899,,"Health organization in MIAMI, FL with annual revenue of approximately $35M",
WHEATON FRANCISCAN HEALTHCARE - SOUTHEAST WISCONSIN INC,391568865,Health,PO BOX 45998,SAINT LOUIS,MO,63145-5998,,"Health organization in SAINT LOUIS, MO with annual revenue of approximately $35M",
NORTHERN COUNTIES HEALTH CARE INC,510199559,Health,165 SHERMAN DR,ST JOHNSBURY,VT,05819-9811,,"Health organization in ST JOHNSBURY, VT with annual revenue of approximately $35M",
TARBUT VTORAH COMMUNITY DAY SCHOOL,953374189,Education,5 FEDERATION WAY,IRVINE,CA,92603-0100,,"Education organization in IRVINE, CA with annual revenue of approximately $35M",
INSPIRITUS INC,581535692,Religion,731 PEACHTREE ST NE,ATLANTA,GA,30308-1203,,"Religion organization in ATLANTA, GA with annual revenue of approximately $35M",
BETHESDA FOUNDATION INC,237374129,Health,625 EDEN PARK DRIVE 7TH FLOOR,CINCINNATI,OH,45202-6005,,"Health organization in CINCINNATI, OH with annual revenue of approximately $35M",
FLORIDIANS FOR QUALITY VIRTUAL EDUCATION INC,813326090,Education,5805 BRECKENRIDGE PKWY STE E,TAMPA,FL,33610-4250,,"Education organization in TAMPA, FL with annual revenue of approximately $35M",
MEDAL OF HONOR MUSEUM FOUNDATION,900900556,Arts & Culture,1717 E RANDOL MILL RD,ARLINGTON,TX,76011-6000,,"Arts & Culture organization in ARLINGTON, TX with annual revenue of approximately $35M",
LADACIN NETWORK INC,210674715,Health,1703 KNEELEY BLVD,OCEAN,NJ,07712-7622,,"Health organization in OCEAN, NJ with annual revenue of approximately $35M",
AMERICAN OSTEOPATHIC ASSOCIATION,362170786,Health,142 EAST ONTARIO STREET 10TH FL,CHICAGO,IL,60611-8710,,"Health organization in CHICAGO, IL with annual revenue of approximately $35M",
CORNELIA NIXON DAVIS INC,566065223,Health,1011 PORTERS NECK RD,WILMINGTON,NC,28411-9196,,"Health organization in WILMINGTON, NC with annual revenue of approximately $35M",
CAPITOL CITY FAMILY HEALTH CENTER INCORPORATED,721395500,Health,3140 FLORIDA ST,BATON ROUGE,LA,70806-3757,,"Health organization in BATON ROUGE, LA with annual revenue of approximately $35M",
TRAINING REHABILITATION & DEVELOPMENT INSTITUTE INC,742938051,Human Services,425 SOLEDAD ST STE 800,SAN ANTONIO,TX,78205-1520,,"Human Services organization in SAN ANTONIO, TX with annual revenue of approximately $35M",
LUTHERAN SOCIAL SERVICE OF COLORADO,840775550,Other,1035 OSAGE ST STE 700,DENVER,CO,80204-4209,,"Other organization in DENVER, CO with annual revenue of approximately $35M",
RAPPAHANNOCK GOODWILL STORES AND SERVICES INC,760800820,Community,4701 MARKET ST STE A,FREDERICKSBRG,VA,22408-8613,,"Community organization in FREDERICKSBRG, VA with annual revenue of approximately $35M",
BRENTWOOD ACADEMY INC,620811952,Education,219 GRANNY WHITE PIKE,BRENTWOOD,TN,37027-5753,,"Education organization in BRENTWOOD, TN with annual revenue of approximately $35M",
GREEN CHIMNEYS CHILDRENS SERVICES INC,141568025,Other,PUTNAM LAKE RD CALLER BOX 719,BREWSTER,NY,10509-0000,,"Other organization in BREWSTER, NY with annual revenue of approximately $35M",
EARLY LEARNING COALITION OF ST LUCIE COUNTY INC,593679509,Education,5000 NW DUNN RD 3RD FLOOR,FORT PIERCE,FL,34981-4901,,"Education organization in FORT PIERCE, FL with annual revenue of approximately $35M",
NORTHWEST ENERGY EFFICIENCY ALLIANCE INC,931228867,Environment,700 NE MULTNOMAH ST STE 1300,PORTLAND,OR,97232-4113,,"Environment organization in PORTLAND, OR with annual revenue of approximately $35M",
ALLIANCE FOR MULTICULTURAL COMMUNITY SERVICES,760171217,Human Services,6420 HILLCROFT AVENUE,HOUSTON,TX,77081-3190,,"Human Services organization in HOUSTON, TX with annual revenue of approximately $35M",
FINGER LAKES AREA COUNSELING AND RECOVERY AGENCY INC,161013292,Other,28 EAST MAIN STREET 5TH FLOOR,CLIFTON SPRINGS,NY,14432-1231,,"Other organization in CLIFTON SPRINGS, NY with annual revenue of approximately $35M",
SAINT JOHNS COMMUNITIES INC,390807204,Human Services,1840 N PROSPECT AVE,MILWAUKEE,WI,53202-1975,,"Human Services organization in MILWAUKEE, WI with annual revenue of approximately $35M",
OHIO CAPITAL CORPORATION FOR HOUSING,311265570,Human Services,671 S HIGH ST SUITE 600,COLUMBUS,OH,43206-1072,,"Human Services organization in COLUMBUS, OH with annual revenue of approximately $35M",
TAX ANALYSTS,237073182,Other,400 S MAPLE AVENUE 4TH F,FALLS CHURCH,VA,22046-4241,,"Other organization in FALLS CHURCH, VA with annual revenue of approximately $35M",
CENTRE COUNTY CANCER CENTER,800866636,Health,155 WELLNESS WAY,STATE COLLEGE,PA,16803-6702,,"Health organization in STATE COLLEGE, PA with annual revenue of approximately $35M",
CAL POLY POMONA PHILANTHROPIC FOUNDATION,832300241,Community,3801 W TEMPLE AVE,POMONA,CA,91768-2557,,"Community organization in POMONA, CA with annual revenue of approximately $35M",
SUMMIT CENTER INC,161095750,Education,150 STAHL ROAD THE SUMMIT CENTER,GETZVILLE,NY,14068-0000,,"Education organization in GETZVILLE, NY with annual revenue of approximately $35M",
THE UNIVERSITY OF TOLEDO FOUNDATION,346555110,Education,4510 DORR ST,TOLEDO,OH,43615-4040,,"Education organization in TOLEDO, OH with annual revenue of approximately $35M",
NORTH COAST OPPORTUNITIES INC,941671958,Human Services,413 N STATE ST,UKIAH,CA,95482-4421,,"Human Services organization in UKIAH, CA with annual revenue of approximately $35M",
THE JEWISH COMMUNITY CENTER IN MANHATTAN INC,133490745,Human Services,334 AMSTERDAM AVE,NEW YORK,NY,10023-8205,,"Human Services organization in NEW YORK, NY with annual revenue of approximately $35M",
SARASOTA MEMORIAL HEALTHCARE FOUNDATION,510188568,Health,1515 S OSPREY AVE STE B4,SARASOTA,FL,34239-2918,,"Health organization in SARASOTA, FL with annual revenue of approximately $35M",
HELPING HAND CENTER,362327271,Human Services,9649 W 55TH ST,COUNTRYSIDE,IL,60525-3632,,"Human Services organization in COUNTRYSIDE, IL with annual revenue of approximately $35M",
FRIENDS OF THE CHILDREN OF MISSISSIPPI INC,640442110,Education,130 RIVERVIEW DR STE C,FLOWOOD,MS,39232-8921,,"Education organization in FLOWOOD, MS with annual revenue of approximately $35M",
LYCEE FRANCAIS DE SAN FRANCISCO,941660059,Education,1201 ORTEGA ST,SAN FRANCISCO,CA,94122-4411,,"Education organization in SAN FRANCISCO, CA with annual revenue of approximately $35M",
LIFESHARE TRANSPLANT DONOR SERVICES OF OKLAHOMA INC,731281589,Health,4705 NW EXPRESSWAY,OKLAHOMA CITY,OK,73132-5213,,"Health organization in OKLAHOMA CITY, OK with annual revenue of approximately $35M",
SAN DIEGO WORKFORCE PARTNERSHIP INC,330660504,Human Services,9246 LIGHTWAVE AVE,SAN DIEGO,CA,92123-6411,,"Human Services organization in SAN DIEGO, CA with annual revenue of approximately $35M",
SAINT-MARY-OF-THE-WOODS COLLEGE,351065063,Education,1 ST MARY OF WOODS COLL,ST MARY OF WD,IN,47876-1001,,"Education organization in ST MARY OF WD, IN with annual revenue of approximately $35M",
THE WEBB SCHOOLS,951856591,Education,1175 W BASELINE RD,CLAREMONT,CA,91711-2146,,"Education organization in CLAREMONT, CA with annual revenue of approximately $35M",
COMMUNITY ACTION PARTNERSHIP OF SAN BERNARDINO COUNTY,952376882,Human Services,696 S TIPPECANOE AVE,SN BERNRDNO,CA,92408-2607,,"Human Services organization in SN BERNRDNO, CA with annual revenue of approximately $35M",
PREMIER COMMUNITY HEALTHCARE GROUP INC,591964612,Health,37912 CHURCH AVE,DADE CITY,FL,33525-4207,,"Health organization in DADE CITY, FL with annual revenue of approximately $35M",
WAKE ROBIN CORP,222535376,Human Services,200 WAKE ROBIN DR,SHELBURNE,VT,05482-7569,,"Human Services organization in SHELBURNE, VT with annual revenue of approximately $35M",
THE ESTAUGH,210633410,Human Services,1 MEDFORD LEAS WAY,MEDFORD,NJ,08055-2254,,"Human Services organization in MEDFORD, NJ with annual revenue of approximately $35M",
MORRISON CHILD & FAMILY SERVICES,930354176,Health,11035 NE SANDY BLVD,PORTLAND,OR,97220-2553,,"Health organization in PORTLAND, OR with annual revenue of approximately $35M",
CENTRAL FLORIDA FAMILY HEALTH CENTER INC,591741286,Other,4930 E LAKE MARY BLVD,SANFORD,FL,32771-5003,,"Other organization in SANFORD, FL with annual revenue of approximately $35M",
THE UPSTATE FOUNDATION INC,161068101,Human Services,750 E ADAMS ST,SYRACUSE,NY,13210-2306,,"Human Services organization in SYRACUSE, NY with annual revenue of approximately $35M",
FREEDOM PREPARATORY ACADEMY INC,261342579,Education,136 WEBSTER AVE,MEMPHIS,TN,38126-3002,,"Education organization in MEMPHIS, TN with annual revenue of approximately $35M",
APPALACHIAN REGIONAL HEALTHCARE SYSTEM INC,201067022,Health,336 DEERFIELD RD,BOONE,NC,28607-5008,,"Health organization in BOONE, NC with annual revenue of approximately $35M",
LAMBDA LEGAL DEFENSE AND EDUCATION FUND INC,237395681,Religion,120 WALL STREET 19TH FL,NEW YORK,NY,10005-3919,,"Religion organization in NEW YORK, NY with annual revenue of approximately $35M",
MID-FLORIDA AREA AGENCY ON AGING INC,591777567,Other,100 SW 75TH ST STE 301,GAINESVILLE,FL,32607-5778,,"Other organization in GAINESVILLE, FL with annual revenue of approximately $35M",
ANTHONY L JORDAN HEALTH CORPORATION,160977295,Health,82 HOLLAND ST,ROCHESTER,NY,14605-2131,,"Health organization in ROCHESTER, NY with annual revenue of approximately $35M",
BUDDHIST TZU CHI FOUNDATION,942952782,Religion,1100 S VALLEY CENTER AVE,SAN DIMAS,CA,91773-3728,,"Religion organization in SAN DIMAS, CA with annual revenue of approximately $35M",
GUADALUPE EDUCATIONAL SYSTEMS INC,205220487,Education,1015 AVENIDA CESAR E CHAVEZ,KANSAS CITY,MO,64108-2235,,"Education organization in KANSAS CITY, MO with annual revenue of approximately $35M",
CRESCENT VIEW WEST PUBLIC CHARTER INC,680610130,Education,177 HOLSTON DR,LANCASTER,CA,93535-4570,,"Education organization in LANCASTER, CA with annual revenue of approximately $35M",
KENNEDY-DONOVAN CENTER INC,042519028,Human Services,1 COMMERCIAL ST,FOXBORO,MA,02035-2530,,"Human Services organization in FOXBORO, MA with annual revenue of approximately $35M",
AMERICAN MANAGEMENT ASSOCIATION INT,237259445,Education,600 AMA WAY,SARANAC LAKE,NY,12983-5534,,"Education organization in SARANAC LAKE, NY with annual revenue of approximately $35M",
LIFEWISE INC,454002535,Human Services,5375 GRACE ST,HILLIARD,OH,43026-1411,,"Human Services organization in HILLIARD, OH with annual revenue of approximately $35M",
THE HOWARD YOUNG MEDICAL CENTER INC,390873606,Health,2200 WESTWOOD DR,WAUSAU,WI,54401-7806,,"Health organization in WAUSAU, WI with annual revenue of approximately $35M",
COLUMBUS ASSOCIATION FOR THE PERFORMING ARTS INC,310749884,Arts & Culture,55 E STATE ST,COLUMBUS,OH,43215-4203,,"Arts & Culture organization in COLUMBUS, OH with annual revenue of approximately $35M",
UNIVERSAL COMMUNICATIONS NETWORK INC,223850071,Arts & Culture,229 W 28TH ST FL 7,NEW YORK,NY,10001-5915,,"Arts & Culture organization in NEW YORK, NY with annual revenue of approximately $35M",
CHILDRENS HOME SOCIETY OF SOUTH DAKOTA,460224542,Human Services,801 N SYCAMORE AVE,SIOUX FALLS,SD,57110-5746,,"Human Services organization in SIOUX FALLS, SD with annual revenue of approximately $35M",
NORTH CENTRAL UNIVERSITY,410706151,Education,910 ELLIOT AVE,MINNEAPOLIS,MN,55404-1322,,"Education organization in MINNEAPOLIS, MN with annual revenue of approximately $35M",
AMERICAN CANCER SOCIETY,465439010,Other,270 PEACHTREE ST NW STE 1300,ATLANTA,GA,30303-1246,,"Other organization in ATLANTA, GA with annual revenue of approximately $35M",
MALVERN PREPARATORY SCHOOL,231352658,Education,418 S WARREN AVE,MALVERN,PA,19355-2707,,"Education organization in MALVERN, PA with annual revenue of approximately $35M",
CALIFORNIA STATE UNIVERSITY SAN MARCOS CORPORATION,330397688,Education,441 LA MOREE RD,SAN MARCOS,CA,92078-5017,,"Education organization in SAN MARCOS, CA with annual revenue of approximately $35M",
FOUR COUNTY COMPREHENSIVE MENTAL HEALTH CENTER INC,351362298,Health,2355 S BUSINESS 31,PERU,IN,46970-8985,,"Health organization in PERU, IN with annual revenue of approximately $35M",
WASHINGTON STATE CHILD CARE RESOURCE & REFERRAL NETWORK,911427991,Other,1001 PACIFIC AVE STE 400,TACOMA,WA,98402-4440,,"Other organization in TACOMA, WA with annual revenue of approximately $35M",
AMERICAN LUTHERAN HOMES INC,450274012,Other,201 UNIVERSITY DR S,FARGO,ND,58103-1775,,"Other organization in FARGO, ND with annual revenue of approximately $35M",
JOHNSON HEALTH CENTER,541287905,Health,134 ELON RD,MADISON HTS,VA,24572-2536,,"Health organization in MADISON HTS, VA with annual revenue of approximately $35M",
AMERICAN TRAINING INC,042662986,Other,6 CAMPANELLI DRIVE,ANDOVER,MA,01810-1023,,"Other organization in ANDOVER, MA with annual revenue of approximately $35M",
FOCUSING PHILANTHROPY INC,452405071,Community,1637 16TH ST,SANTA MONICA,CA,90404-3801,,"Community organization in SANTA MONICA, CA with annual revenue of approximately $35M",
WEST SIDE FEDERATION FOR SENIOR HOUSING INC,132926433,Human Services,2345 BROADWAY 2ND FLOOR,NEW YORK,NY,10024-3213,,"Human Services organization in NEW YORK, NY with annual revenue of approximately $35M",
SUNCOAST PACE INC,452980257,Human Services,6310 CAPITAL DRIVE,LAKEWOOD RANCH,FL,34202-5013,,"Human Services organization in LAKEWOOD RANCH, FL with annual revenue of approximately $35M",
ASIAN ART MUSEUM FOUNDATION OF SAN FRANCISCO,941704765,Arts & Culture,200 LARKIN ST,SAN FRANCISCO,CA,94102-4734,,"Arts & Culture organization in SAN FRANCISCO, CA with annual revenue of approximately $35M",
EDEN REFORESTATION PROJECTS,954804581,International,303 W FOOTHILL BLVD STE 13,GLENDORA,CA,91741-3386,,"International organization in GLENDORA, CA with annual revenue of approximately $35M",
NAMI NATIONAL,431201653,Health,4301 WILSON BLVD STE 300,ARLINGTON,VA,22203-1867,,"Health organization in ARLINGTON, VA with annual revenue of approximately $35M",
ST BERNARD PROJECT INC,262189665,Human Services,2645 TOULOUSE ST,NEW ORLEANS,LA,70119-5045,,"Human Services organization in NEW ORLEANS, LA with annual revenue of approximately $35M",
AMERICAN FILM INSTITUTE INC,526072925,Arts & Culture,2021 N WESTERN AVE,LOS ANGELES,CA,90027-1625,,"Arts & Culture organization in LOS ANGELES, CA with annual revenue of approximately $35M",
VOLUNTEERS OF AMERICA INC,946001984,Other,3434 MARCONI AVENUE,SACRAMENTO,CA,95821-6242,,"Other organization in SACRAMENTO, CA with annual revenue of approximately $35M",
INTERNATIONAL UNION OF OPERATING ENGINEERS NATIONAL TRAINING FUND,521889259,Human Services,1125 17TH STREET NW,WASHINGTON,DC,20036-4709,,"Human Services organization in WASHINGTON, DC with annual revenue of approximately $35M",
INTRINSIC SCHOOLS,455454261,Education,4540 W BELMONT AVE,CHICAGO,IL,60641-4541,,"Education organization in CHICAGO, IL with annual revenue of approximately $35M",
NEIGHBORHOOD CHARTER SCHOOL OF HARLEM,453355866,Education,691 SAINT NICHOLAS AVE,NEW YORK,NY,10030-1001,,"Education organization in NEW YORK, NY with annual revenue of approximately $35M",
YOUNG MENS CHRISTIAN ASSOCIATION OF THE FOX CITIES INC,390806191,Human Services,218 E LAWRENCE ST,APPLETON,WI,54911-5724,,"Human Services organization in APPLETON, WI with annual revenue of approximately $35M",
INDEPENDENT SCHOOL DISTRICT NO 535 HEALTH & DENTAL CARE,416255919,Other,615 7TH ST SW,ROCHESTER,MN,55902-2052,,"Other organization in ROCHESTER, MN with annual revenue of approximately $35M",
UNIVERSITY OF THE NATIONS INC,990240539,Education,75-5851 KUAKINI HWY 433,KAILUA KONA,HI,96740-2199,,"Education organization in KAILUA KONA, HI with annual revenue of approximately $35M",
ARKANSAS CHILDRENS INC,810801296,Health,1 CHILDRENS WAY,LITTLE ROCK,AR,72202-3500,,"Health organization in LITTLE ROCK, AR with annual revenue of approximately $35M",
ST BERNARD HOSPITAL FOUNDATION INC,274511973,Health,8000 W JUDGE PEREZ DR,CHALMETTE,LA,70043-1668,,"Health organization in CHALMETTE, LA with annual revenue of approximately $35M",
ORLANDO LUTHERAN TOWERS INC,591646654,Human Services,300 E CHURCH ST,ORLANDO,FL,32801-3544,,"Human Services organization in ORLANDO, FL with annual revenue of approximately $35M",
TROY COMMUNITY HOSPITAL INCORPORATED,240800337,Health,275 GUTHRIE DR,TROY,PA,16947-8115,,"Health organization in TROY, PA with annual revenue of approximately $35M",
COMMUNITY SOLIDARITY INC,900653622,Human Services,PO BOX 208,HUNTINGTON,NY,11743-0208,,"Human Services organization in HUNTINGTON, NY with annual revenue of approximately $35M",
BONEI OLAM INC,113473757,Human Services,4205 17TH AVE APT 1,BROOKLYN,NY,11204-1029,,"Human Services organization in BROOKLYN, NY with annual revenue of approximately $35M",
NEW NARRATIVE,930685734,Human Services,8915 SW CENTER ST,TIGARD,OR,97223-6307,,"Human Services organization in TIGARD, OR with annual revenue of approximately $35M",
MENTAL HEALTH SERVICES ERIE COUNTY SOUTH EAST CORP V SPECTRUM HUMAN,161019944,Other,227 THORN AVE,ORCHARD PARK,NY,14127-2600,,"Other organization in ORCHARD PARK, NY with annual revenue of approximately $35M",
EDWARD WATERS UNIVERSITY INC,591146751,Education,1658 KINGS RD,JACKSONVILLE,FL,32209-6167,,"Education organization in JACKSONVILLE, FL with annual revenue of approximately $35M",
COVENANT MISSIONS,851701021,Other,19200 FRAZHO RD,ROSEVILLE,MI,48066-3506,,"Other organization in ROSEVILLE, MI with annual revenue of approximately $35M",
ALLIED SERVICES SKILLED NURSING CENTER,232523688,Health,100 ABINGTON EXECUTIVE PARK,CLARKS SUMMIT,PA,18411-2260,,"Health organization in CLARKS SUMMIT, PA with annual revenue of approximately $35M",
FOCUS HOPE,381948285,Human Services,1400 OAKMAN BLVD,DETROIT,MI,48238-2848,,"Human Services organization in DETROIT, MI with annual revenue of approximately $35M",
PATHWAYS PSYCHIATRIC HOSPITAL INC,300255522,Health,1800 COMMUNITY,CLINTON,MO,64735-8804,,"Health organization in CLINTON, MO with annual revenue of approximately $35M",
BOSTON ATHLETIC ASSOC,046111707,Other,699 BOYLSTON STREET,BOSTON,MA,02116-2848,,"Other organization in BOSTON, MA with annual revenue of approximately $35M",
FAY SCHOOL INC,042103573,Education,48 MAIN ST,SOUTHBOROUGH,MA,01772-1509,,"Education organization in SOUTHBOROUGH, MA with annual revenue of approximately $35M",
INNOVIA FOUNDATION,910941053,Community,818 W RIVERSIDE AVE STE 650,SPOKANE,WA,99201-0909,,"Community organization in SPOKANE, WA with annual revenue of approximately $35M",
VOCATIONAL DEVELOPMENT FOUNDATION,931300043,Human Services,1943 SE 6TH AVE,PORTLAND,OR,97214-4508,,"Human Services organization in PORTLAND, OR with annual revenue of approximately $35M",
NORTHWEST HUMAN SERVICES INC,930605570,Human Services,681 CENTER ST NE,SALEM,OR,97301-3722,,"Human Services organization in SALEM, OR with annual revenue of approximately $35M",
PENDER MEMORIAL HOSPITAL INCORPORATED,560653348,Health,2085 FRONTIS PLAZA BLVD,WINSTON SALEM,NC,27103-5614,,"Health organization in WINSTON SALEM, NC with annual revenue of approximately $35M",
CHRISTOPHER GREATER AREA RURAL HEALTH PLANNING CORPORATION,371041283,Health,PO BOX 155,CHRISTOPHER,IL,62822-0155,,"Health organization in CHRISTOPHER, IL with annual revenue of approximately $35M",
NEW ALTERNATIVES FOR CHILDREN INC,133149298,Other,825 7TH AVE FLOOR 9,NEW YORK,NY,10019-6014,,"Other organization in NEW YORK, NY with annual revenue of approximately $35M",
UNIVERSITY STUDENT HOUSING,820571540,Education,202 CARTER DR,WEST CHESTER,PA,19382-4972,,"Education organization in WEST CHESTER, PA with annual revenue of approximately $35M",
CALIFORNIA STATE UNIVERSITY FRESNO ASSOCIATION INC,941512286,Education,2771 E SHAW AVE,FRESNO,CA,93710-8205,,"Education organization in FRESNO, CA with annual revenue of approximately $35M",
COMMUNITY PARTNERS INTERNATIONAL,943375666,Human Services,580 CALIFORNIA ST,SAN FRANCISCO,CA,94104-1000,,"Human Services organization in SAN FRANCISCO, CA with annual revenue of approximately $35M",
THE SANTA FE OPERA,850131810,Arts & Culture,PO BOX 2408,SANTA FE,NM,87504-2408,,"Arts & Culture organization in SANTA FE, NM with annual revenue of approximately $35M",
MONTANA COMMUNITY DEVELOPMENT CORPORATION,810500256,Community,229 E MAIN ST,MISSOULA,MT,59802-4423,,"Community organization in MISSOULA, MT with annual revenue of approximately $35M",
ACHIEVA SUPPORT,251031932,Human Services,711 BINGHAM STREET,PITTSBURGH,PA,15203-1011,,"Human Services organization in PITTSBURGH, PA with annual revenue of approximately $35M",
NATHAN ADELSON HOSPICE INC,880161009,Human Services,4141 S SWENSON STREET,LAS VEGAS,NV,89119-6718,,"Human Services organization in LAS VEGAS, NV with annual revenue of approximately $35M",
INTERFAITH COMMUNITY SERVICES INC,953837714,Other,550 W WASHINGTON AVE,ESCONDIDO,CA,92025-1629,,"Other organization in ESCONDIDO, CA with annual revenue of approximately $35M",
ST PATRICKS HOME FOR THE AGED AND INFIRM,131740033,Health,66 VAN CORTLANDT PARK S,BRONX,NY,10463-3102,,"Health organization in BRONX, NY with annual revenue of approximately $35M",
NYSARC INC,141560053,Other,436 QUAKER RD,QUEENSBURY,NY,12804-1535,,"Other organization in QUEENSBURY, NY with annual revenue of approximately $35M",
BALTIMORE COMMUNITY FOUNDATION INC,237180620,Community,11 EAST MOUNT ROYAL AVENUE 2ND FLOO,BALTIMORE,MD,21202-5513,,"Community organization in BALTIMORE, MD with annual revenue of approximately $35M",
YOUNG MENS CHRISTIAN ASSOCIATION OF METRO NORTH INC,042105883,Human Services,10 CENTENNIAL DRIVE,PEABODY,MA,01960-7938,,"Human Services organization in PEABODY, MA with annual revenue of approximately $35M",
LOURDES UNIVERSITY,341226547,Education,6832 CONVENT BLVD,SYLVANIA,OH,43560-4805,,"Education organization in SYLVANIA, OH with annual revenue of approximately $35M",
WATER FOR PEOPLE,841166148,International,7100 E BELLEVIEW AVE,GREENWOOD VILLAGE,CO,80111-1632,,"International organization in GREENWOOD VILLAGE, CO with annual revenue of approximately $35M",
ARC OF NEW JERSEY INC,221686764,Other,70 DIAMOND RD,SPRINGFIELD,NJ,07081-3119,,"Other organization in SPRINGFIELD, NJ with annual revenue of approximately $35M",
COMMUNITY DEVELOPMENT CORPORATION OF UTAH,870476889,Human Services,501 E 1700 S,SALT LAKE CTY,UT,84105-2915,,"Human Services organization in SALT LAKE CTY, UT with annual revenue of approximately $35M",
PECONIC LANDING AT SOUTHOLD INC,113277669,Human Services,1500 BRECKNOCK ROAD,GREENPORT,NY,11944-3117,,"Human Services organization in GREENPORT, NY with annual revenue of approximately $35M",
GOODWILL INDUSTRIES OF DALLAS INC,750800649,Human Services,3020 N WESTMORELAND RD,DALLAS,TX,75212-3647,,"Human Services organization in DALLAS, TX with annual revenue of approximately $35M",
USA TRACK & FIELD INC,351475847,Human Services,130 E WASHINGTON ST STE 800,INDIANAPOLIS,IN,46204-4619,,"Human Services organization in INDIANAPOLIS, IN with annual revenue of approximately $35M",
MIAMI CEREBRAL PALSY RESIDENTIAL SERVICES INC,592210228,Other,2700 W 81ST ST,HIALEAH,FL,33016-2732,,"Other organization in HIALEAH, FL with annual revenue of approximately $35M",
MHNU CORPORATION,800445929,Human Services,180 N STETSON AVE STE 600-1,CHICAGO,IL,60601-6822,,"Human Services organization in CHICAGO, IL with annual revenue of approximately $34M",
HUMANGOOD FRESNO,260650298,Human Services,1900 HUNTINGTON DR,DUARTE,CA,91010-2694,,"Human Services organization in DUARTE, CA with annual revenue of approximately $34M",
GUILD FOR EXCEPTIONAL CHILDREN,116037766,Human Services,260 68TH ST,BROOKLYN,NY,11220-5201,,"Human Services organization in BROOKLYN, NY with annual revenue of approximately $34M",
AUTISM SPEAKS INC,202329938,Health,50 F ST NW STE 360,WASHINGTON,DC,20001-1530,,"Health organization in WASHINGTON, DC with annual revenue of approximately $34M",
TRIANGLE LAND CONSERVANCY INC,581514406,Environment,520 S DUKE ST,DURHAM,NC,27701-3116,,"Environment organization in DURHAM, NC with annual revenue of approximately $34M",
AHSNF INC,842727303,Health,PO BOX 32861,CHARLOTTE,NC,28232-2861,,"Health organization in CHARLOTTE, NC with annual revenue of approximately $34M",
THE BETHEL SPRINGVALE NURSING HOME INC,133844619,Health,2042 ALBANY POST RD STE 8,CROTON HDSN,NY,10520-1169,,"Health organization in CROTON HDSN, NY with annual revenue of approximately $34M",
THOMAS JEFFERSON FOUNDATION INC,540505959,Arts & Culture,1070 MONTICELLO LOOP,CHARLOTTESVLE,VA,22902-7506,,"Arts & Culture organization in CHARLOTTESVLE, VA with annual revenue of approximately $34M",
INTERNATIONAL COUNCIL ON CLEAN TRANSPORTATION,203076690,Environment,1500 K ST NW STE 650,WASHINGTON,DC,20005-1209,,"Environment organization in WASHINGTON, DC with annual revenue of approximately $34M",
HEALTHFIRST BLUEGRASS INC,452710251,Health,453 SOUTHLAND DR,LEXINGTON,KY,40503-1826,,"Health organization in LEXINGTON, KY with annual revenue of approximately $34M",
UNIVERSITY AT BUFFALO SURGEONS INC,800033443,Education,462 GRIDER ST,BUFFALO,NY,14215-3021,,"Education organization in BUFFALO, NY with annual revenue of approximately $34M",
COMMUNITY SERVICES & EMPLOYMENT TRAINING INC,941701352,Other,312 NW 3RD AVE,VISALIA,CA,93291-3626,,"Other organization in VISALIA, CA with annual revenue of approximately $34M",
CLASSICAL CHARTER SCHOOLS OF AMERIC A INC,562173031,Education,7055 BACONS WAY NE,LELAND,NC,28451-7960,,"Education organization in LELAND, NC with annual revenue of approximately $34M",
PRESBYTERIAN HOMES OF ARDEN HILLS INC,411482075,Human Services,2845 HAMLINE AVE N,ROSEVILLE,MN,55113-1888,,"Human Services organization in ROSEVILLE, MN with annual revenue of approximately $34M",
TREASURE COAST COMMUNITY HEALTH INC,593219191,Health,12196 COUNTY ROAD 512,FELLSMERE,FL,32948-5463,,"Health organization in FELLSMERE, FL with annual revenue of approximately $34M",
CORBAN UNIVERSITY,941312349,Education,5000 DEER PARK DR SE,SALEM,OR,97317-9392,,"Education organization in SALEM, OR with annual revenue of approximately $34M",
ICS SUPPORT ORGANIZATION INC,273167963,Education,10405 W SAINT MARTINS RD,FRANKLIN,WI,53132-2421,,"Education organization in FRANKLIN, WI with annual revenue of approximately $34M",
LEGACY CHRISTIAN ACADEMY,752805332,Education,5000 ACADEMY DR,FRISCO,TX,75034-1206,,"Education organization in FRISCO, TX with annual revenue of approximately $34M",
RICHLAND COUNTY PUBLIC LIBRARY,576000396,Education,1431 ASSEMBLY ST,COLUMBIA,SC,29201-3101,,"Education organization in COLUMBIA, SC with annual revenue of approximately $34M",
EDISON WELDING INSTITUTE INC,311119893,Human Services,1250 ARTHUR E ADAMS DR,COLUMBUS,OH,43221-3560,,"Human Services organization in COLUMBUS, OH with annual revenue of approximately $34M",
LONGWOOD AT OAKMONT INC,232605414,Human Services,500 ROUTE 909,VERONA,PA,15147-3831,,"Human Services organization in VERONA, PA with annual revenue of approximately $34M",
ANNIE WRIGHT SCHOOLS,910567266,Other,827 N TACOMA AVE,TACOMA,WA,98403-2832,,"Other organization in TACOMA, WA with annual revenue of approximately $34M",
FRIO HOSPITAL ASSOCIATION,741461220,Health,200 S INTERSTATE 35,PEARSALL,TX,78061-6601,,"Health organization in PEARSALL, TX with annual revenue of approximately $34M",
WEST TEXAS OPPORTUNITIES,751226644,Human Services,PO BOX 1308,LAMESA,TX,79331-1308,,"Human Services organization in LAMESA, TX with annual revenue of approximately $34M",
CAL RIPKEN SR FOUNDATION INC,522310500,Education,1427 CLARKVIEW RD STE 100,BALTIMORE,MD,21209-0030,,"Education organization in BALTIMORE, MD with annual revenue of approximately $34M",
AMERICAN DENTAL EDUCATION ASSOCIATION,911993281,Education,655 K ST NW STE 800,WASHINGTON,DC,20001-2399,,"Education organization in WASHINGTON, DC with annual revenue of approximately $34M",
HOYLETON YOUTH AND FAMILY SERVICES,371222958,Education,350 N MAIN ST,HOYLETON,IL,62803-2006,,"Education organization in HOYLETON, IL with annual revenue of approximately $34M",
WOODCRAFT RANGERS,951729319,Other,340 E 2ND ST STE 200,LOS ANGELES,CA,90012-4249,,"Other organization in LOS ANGELES, CA with annual revenue of approximately $34M",
LUTHERAN HOMES SOCIETY INC,311565719,Human Services,2021 N MCCORD RD,TOLEDO,OH,43615-3030,,"Human Services organization in TOLEDO, OH with annual revenue of approximately $34M",
CENTRO DE SALUD FAMILIAR DR JULIO PALMIERI FERRI INC,660496484,Health,PO BOX 450,ARROYO,PR,00714-0450,,"Health organization in ARROYO, PR with annual revenue of approximately $34M",
THE ARC OF CENTRAL ALABAMA INC,630375738,Other,6001 CRESTWOOD BLVD,BIRMINGHAM,AL,35212-4203,,"Other organization in BIRMINGHAM, AL with annual revenue of approximately $34M",
ALEUTIAN-PRIBILOF ISLANDS,920073013,Community,1131 E INTERNATIONAL AIRPORT RD,ANCHORAGE,AK,99518-1408,,"Community organization in ANCHORAGE, AK with annual revenue of approximately $34M",
CHILDRENS GUILD INC,520634411,Human Services,6802 MCCLEAN BLVD,BALTIMORE,MD,21234-7260,,"Human Services organization in BALTIMORE, MD with annual revenue of approximately $34M",
FEDERAL DEFENDERS OF SAN DIEGO INC,952678506,Other,225 BROADWAY STE 900,SAN DIEGO,CA,92101-5030,,"Other organization in SAN DIEGO, CA with annual revenue of approximately $34M",
BORDER REGION MHMR COMMUNITY CENTER,742944931,Health,1500 PAPPAS ST,LAREDO,TX,78041-1701,,"Health organization in LAREDO, TX with annual revenue of approximately $34M",
SENIORSPLUS,010317103,Human Services,8 FALCON RD,LEWISTON,ME,04240-5815,,"Human Services organization in LEWISTON, ME with annual revenue of approximately $34M",
HEARTLAND ALLIANCE HEALTH,363775696,Health,4730 N WINTHROP AVE,CHICAGO,IL,60640-5034,,"Health organization in CHICAGO, IL with annual revenue of approximately $34M",
PHOEBE BERKS HEALTH CARE CENTER INC,232560952,Health,1 HEIDELBERG DR,WERNERSVILLE,PA,19565-1642,,"Health organization in WERNERSVILLE, PA with annual revenue of approximately $34M",
MILWAUKEE REPERTORY THEATER INC,390946025,Arts & Culture,108 E WELLS ST,MILWAUKEE,WI,53202-3504,,"Arts & Culture organization in MILWAUKEE, WI with annual revenue of approximately $34M",
CHRIS 180 INC,581430183,Human Services,1030 FAYETTEVILLE RD SE,ATLANTA,GA,30316-2921,,"Human Services organization in ATLANTA, GA with annual revenue of approximately $34M",
SHOCK TRAUMA ASSOCIATES PA,521119350,Health,11 S PACA ST STE 500,BALTIMORE,MD,21201-1712,,"Health organization in BALTIMORE, MD with annual revenue of approximately $34M",
ALEXANDER YOUTH NETWORK,560554413,Human Services,6220 THERMAL RD,CHARLOTTE,NC,28211-5630,,"Human Services organization in CHARLOTTE, NC with annual revenue of approximately $34M",
ARKANSAS VIRTUAL ACADEMY,432017445,Education,717 W 7TH ST,LITTLE ROCK,AR,72201-4001,,"Education organization in LITTLE ROCK, AR with annual revenue of approximately $34M",
ACCESSIBLE SPACE INC,411330242,Human Services,2550 UNIVERSITY AVE W STE 330N,SAINT PAUL,MN,55114-1085,,"Human Services organization in SAINT PAUL, MN with annual revenue of approximately $34M",
BCFS HEALTH AND HUMAN SERVICES,741260710,Human Services,PO BOX 460608,SAN ANTONIO,TX,78246-0608,,"Human Services organization in SAN ANTONIO, TX with annual revenue of approximately $34M",
MISSION PRE-BORN INC,208755673,Human Services,PO BOX 78221,INDIANAPOLIS,IN,46278-0221,,"Human Services organization in INDIANAPOLIS, IN with annual revenue of approximately $34M",
MORAVIAN MANORS INC,140810461,Health,300 W LEMON ST,LITITZ,PA,17543-2311,,"Health organization in LITITZ, PA with annual revenue of approximately $34M",
COMMUNITY HEALTH CENTERS INC,742412898,Health,1455 W 2200 S STE 300,W VALLEY CITY,UT,84119-7219,,"Health organization in W VALLEY CITY, UT with annual revenue of approximately $34M",
HEARTLAND FAMILY SERVICE,470390618,Human Services,2101 S 42 ST 3RD FLOOR ADMIN,OMAHA,NE,68105-2909,,"Human Services organization in OMAHA, NE with annual revenue of approximately $34M",
EPIC LONG ISLAND INC,111821135,Health,1500 HEMPSTEAD TPKE,EAST MEADOW,NY,11554-1551,,"Health organization in EAST MEADOW, NY with annual revenue of approximately $34M",
SILICON VALLEY INTERNATIONAL SCHOOL,942599581,Other,151 LAURA LN,PALO ALTO,CA,94303-3221,,"Other organization in PALO ALTO, CA with annual revenue of approximately $34M",
COMMUNITY HEALTH PROGRAMS INC,042582119,Other,PO BOX 30,GT BARRINGTON,MA,01230-0030,,"Other organization in GT BARRINGTON, MA with annual revenue of approximately $34M",
PROJECT KITTY HAWK INC,873871908,Education,101 GLEN LENNOX DR UNIT 300,CHAPEL HILL,NC,27517-4089,,"Education organization in CHAPEL HILL, NC with annual revenue of approximately $34M",
AUSTIN AFFORDABLE HOUSING CORPORATION,412121187,Human Services,1124 S IH 35,AUSTIN,TX,78704-2614,,"Human Services organization in AUSTIN, TX with annual revenue of approximately $34M",
GOOD SHEPHERD HOSPICE INC,205276923,Health,12470 TELECOM DR STE 300,TEMPLE TERR,FL,33637-0904,,"Health organization in TEMPLE TERR, FL with annual revenue of approximately $34M",
BUCKNER CHILDREN AND FAMILY SERVICES INC,752571395,Human Services,700 N PEARL ST STE 1200,DALLAS,TX,75201-7405,,"Human Services organization in DALLAS, TX with annual revenue of approximately $34M",
LIVINGSTON COMMUNITY HEALTH,941719656,Health,600 B STREET BLDG A,LIVINGSTON,CA,95334-9593,,"Health organization in LIVINGSTON, CA with annual revenue of approximately $34M",
NATIONAL BREAST CANCER FOUNDATION INC,752391148,Health,7460 WARREN PKWY STE 150,FRISCO,TX,75034-4269,,"Health organization in FRISCO, TX with annual revenue of approximately $34M",
RIVER VALLEY CHILD DEVELOPMENT SERVICES INC,550706025,Human Services,2021 5TH AVE W,HUNTINGTON,WV,25704-2102,,"Human Services organization in HUNTINGTON, WV with annual revenue of approximately $34M",
LONG ISLAND CARES INC,112524512,Human Services,10 DAVIDS DR,HAUPPAUGE,NY,11788-2039,,"Human Services organization in HAUPPAUGE, NY with annual revenue of approximately $34M",
MORRISTOWN-BEARD SCHOOL,221487252,Education,70 WHIPPANY RD,MORRISTOWN,NJ,07960-4523,,"Education organization in MORRISTOWN, NJ with annual revenue of approximately $34M",
MOUNT MARTY UNIVERSITY,460283336,Education,1105 W 8TH ST,YANKTON,SD,57078-3725,,"Education organization in YANKTON, SD with annual revenue of approximately $34M",
OAK ORCHARD COMMUNITY INC,161020913,Health,300 WEST AVE,BROCKPORT,NY,14420-1118,,"Health organization in BROCKPORT, NY with annual revenue of approximately $34M",
PAIDEIA SCHOOL INCORPORATED,237089522,Other,1509 PONCE DE LEON AVE NE,ATLANTA,GA,30307-1617,,"Other organization in ATLANTA, GA with annual revenue of approximately $34M",
OZARK TRI-COUNTY HEALTH CARE CONSORTIUM,431752799,Human Services,475 NELSON AVE,NEOSHO,MO,64850-8825,,"Human Services organization in NEOSHO, MO with annual revenue of approximately $34M",
PELOTONIA,824997087,Education,2281 KENNY ROAD SUITE 450,COLUMBUS,OH,43210-1158,,"Education organization in COLUMBUS, OH with annual revenue of approximately $34M",
LEAP ACADEMY CHARTER SCHOOL,223494324,Education,130 N BROADWAY,CAMDEN,NJ,08102-1112,,"Education organization in CAMDEN, NJ with annual revenue of approximately $34M",
INSPIRA HEALTH NETWORK LIFE INC,264827936,Health,165 BRIDGETON PIKE,MULLICA HILL,NJ,08062-2669,,"Health organization in MULLICA HILL, NJ with annual revenue of approximately $34M",
MARYHAVEN INC,310732345,Health,1791 ALUM CREEK DR,COLUMBUS,OH,43207-1708,,"Health organization in COLUMBUS, OH with annual revenue of approximately $34M",
BAPTIST MEMORIAL HOSPITAL HUNTINGDON,621166050,Health,631 RB WILSON DR,HUNTINGDON,TN,38344-1727,,"Health organization in HUNTINGDON, TN with annual revenue of approximately $34M",
EASTERN NATIONAL,231401703,Human Services,1301 VIRGINIA DR STE 425,FORT WASHINGTON,PA,19034-3231,,"Human Services organization in FORT WASHINGTON, PA with annual revenue of approximately $34M",
TWIN TOWERS,310536677,Human Services,5343 HAMILTON AVE,CINCINNATI,OH,45224-3130,,"Human Services organization in CINCINNATI, OH with annual revenue of approximately $34M",
HEMOPHILIA OF GEORGIA INC,581175625,Health,8607 ROBERTS DRIVE,SANDY SPRINGS,GA,30350-2238,,"Health organization in SANDY SPRINGS, GA with annual revenue of approximately $34M",
METHODIST HOSPITAL SELF INSURANCE TRUST,741948396,Other,6565 FANNIN GB240,HOUSTON,TX,77030-2703,,"Other organization in HOUSTON, TX with annual revenue of approximately $34M",
SJOUWERMAN FOUNDATION INC,822122450,Community,4518 N 32ND ST,PHOENIX,AZ,85018-3303,,"Community organization in PHOENIX, AZ with annual revenue of approximately $34M",
JOHN MUIR FOUNDATION,942650855,Health,1400 TREAT BLVD,WALNUT CREEK,CA,94597-2142,,"Health organization in WALNUT CREEK, CA with annual revenue of approximately $34M",
THE BRANSON SCHOOL,940338330,Education,39 FERNHILL AVE 887,ROSS,CA,94957-9655,,"Education organization in ROSS, CA with annual revenue of approximately $34M",
NATIONAL ASSOCIATION OF STATE PROCUREMENT OFFICIALS,611227864,Education,110 W VINE ST STE 600,LEXINGTON,KY,40507-1783,,"Education organization in LEXINGTON, KY with annual revenue of approximately $34M",
MED-PROJECT USA,843694182,Health,1800 M STREET NW SUITE 400 SOUTH,WASHINGTON,DC,20036-5878,,"Health organization in WASHINGTON, DC with annual revenue of approximately $34M",
TRINITY VALLEY SCHOOL,751099126,Education,7500 DUTCH BRANCH RD,FORT WORTH,TX,76132-4110,,"Education organization in FORT WORTH, TX with annual revenue of approximately $34M",
ASPHALT GREEN INC,136533158,Human Services,555 E 90TH ST,NEW YORK,NY,10128-7803,,"Human Services organization in NEW YORK, NY with annual revenue of approximately $34M",
E-STEM HIGH PUBLIC CHARTER SCHOOLS INC,260738981,Education,200 RIVER MARKET AVENUE 225,LITTLE ROCK,AR,72201-1752,,"Education organization in LITTLE ROCK, AR with annual revenue of approximately $34M",
BROOKLYN BRIDGE PARK CORPORATION,272846763,Human Services,334 FURMAN STREET,BROOKLYN,NY,11201-9750,,"Human Services organization in BROOKLYN, NY with annual revenue of approximately $34M",
LIFELINE YOUTH & FAMILY SERVICES INC,320420745,Human Services,4150 ILLINOIS RD,FORT WAYNE,IN,46804-1208,,"Human Services organization in FORT WAYNE, IN with annual revenue of approximately $34M",
CHRIST CHURCH EPISCOPAL SCHOOL,571122062,Education,245 CAVALIER DR,GREENVILLE,SC,29607-4265,,"Education organization in GREENVILLE, SC with annual revenue of approximately $34M",
ASIAN AMERICAN HEALTH COALITION OF THE GREATER HOUSTON AREA,311756818,Health,13930 BELLAIRE BLVD,HOUSTON,TX,77083-1719,,"Health organization in HOUSTON, TX with annual revenue of approximately $34M",
UNITED WAY OF GREATER ROCHESTER AND THE FINGER LAKES INC,161015782,Community,75 COLLEGE AVE,ROCHESTER,NY,14607-1009,,"Community organization in ROCHESTER, NY with annual revenue of approximately $34M",
SEARCH FOR COMMON GROUND,521257425,International,1730RHODE IS AVE 11TH FL,WASHINGTON,DC,20036-3101,,"International organization in WASHINGTON, DC with annual revenue of approximately $34M",
FIRST CARE MEDICAL SERVICES,410706143,Health,900 HILLIGOSS BLVD SE,FOSSTON,MN,56542-1542,,"Health organization in FOSSTON, MN with annual revenue of approximately $34M",
SOUTHWEST FLORIDA RETIREMENT CENTER,591931148,Human Services,920 TAMIAMI TRL S,VENICE,FL,34285-3629,,"Human Services organization in VENICE, FL with annual revenue of approximately $34M",
WASHBURN UNIVERSITY FOUNDATION,486105561,Education,1700 SW COLLEGE AVE,TOPEKA,KS,66621-0001,,"Education organization in TOPEKA, KS with annual revenue of approximately $34M",
PAULS RUN,232053395,Human Services,9896 BUSTLETON AVE,PHILADELPHIA,PA,19115-5202,,"Human Services organization in PHILADELPHIA, PA with annual revenue of approximately $34M",
FRONTIER SCHOOLS INC,421692516,Education,6800 CORPORATE DR,KANSAS CITY,MO,64120-1323,,"Education organization in KANSAS CITY, MO with annual revenue of approximately $34M",
YOUNG MENS CHRISTIAN ASSOCIATION,730579270,Human Services,500 N BROADWAY AVE STE 500,OKLAHOMA CITY,OK,73102-6208,,"Human Services organization in OKLAHOMA CITY, OK with annual revenue of approximately $34M",
THE ST FRANCIS HOSPITAL FOUNDATION INC,112916033,Health,100 PORT WASHINGTON BLVD,ROSLYN,NY,11576-1347,,"Health organization in ROSLYN, NY with annual revenue of approximately $34M",
HELIOS EDUCATION FOUNDATION,942850977,Community,4747 N 32ND ST,PHOENIX,AZ,85018-3306,,"Community organization in PHOENIX, AZ with annual revenue of approximately $34M",
CONEY ISLAND MEDICAL PRACTICE PLAN PC,800639088,Health,234 EAST 149TH STREET 8D200,BRONX,NY,10451-5504,,"Health organization in BRONX, NY with annual revenue of approximately $34M",
RIVER CROSSING YOUNG MENS CHRISTIAN ASSOCIATION,231903158,Human Services,2500 LOWER STATE RD,DOYLESTOWN,PA,18901-2634,,"Human Services organization in DOYLESTOWN, PA with annual revenue of approximately $34M",
ROANOKE CHOWAN COMMUNITY HEALTH CENTER INC,421638714,Health,PO BOX 669,AHOSKIE,NC,27910-0669,,"Health organization in AHOSKIE, NC with annual revenue of approximately $34M",
PRYMED MEDICAL CARE INC,660428120,Health,PO BOX 1427,CIALES,PR,00638-1427,,"Health organization in CIALES, PR with annual revenue of approximately $34M",
CASTILLEJA SCHOOL FOUNDATION,940373222,Education,1310 BRYANT ST,PALO ALTO,CA,94301-3507,,"Education organization in PALO ALTO, CA with annual revenue of approximately $34M",
UNITED WAY OF CONNECTICUT,061084194,Community,55 CAPITAL BLVD 3RD FLOOR,ROCKY HILL,CT,06067-3927,,"Community organization in ROCKY HILL, CT with annual revenue of approximately $34M",
NORTON MUSEUM OF ART INC,590624432,Arts & Culture,1450 S DIXIE HWY,WEST PALM BCH,FL,33401-6405,,"Arts & Culture organization in WEST PALM BCH, FL with annual revenue of approximately $34M",
EAST HARLEM SCHOLARS ACADEMY,274713450,Education,2050 2ND AVE,NEW YORK,NY,10029-4704,,"Education organization in NEW YORK, NY with annual revenue of approximately $34M",
ARCHDIOCESE OF LOS ANGELES FUNERAL AND MORTUARY SERVICES CORPORATION,813006840,Other,3424 WILSHIRE BLVD,LOS ANGELES,CA,90010-2202,,"Other organization in LOS ANGELES, CA with annual revenue of approximately $34M",
KARUNA FOUNDATION,854026412,Health,7522 MONARCH RD,NIWOT,CO,80503-8630,,"Health organization in NIWOT, CO with annual revenue of approximately $34M",
THE SHALOM HARTMAN INSTITUTE OF NORTH AMERICA,133014387,International,475 RIVERSIDE DR STE 1450,NEW YORK,NY,10115-0114,,"International organization in NEW YORK, NY with annual revenue of approximately $34M",
THE LEGACY MIDTOWN PARK INC,472890521,Human Services,8240 MANDERVILLE LN,DALLAS,TX,75231-1104,,"Human Services organization in DALLAS, TX with annual revenue of approximately $34M",
COLUMBUS JEWISH FOUNDATION,311384772,Community,1175 COLLEGE AVE,COLUMBUS,OH,43209-2827,,"Community organization in COLUMBUS, OH with annual revenue of approximately $34M",
CENTER FOR BIOLOGICAL DIVERSITY INC,273943866,Health,PO BOX 710,TUCSON,AZ,85702-0710,,"Health organization in TUCSON, AZ with annual revenue of approximately $34M",
CENTRO DE SERVICIOS PRIMARIOS DE SALUD DE PATILLAS INC,660430826,Other,PO BOX 697,PATILLAS,PR,00723-0697,,"Other organization in PATILLAS, PR with annual revenue of approximately $34M",
NEW DIRECTIONS YOUTH AND FAMILY SERVICES INC,160743220,Human Services,356 MAIN STREET ER,RANDOLPH,NY,14772-9696,,"Human Services organization in RANDOLPH, NY with annual revenue of approximately $34M",
INTERNATIONAL FALLS MEMORIAL HOSPITAL ASSN,410726171,Health,1400 HIGHWAY 71,INTL FALLS,MN,56649-2154,,"Health organization in INTL FALLS, MN with annual revenue of approximately $34M",
HCSC BLOOD CENTER,231731796,Health,2171 28TH ST SW,ALLENTOWN,PA,18103-7073,,"Health organization in ALLENTOWN, PA with annual revenue of approximately $34M",
UPMC,821600494,Health,600 GRANT ST FL 56,PITTSBURGH,PA,15219-2730,,"Health organization in PITTSBURGH, PA with annual revenue of approximately $34M",
NEW WORLD SYMPHONY INC,592809056,Education,500 17TH ST,MIAMI BEACH,FL,33139-1862,,"Education organization in MIAMI BEACH, FL with annual revenue of approximately $34M",
BAKER CHARTER SCHOOLS ORGANIZATION,264077120,Education,3000 BROADWAY ST,BAKER CITY,OR,97814-3275,,"Education organization in BAKER CITY, OR with annual revenue of approximately $34M",
CHILDRENS CRISIS TREATMENT CENTER INC,232065617,Health,1080 N DELAWARE AVE,PHILADELPHIA,PA,19125-4330,,"Health organization in PHILADELPHIA, PA with annual revenue of approximately $34M",
URBAN JUSTICE CENTER,133442022,Other,40 RECTOR STREET 9TH FLOOR,NEW YORK,NY,10006-1732,,"Other organization in NEW YORK, NY with annual revenue of approximately $34M",
HOMEWOOD LIVING PLUM CREEK INC,521931788,Human Services,16107 ELLIOTT PKWY,WILLIAMSPORT,MD,21795-4084,,"Human Services organization in WILLIAMSPORT, MD with annual revenue of approximately $34M",
MASSACHUSETTS LEAGUE OF COMMUNITY HEALTH CENTERS INC,042507409,Other,INC,BOSTON,MA,02108-0000,,"Other organization in BOSTON, MA with annual revenue of approximately $34M",
BETHANNA,231649667,Human Services,1844 STREET RD,SOUTHAMPTON,PA,18966-4582,,"Human Services organization in SOUTHAMPTON, PA with annual revenue of approximately $34M",
ALLEGRO ORGANIZATIONAL SOLUTIONS INC,261197590,International,5535 MEMORIAL DR STE F PMB 811,HOUSTON,TX,77007-8023,,"International organization in HOUSTON, TX with annual revenue of approximately $34M",
CHAYIM VCHESED INC,200703181,Religion,199 LEE AVE 268,BROOKLYN,NY,11211-8919,,"Religion organization in BROOKLYN, NY with annual revenue of approximately $34M",
COLLEGE POSSIBLE,411968798,Education,755 PRIOR AVE N STE 210,SAINT PAUL,MN,55104-1064,,"Education organization in SAINT PAUL, MN with annual revenue of approximately $34M",
PANHANDLE COMMUNITY SERVICES,756049423,Human Services,1309 SW 8TH AVENUE,AMARILLO,TX,79101-2032,,"Human Services organization in AMARILLO, TX with annual revenue of approximately $34M",
PAUL SMITHS COLLEGE OF ARTS AND SCIENCES,150533545,Education,PO BOX 265,PAUL SMITHS,NY,12970-0265,,"Education organization in PAUL SMITHS, NY with annual revenue of approximately $34M",
LONGVIEW WELLNESS CENTER INC,752723993,Health,1107 E MARSHALL AVE,LONGVIEW,TX,75601-5602,,"Health organization in LONGVIEW, TX with annual revenue of approximately $34M",
CREIGHTON UNIVERSITY ARIZONA HEALTH EDUCATION ALLIANCE,831300808,Health,3100 N CENTRAL AVE 7TH FLOOR,PHOENIX,AZ,85012-2637,,"Health organization in PHOENIX, AZ with annual revenue of approximately $34M",
YOUNG AMERICAS FOUNDATION,237042029,Other,11480 COMMERCE PARK DR STE 600,RESTON,VA,20191-1556,,"Other organization in RESTON, VA with annual revenue of approximately $34M",
NEW HORIZONS RESOURCES INC,524862107,Other,123 WEST ROAD,PLEASANT VALLEY,NY,12569-7927,,"Other organization in PLEASANT VALLEY, NY with annual revenue of approximately $34M",
WEBBER INTERNATIONAL UNIVERSITY INC,592139553,Other,PO BOX 96,BABSON PARK,FL,33827-0096,,"Other organization in BABSON PARK, FL with annual revenue of approximately $34M",
PIKE HEALTH SERVICES INC,311072406,Health,100 DAWN LANE,WAVERLY,OH,45690-9138,,"Health organization in WAVERLY, OH with annual revenue of approximately $34M",
TECHSOUP GLOBAL,943070617,Other,435 BRANNAN STREET,SAN FRANCISCO,CA,94107-1737,,"Other organization in SAN FRANCISCO, CA with annual revenue of approximately $34M",
UNION COMMONWEALTH UNIVERSITY,610461768,Education,310 COLLEGE ST,BARBOURVILLE,KY,40906-1410,,"Education organization in BARBOURVILLE, KY with annual revenue of approximately $34M",
NEW LIFE CENTERS OF CHICAGOLAND NFP,202380358,Human Services,4101 W 51ST ST,CHICAGO,IL,60632-4287,,"Human Services organization in CHICAGO, IL with annual revenue of approximately $34M",
YOUNGSTOWN STATE UNIVERSITY FOUNDATION,346576610,Education,655 WICK AVE,YOUNGSTOWN,OH,44502-1214,,"Education organization in YOUNGSTOWN, OH with annual revenue of approximately $34M",
HABITAT FOR HUMANITY INTERNATIONAL INC,330416470,Human Services,8739 ARTESIA BLVD,BELLFLOWER,CA,90706-6330,,"Human Services organization in BELLFLOWER, CA with annual revenue of approximately $34M",
CICP FOUNDATION INC,352065457,Community,1210 WATERWAY BLVD STE 5000,INDIANAPOLIS,IN,46202-2174,,"Community organization in INDIANAPOLIS, IN with annual revenue of approximately $34M",
SISKIYOU COMMUNITY HEALTH CENTER INC,930628804,Other,1701 NW HAWTHORNE AVE,GRANTS PASS,OR,97526-1051,,"Other organization in GRANTS PASS, OR with annual revenue of approximately $34M",
CARROLL SCHOOL CORP,042145258,Education,25 BAKER BRIDGE RD,LINCOLN,MA,01773-3104,,"Education organization in LINCOLN, MA with annual revenue of approximately $34M",
HUMAN SERVICES ASSOCIATION,951816054,Human Services,6800 FLORENCE AVE,BELL GARDENS,CA,90201-4957,,"Human Services organization in BELL GARDENS, CA with annual revenue of approximately $34M",
MEMORIAL MEDICAL CENTER FOUNDATION,956105984,Health,2801 ATLANTIC AVE,LONG BEACH,CA,90806-1701,,"Health organization in LONG BEACH, CA with annual revenue of approximately $34M",
OVERTURE CENTER FOUNDATION INC,010645482,Arts & Culture,201 STATE ST,MADISON,WI,53703-2214,,"Arts & Culture organization in MADISON, WI with annual revenue of approximately $34M",
ATMOSPHERE ACADEMY PUBLIC CHARTER SCHOOLS,471504209,Education,22 MARBLE HILL AVE BRONX,BRONX,NY,10463-6943,,"Education organization in BRONX, NY with annual revenue of approximately $34M",
HOME FOR THE FRIENDLESS,231365148,Health,1901 N 5TH ST,HARRISBURG,PA,17102-1510,,"Health organization in HARRISBURG, PA with annual revenue of approximately $34M",
ARMAND HAMMER UNITED WORLD COLLEGE OF THE AMERICAN WEST,850297355,Education,400 HIGHWAY 65 ATTN BUSINESS OFFICE,MONTEZUMA,NM,87731-0000,,"Education organization in MONTEZUMA, NM with annual revenue of approximately $34M",
MASONICARE HOME HEALTH AND HOSPICE INC,061101924,Health,PO BOX 70,WALLINGFORD,CT,06492-7001,,"Health organization in WALLINGFORD, CT with annual revenue of approximately $34M",
PROVIDENCE REST,131740301,Health,205 LEXINGTON AVENUE 3RD,NEW YORK,NY,10016-6053,,"Health organization in NEW YORK, NY with annual revenue of approximately $34M",
SUNSET MANOR INC,237010671,Human Services,725 BALDWIN ST,JENISON,MI,49428-8005,,"Human Services organization in JENISON, MI with annual revenue of approximately $34M",
ODYSSEY PREPARATORY ACADEMY INC,262253742,Education,411 N 4TH ST,BUCKEYE,AZ,85326-2442,,"Education organization in BUCKEYE, AZ with annual revenue of approximately $34M",
CALIFORNIA INSTITUTE FOR BEHAVIORAL HEALTH SOLUTIONS,680314970,Health,1760 CREEKSIDE OAKS DR STE 175,SACRAMENTO,CA,95833-3644,,"Health organization in SACRAMENTO, CA with annual revenue of approximately $34M",
SALVADORAN AMERICAN HUMANITARIAN FOUNDATION INC,592339140,International,75 VALENCIA AVE STE 710,CORAL GABLES,FL,33134-6132,,"International organization in CORAL GABLES, FL with annual revenue of approximately $34M",
LYON COLLEGE,710246213,Education,2300 HIGHLAND RD,BATESVILLE,AR,72501-3629,,"Education organization in BATESVILLE, AR with annual revenue of approximately $34M",
CALIBER PUBLIC SCHOOLS,461219795,Education,3260 BLUME DRIVE,RICHMOND,CA,94806-5203,,"Education organization in RICHMOND, CA with annual revenue of approximately $34M",
HUNTSMAN MENTAL HEALTH FOUNDATION,861400536,Other,500 S HUNTSMAN WAY,SALT LAKE CTY,UT,84108-1235,,"Other organization in SALT LAKE CTY, UT with annual revenue of approximately $34M",
AMERICA GIVES INC,263383926,Community,228 PARK AVE S 71410,NEW YORK,NY,10003-1502,,"Community organization in NEW YORK, NY with annual revenue of approximately $34M",
PENN ASIAN SENIOR SERVICES INC,202643138,Health,6926 OLD YORK ROAD,PHILADELPHIA,PA,19126-2119,,"Health organization in PHILADELPHIA, PA with annual revenue of approximately $34M",
ST ANDREWS SCHOOL OF DELAWARE INC,510079506,Education,350 NOXONTOWN RD,MIDDLETOWN,DE,19709-1621,,"Education organization in MIDDLETOWN, DE with annual revenue of approximately $34M",
SOUTH COAST CHILDRENS SOCIETY INC,330521169,Other,25910 ACERO STE 160,MISSION VIEJO,CA,92691-2777,,"Other organization in MISSION VIEJO, CA with annual revenue of approximately $34M",
HORIZON HEALTH CARE INC,460341255,Health,109 NORTH MAIN STREET,HOWARD,SD,57349-0000,,"Health organization in HOWARD, SD with annual revenue of approximately $34M",
KIVA MICROFUNDS,710992446,International,986 MISSION STREET STE 400,SAN FRANCISCO,CA,94103-2932,,"International organization in SAN FRANCISCO, CA with annual revenue of approximately $34M",
MARIN ACADEMY,941186189,Education,1600 MISSION AVE,SAN RAFAEL,CA,94901-1813,,"Education organization in SAN RAFAEL, CA with annual revenue of approximately $34M",
CAMPAIGN FOR TOBACCO-FREE KIDS,521969967,Health,1400 I ST NW STE 1200,WASHINGTON,DC,20005-6531,,"Health organization in WASHINGTON, DC with annual revenue of approximately $34M",
JOHN E ANDRUS MEMORIAL INC,135596795,Other,185 OLD BROADWAY,HASTINGS HDSN,NY,10706-3801,,"Other organization in HASTINGS HDSN, NY with annual revenue of approximately $34M",
PACIFIC RIDGE SCHOOL,861061606,Education,6269 EL FUERTE ST,CARLSBAD,CA,92009-3094,,"Education organization in CARLSBAD, CA with annual revenue of approximately $34M",
SHELTER THE HOMELESS COMMITTEE INC,742548948,Other,242 W PARAMOUNT AVE,SALT LAKE CTY,UT,84115-5216,,"Other organization in SALT LAKE CTY, UT with annual revenue of approximately $34M",
CAROLINA VILLAGE INC,237179679,Human Services,600 CAROLINA VILLAGE ROAD,HENDERSONVILLE,NC,28792-2892,,"Human Services organization in HENDERSONVILLE, NC with annual revenue of approximately $34M",
PENNSYLVANIA HORTICULTURAL SOCIETY,231352265,Environment,100 N 20TH ST 5TH FLR,PHILADELPHIA,PA,19103-1455,,"Environment organization in PHILADELPHIA, PA with annual revenue of approximately $34M",
CINCINNATI HILLS CHRISTIAN ACADEMY INC,311225392,Education,8247 E KEMPER RD,CINCINNATI,OH,45249-1627,,"Education organization in CINCINNATI, OH with annual revenue of approximately $34M",
NEW CONCEPTS FOR LIVING INC,222447934,Other,765 ROUTE 17,PARAMUS,NJ,07652-3112,,"Other organization in PARAMUS, NJ with annual revenue of approximately $34M",
NYSARC INC,161124314,Other,1083 WATERLOO GENEVA RD,WATERLOO,NY,13165-1202,,"Other organization in WATERLOO, NY with annual revenue of approximately $34M",
KANSAS FOOD BANK WAREHOUSE INC,480959213,Human Services,1919 E DOUGLAS AVE,WICHITA,KS,67211-1627,,"Human Services organization in WICHITA, KS with annual revenue of approximately $34M",
HARLEM UNITED COMMUNITY AIDS CENTER INC,133461695,Health,306 LENOX AVENUE,NEW YORK,NY,10027-4465,,"Health organization in NEW YORK, NY with annual revenue of approximately $34M",
INTERNATIONAL FOUNDATION OF EMPLOYEE BENEFIT PLANS INC,391034021,Community,18700 W BLUEMOUND RD,BROOKFIELD,WI,53045-2936,,"Community organization in BROOKFIELD, WI with annual revenue of approximately $34M",
RIVERBEND COMMUNITY MENTAL HEALTH INC,020264383,Other,PO BOX 2032,CONCORD,NH,03302-2032,,"Other organization in CONCORD, NH with annual revenue of approximately $34M",
NOTRE DAME HEALTH CARE CENTER INC,043108782,Human Services,555 PLANTATION ST,WORCESTER,MA,01605-2376,,"Human Services organization in WORCESTER, MA with annual revenue of approximately $34M",
CORPORATION FOR OHIO APPALACHIAN DEVELOPMENT,310811788,Community,1 PINCHOT PL,ATHENS,OH,45701-2135,,"Community organization in ATHENS, OH with annual revenue of approximately $34M",
THE NRA FOUNDATION INC,521710886,Human Services,11250 WAPLES MILL ROAD,FAIRFAX,VA,22030-7550,,"Human Services organization in FAIRFAX, VA with annual revenue of approximately $34M",
SAN DIEGO FAMILY CARE,952700856,Health,6973 LINDA VISTA RD,SAN DIEGO,CA,92111-6342,,"Health organization in SAN DIEGO, CA with annual revenue of approximately $34M",
SU CLINICA FAMILIAR,742357970,Health,1706 TREASURE HILLS BLVD,HARLINGEN,TX,78550-8911,,"Health organization in HARLINGEN, TX with annual revenue of approximately $34M",
MIND EDUCATION,330798804,Research,5281 CALIFORNIA AVE STE 300,IRVINE,CA,92617-3219,,"Research organization in IRVINE, CA with annual revenue of approximately $34M",
VIRGINIA MUSEUM OF FINE ARTS FOUNDATION,510205333,Arts & Culture,200 N ARTHUR ASHE BLVD,RICHMOND,VA,23220-4007,,"Arts & Culture organization in RICHMOND, VA with annual revenue of approximately $34M",
CENTER FOR DISABILITY SERVICE HOLDING CORPORATION,141755337,Human Services,314 S MANNING BLVD,ALBANY,NY,12208-1708,,"Human Services organization in ALBANY, NY with annual revenue of approximately $34M",
LEGAL AID OF NORTHWEST TEXAS,750856086,Human Services,600 E WEATHERFORD ST,FORT WORTH,TX,76102-3264,,"Human Services organization in FORT WORTH, TX with annual revenue of approximately $34M",
INTER-FAITH FOOD SHUTTLE,561753180,Human Services,1001 BLAIR DR STE 120,RALEIGH,NC,27603-3792,,"Human Services organization in RALEIGH, NC with annual revenue of approximately $34M",
CHILDRENS HOME SOCIETY OF NORTH CAROLINA INC,560529946,Human Services,PO BOX 14608,GREENSBORO,NC,27415-4608,,"Human Services organization in GREENSBORO, NC with annual revenue of approximately $34M",
AMBOY MEDICAL PRACTICE PC,263381883,Health,355 BARD AVE,STATEN ISLAND,NY,10310-1664,,"Health organization in STATEN ISLAND, NY with annual revenue of approximately $34M",
TUFTS SHARED SERVICES INC,237000827,Health,171 HARRISON AVENUE BOX 821,BOSTON,MA,02111-1854,,"Health organization in BOSTON, MA with annual revenue of approximately $34M",
COMMUNITY REACH CENTER INC,840519618,Health,1870 W 122ND AVE STE 100,WESTMINSTER,CO,80234-2075,,"Health organization in WESTMINSTER, CO with annual revenue of approximately $34M",
SERVICE MANAGEMENT GROUP IN,202013846,Human Services,12600 WHITEWATER DR STE 100,MINNETONKA,MN,55343-9450,,"Human Services organization in MINNETONKA, MN with annual revenue of approximately $34M",
BRAILLE INSTITUTE OF AMERICA INC,951641426,Human Services,741 N VERMONT AVE,LOS ANGELES,CA,90029-3514,,"Human Services organization in LOS ANGELES, CA with annual revenue of approximately $34M",
NORTHWEST ARKANSAS FOOD BANK,710680830,Other,PO BOX 2126,LOWELL,AR,72745-2126,,"Other organization in LOWELL, AR with annual revenue of approximately $34M",
CALIFORNIA RURAL LEGAL ASSISTANCE INC,952428657,Human Services,1020 15TH ST STE 20,MODESTO,CA,95354-1132,,"Human Services organization in MODESTO, CA with annual revenue of approximately $34M",
KVC HEALTH SYSTEMS INC,262516589,Health,21350 W 153RD ST,OLATHE,KS,66061-5413,,"Health organization in OLATHE, KS with annual revenue of approximately $34M",
CATHOLIC HOLY FAMILY SOCIETY,362201108,Other,PO BOX 327,BELLEVILLE,IL,62222-0327,,"Other organization in BELLEVILLE, IL with annual revenue of approximately $34M",
