name,ein,category,address,city,state,zip_code,website,description,phone
SOUTH MIAMI HOSPITAL INC,590872594,Health,6200 SW 73RD ST,SOUTH MIAMI,FL,33143-4679,,"Health organization in SOUTH MIAMI, FL with annual revenue of approximately $941M",
HENDRICK MEDICAL CENTER,750827446,Health,PO BOX 3117,ABILENE,TX,79604-3117,,"Health organization in ABILENE, TX with annual revenue of approximately $940M",
BAPTIST HEALTH CARE INC,590657322,Health,PO BOX 17500,PENSACOLA,FL,32522-7500,,"Health organization in PENSACOLA, FL with annual revenue of approximately $939M",
CHILDRENS HOSPITAL OF WISCONSIN INC,390812532,Health,PO BOX 1997,MILWAUKEE,WI,53201-1997,,"Health organization in MILWAUKEE, WI with annual revenue of approximately $938M",
MARY WASHINGTON HEALTHCARE,201106426,Health,2300 FALL HILL AVE STE 418,FREDERICKSBRG,VA,22401-3343,,"Health organization in FREDERICKSBRG, VA with annual revenue of approximately $937M",
AMERICAN UNIVERSITY,530196549,Education,4400 MASSACHUSETTS AVE NW,WASHINGTON,DC,20016-8002,,"Education organization in WASHINGTON, DC with annual revenue of approximately $937M",
LOS ANGELES LOMOD CORPORATION,953033333,Other,2600 WILSHIRE BLVD,LOS ANGELES,CA,90057-3400,,"Other organization in LOS ANGELES, CA with annual revenue of approximately $935M",
MAP INTERNATIONAL,362586390,International,4700 GLYNCO PKWY,BRUNSWICK,GA,31525-6901,,"International organization in BRUNSWICK, GA with annual revenue of approximately $934M",
TORRANCE MEMORIAL MEDICAL CENTER,951644042,Health,3330 LOMITA BLVD,TORRANCE,CA,90505-5002,,"Health organization in TORRANCE, CA with annual revenue of approximately $932M",
ST JUDE HOSPITAL,951643325,Health,101 E VALENCIA MESA DR,FULLERTON,CA,92835-3809,,"Health organization in FULLERTON, CA with annual revenue of approximately $932M",
ST JOSEPH HOSPITAL OF ORANGE,951643359,Health,1100 W STEWART DR,ORANGE,CA,92868-3849,,"Health organization in ORANGE, CA with annual revenue of approximately $928M",
BIG TEN CONFERENCE INC,363640583,Other,5440 PARK PL,ROSEMONT,IL,60018-3732,,"Other organization in ROSEMONT, IL with annual revenue of approximately $928M",
SOUTHWEST RESEARCH INSTITUTE,741070544,Research,6220 CULEBRA RD,SAN ANTONIO,TX,78238-5166,,"Research organization in SAN ANTONIO, TX with annual revenue of approximately $926M",
ADVENTIST HEALTH SYSTEM-WEST,953484589,Health,1 ADVENTIST HEALTH WAY,ROSEVILLE,CA,95661-3266,,"Health organization in ROSEVILLE, CA with annual revenue of approximately $924M",
SKY LAKES MEDICAL CENTER INC,930508781,Health,2865 DAGGETT AVE,KLAMATH FALLS,OR,97601-1106,,"Health organization in KLAMATH FALLS, OR with annual revenue of approximately $922M",
SOUTHWEST KEY PROGRAMS INC,742481167,Human Services,6002 JAIN LN,AUSTIN,TX,78721-3104,,"Human Services organization in AUSTIN, TX with annual revenue of approximately $921M",
SAVE THE CHILDREN FEDERATION INC,060726487,International,501 KINGS HWY E STE 400,FAIRFIELD,CT,06825-4861,,"International organization in FAIRFIELD, CT with annual revenue of approximately $919M",
DEPAUL UNIVERSITY,362167048,Education,1 E JACKSON BLVD,CHICAGO,IL,60604-2201,,"Education organization in CHICAGO, IL with annual revenue of approximately $918M",
BETHESDA HOSPITAL INC,310537122,Health,625 EDEN PARK DR 7TH FLOOR,CINCINNATI,OH,45202-6005,,"Health organization in CINCINNATI, OH with annual revenue of approximately $917M",
BRYAN MEDICAL CENTER,470376552,Health,1600 SOUTH 48TH STREET,LINCOLN,NE,68506-1299,,"Health organization in LINCOLN, NE with annual revenue of approximately $917M",
JOHNS HOPKINS ALL CHILDRENS HOSPITAL INC,590683252,Health,3910 KESWICK ROAD S BLDG 4300A,BALTIMORE,MD,21211-2226,,"Health organization in BALTIMORE, MD with annual revenue of approximately $912M",
UNIVERSITY OF VIRGINIA INVESTMENT MANAGEMENT COMPANY,562462804,Education,701 E WATER ST STE 4,CHARLOTTESVLE,VA,22902-5499,,"Education organization in CHARLOTTESVLE, VA with annual revenue of approximately $912M",
BRIDGEPORT HOSPITAL,060646554,Health,267 GRANT ST,BRIDGEPORT,CT,06610-2805,,"Health organization in BRIDGEPORT, CT with annual revenue of approximately $909M",
CHILDRENS HOSPITAL OF ALABAMA,630307306,Health,1600 7TH AVE S,BIRMINGHAM,AL,35233-1711,,"Health organization in BIRMINGHAM, AL with annual revenue of approximately $909M",
COOPERATIVE FOR ASSISTANCE AND RELIEF EVERYWHERE INC,131685039,International,151 ELLIS STREET NE,ATLANTA,GA,30303-2420,,"International organization in ATLANTA, GA with annual revenue of approximately $909M",
NORTH MEMORIAL HEALTH CARE,410729979,Health,3300 OAKDALE AVE N,ROBBINSDALE,MN,55422-2926,,"Health organization in ROBBINSDALE, MN with annual revenue of approximately $907M",
SAINT ALPHONSUS REGIONAL MEDICAL CENTER INC,820200895,Health,1055 N CURTIS RD,BOISE,ID,83706-1309,,"Health organization in BOISE, ID with annual revenue of approximately $907M",
GEISINGER WYOMING VALLEY MEDICAL CENTER,231996150,Health,100 N ACADEMY AVE MC 49-70,DANVILLE,PA,17822-9800,,"Health organization in DANVILLE, PA with annual revenue of approximately $905M",
CHILDRENS HOSPITAL & RESEARCH CENTER AT OAKLAND,940382330,Health,747 52ND ST,OAKLAND,CA,94609-1809,,"Health organization in OAKLAND, CA with annual revenue of approximately $905M",
STEP UP FOR STUDENTS - FLORIDA INC,593649371,Education,4655 SALISBURY RD STE 400,JACKSONVILLE,FL,32256-0958,,"Education organization in JACKSONVILLE, FL with annual revenue of approximately $904M",
VASSAR BROTHERS MEDICAL CENTER,141338586,Health,45 READE PL,POUGHKEEPSIE,NY,12601-3947,,"Health organization in POUGHKEEPSIE, NY with annual revenue of approximately $904M",
DANBURY HOSPITAL,060646597,Health,24 HOSPITAL AVE,DANBURY,CT,06810-6099,,"Health organization in DANBURY, CT with annual revenue of approximately $903M",
GBU FINANCIAL LIFE,250502660,Other,4254 SAW MILL RUN BLVD,PITTSBURGH,PA,15227-3300,,"Other organization in PITTSBURGH, PA with annual revenue of approximately $903M",
INOVA HEALTH SYSTEM FOUNDATION,541071867,Health,8095 INNOVATION PARK DR,FAIRFAX,VA,22031-4868,,"Health organization in FAIRFAX, VA with annual revenue of approximately $903M",
GEORGIA TECH APPLIED RESEARCH CORPORATION,582374837,Health,926 DALNEY ST NW,ATLANTA,GA,30318-6395,,"Health organization in ATLANTA, GA with annual revenue of approximately $903M",
UNIVERSITY OF MINNESOTA PHYSICIANS,411843943,Health,720 WASHINGTON AVE SE STE 200,MINNEAPOLIS,MN,55414-2924,,"Health organization in MINNEAPOLIS, MN with annual revenue of approximately $903M",
UNIVERSITY MEDICAL CENTER INC,611293786,Health,530 S JACKSON ST,LOUISVILLE,KY,40202-1675,,"Health organization in LOUISVILLE, KY with annual revenue of approximately $902M",
SISTERS OF CHARITY OF LEAVENWORTH HEALTH SYSTEM INC,237379161,Health,36 S STATE ST STE 2200,SALT LAKE CTY,UT,84111-1470,,"Health organization in SALT LAKE CTY, UT with annual revenue of approximately $898M",
WOMANS HOSPITAL FOUNDATION,720652905,Health,100 WOMANS WAY,BATON ROUGE,LA,70817-5100,,"Health organization in BATON ROUGE, LA with annual revenue of approximately $897M",
ASCENSION PROVIDENCE HOSPITAL,381358212,Health,1 FORD PLACE 4E,DETROIT,MI,48202-3450,,"Health organization in DETROIT, MI with annual revenue of approximately $896M",
SOUTH SHORE HOSPITAL INC,042769210,Health,55 FOGG RD,S WEYMOUTH,MA,02190-2432,,"Health organization in S WEYMOUTH, MA with annual revenue of approximately $895M",
PRISMA HEALTH-UNIVERSITY MEDICAL GROUP,571004971,Health,300 EAST MCBEE AVENUE SUITE 500,GREENVILLE,SC,29601-2842,,"Health organization in GREENVILLE, SC with annual revenue of approximately $893M",
COOK CHILDRENS HEALTH PLAN,760585240,Health,801 7TH AVE,FORT WORTH,TX,76104-2733,,"Health organization in FORT WORTH, TX with annual revenue of approximately $892M",
MGB POOLED HOLDINGS LLC,821715859,Health,399 REVOLUTION DR STE 645,SOMERVILLE,MA,02145-1574,,"Health organization in SOMERVILLE, MA with annual revenue of approximately $892M",
PASADENA HOSPITAL ASSOCIATION LTD,951644036,Health,100 W CALIFORNIA BLVD,PASADENA,CA,91105-3010,,"Health organization in PASADENA, CA with annual revenue of approximately $890M",
GREATER HORIZONS,200849590,Community,1055 BROADWAY BLVD STE 130,KANSAS CITY,MO,64105-1595,,"Community organization in KANSAS CITY, MO with annual revenue of approximately $890M",
SWEDISHAMERICAN HOSPITAL,362222696,Health,1401 E STATE ST,ROCKFORD,IL,61104-2315,,"Health organization in ROCKFORD, IL with annual revenue of approximately $888M",
PIEDMONT ATHENS REGIONAL MEDICAL CENTER INC,582179986,Health,1199 PRINCE AVE,ATHENS,GA,30606-2797,,"Health organization in ATHENS, GA with annual revenue of approximately $885M",
SAVANNAH COLLEGE OF ART AND DESIGN INC,581357177,Education,PO BOX 3146,SAVANNAH,GA,31402-3146,,"Education organization in SAVANNAH, GA with annual revenue of approximately $882M",
NAPLES COMMUNITY HOSPITAL INC,590694358,Health,PO BOX 413029,NAPLES,FL,34101-3029,,"Health organization in NAPLES, FL with annual revenue of approximately $880M",
PORT CITY OPERATING COMPANY LLC,465322209,Health,3400 DATA DR,RNCHO CORDOVA,CA,95670-7956,,"Health organization in RNCHO CORDOVA, CA with annual revenue of approximately $878M",
ABINGTON MEMORIAL HOSPITAL,231352152,Health,1200 OLD YORK RD,ABINGTON,PA,19001-3720,,"Health organization in ABINGTON, PA with annual revenue of approximately $877M",
CABELL HUNTINGTON HOSPITAL INC,550675666,Health,1340 HAL GREER BLVD,HUNTINGTON,WV,25701-3804,,"Health organization in HUNTINGTON, WV with annual revenue of approximately $877M",
SAINT FRANCIS HOSPITAL AND MEDICAL CENTER,060646813,Health,114 WOODLAND STREET MS-510358,HARTFORD,CT,06105-1208,,"Health organization in HARTFORD, CT with annual revenue of approximately $876M",
BETH ISRAEL LAHEY HEALTH INC HCSR,832671600,Health,CO BILH TAX 529 MAIN ST 4TH FL,CHARLESTOWN,MA,02129-0000,,"Health organization in CHARLESTOWN, MA with annual revenue of approximately $876M",
DARTMOUTH-HITCHCOCK CLINIC,222519596,Health,1 MEDICAL CENTER DR,LEBANON,NH,03756-1000,,"Health organization in LEBANON, NH with annual revenue of approximately $875M",
KADLEC REGIONAL MEDICAL CENTER,910655392,Health,888 SWIFT BLVD,RICHLAND,WA,99352-3514,,"Health organization in RICHLAND, WA with annual revenue of approximately $875M",
ARKANSAS CHILDRENS HOSPITAL,710236857,Health,1 CHILDRENS WAY,LITTLE ROCK,AR,72202-3500,,"Health organization in LITTLE ROCK, AR with annual revenue of approximately $871M",
CHARLES STARK DRAPER LABORATORY INC,042505372,Research,555 TECHNOLOGY SQ,CAMBRIDGE,MA,02139-3539,,"Research organization in CAMBRIDGE, MA with annual revenue of approximately $871M",
IMPACTASSETS INC,262048480,Community,4340 EAST WEST HWY STE 210,BETHESDA,MD,20814-4653,,"Community organization in BETHESDA, MD with annual revenue of approximately $866M",
PENN STATE HEALTH,473769205,Health,100 CRYSTAL A CA230,HERSHEY,PA,17033-9524,,"Health organization in HERSHEY, PA with annual revenue of approximately $866M",
ST LUKES PHYSICIAN GROUP INC,232380812,Other,801 OSTRUM STREET,BETHLEHEM,PA,18015-1000,,"Other organization in BETHLEHEM, PA with annual revenue of approximately $865M",
CEDARS-SINAI MEDICAL CARE FOUNDATION,954457756,Health,6500 WILSHIRE BLVD 19TH FLOOR,LOS ANGELES,CA,90048-4920,,"Health organization in LOS ANGELES, CA with annual revenue of approximately $865M",
ST LOUIS UNIVERSITY,430654872,Education,3545 LINDELL BLVD,SAINT LOUIS,MO,63103-1020,,"Education organization in SAINT LOUIS, MO with annual revenue of approximately $864M",
YUMA REGIONAL MEDICAL CENTER,866007596,Health,2400 S AVENUE A,YUMA,AZ,85364-7127,,"Health organization in YUMA, AZ with annual revenue of approximately $861M",
MERCY HEALTH PARTNERS,382589966,Other,1500 E SHERMAN BLVD,MUSKEGON,MI,49444-1849,,"Other organization in MUSKEGON, MI with annual revenue of approximately $858M",
GOOD SAMARITAN HOSPTIAL MEDICAL CENTER,111888924,Health,1000 MONTAUK HWY,WEST ISLIP,NY,11795-4927,,"Health organization in WEST ISLIP, NY with annual revenue of approximately $857M",
PHOEBE PUTNEY MEMORIAL HOSPITAL INC,581928247,Health,417 W 3RD AVE,ALBANY,GA,31701-1943,,"Health organization in ALBANY, GA with annual revenue of approximately $857M",
SSM-SLUH INC,474196634,Other,12800 CORPORATE HILL DR,SAINT LOUIS,MO,63131-1833,,"Other organization in SAINT LOUIS, MO with annual revenue of approximately $855M",
PENNSYLVANIA HOSPITAL OF THE UNIV OF PENNSYLVANIA HEALTH SYSTEM,311538725,Health,1500 MARKET ST 10TH FLOOR,PHILADELPHIA,PA,19102-2100,,"Health organization in PHILADELPHIA, PA with annual revenue of approximately $852M",
STAMFORD HOSPITAL,060646917,Health,1 HOSPITAL PLZ,STAMFORD,CT,06902-3602,,"Health organization in STAMFORD, CT with annual revenue of approximately $852M",
MUNSON MEDICAL CENTER,381362830,Health,1105 SIXTH ST,TRAVERSE CITY,MI,49684-2345,,"Health organization in TRAVERSE CITY, MI with annual revenue of approximately $851M",
BAPTIST HEALTH MEDICAL GROUP INC,205497203,Health,1901 CAMPUS PL,LOUISVILLE,KY,40299-2308,,"Health organization in LOUISVILLE, KY with annual revenue of approximately $850M",
POMONA VALLEY HOSPITAL MEDICAL CENTER,951115230,Health,1798 N GAREY AVE,POMONA,CA,91767-2918,,"Health organization in POMONA, CA with annual revenue of approximately $846M",
WELLSPAN HEALTH,222517863,Health,PO BOX 2767,YORK,PA,17405-2767,,"Health organization in YORK, PA with annual revenue of approximately $844M",
EDWARD HOSPITAL,363297173,Health,4201 WINFIELD RD,WARRENVILLE,IL,60555-4025,,"Health organization in WARRENVILLE, IL with annual revenue of approximately $841M",
MISSION HOSPITAL REGIONAL MEDICAL CENTER,951643360,Health,27700 MEDICAL CENTER RD,MISSION VIEJO,CA,92691-6426,,"Health organization in MISSION VIEJO, CA with annual revenue of approximately $840M",
SOUTHEASTERN CONFERENCE,630377461,Human Services,2201 RICHARD ARRINGTON JR BLVD N,BIRMINGHAM,AL,35203-1103,,"Human Services organization in BIRMINGHAM, AL with annual revenue of approximately $839M",
BOCA RATON REGIONAL HOSPITAL INC,591006663,Health,800 MEADOWS RD,BOCA RATON,FL,33486-2304,,"Health organization in BOCA RATON, FL with annual revenue of approximately $837M",
DECHOMAI ASSET TRUST,260724604,Community,245 RIVERSIDE AVE STE 100 PMB 058,JACKSONVILLE,FL,32202-4930,,"Community organization in JACKSONVILLE, FL with annual revenue of approximately $837M",
TRUMAN MEDICAL CENTER INCORPORATED,440661018,Health,2301 HOLMES ST,KANSAS CITY,MO,64108-2640,,"Health organization in KANSAS CITY, MO with annual revenue of approximately $835M",
UNIVERSITY OF DENVER,840404231,Education,2601 E COLORADO AVE,DENVER,CO,80208-0001,,"Education organization in DENVER, CO with annual revenue of approximately $834M",
BELLIN MEMORIAL HOSPITAL INC,390884478,Health,744 S WEBSTER AVE,GREEN BAY,WI,54301-3505,,"Health organization in GREEN BAY, WI with annual revenue of approximately $834M",
DAYTON OSTEOPATHIC HOSPITAL,310564121,Health,1 PRESTIGE PLACE,MIAMISBURG,OH,45342-3794,,"Health organization in MIAMISBURG, OH with annual revenue of approximately $834M",
NAVIGATE AFFORDABLE HOUSING PARTNERS INC,630985617,Human Services,2701 1ST AVE S STE 200,BIRMINGHAM,AL,35233-2724,,"Human Services organization in BIRMINGHAM, AL with annual revenue of approximately $834M",
REGIONAL CENTER OF THE EAST BAY INC,942337299,Human Services,500 DAVIS ST STE 100,SAN LEANDRO,CA,94577-2758,,"Human Services organization in SAN LEANDRO, CA with annual revenue of approximately $832M",
BROAD INSTITUTE INC,263428781,Health,415 MAIN ST,CAMBRIDGE,MA,02142-1027,,"Health organization in CAMBRIDGE, MA with annual revenue of approximately $831M",
SSM HEALTH CARE OF WISCONSIN INC,430688874,Health,12800 CORPORATE HILL DR,SAINT LOUIS,MO,63131-1833,,"Health organization in SAINT LOUIS, MO with annual revenue of approximately $830M",
COVENANT MEDICAL CENTER INC,383369438,Health,1447 N HARRISON ST,SAGINAW,MI,48602-4727,,"Health organization in SAGINAW, MI with annual revenue of approximately $830M",
ALLEGIANCE HEALTH,382027689,Health,ONE FORD PLACE 5F,DETROIT,MI,48202-3450,,"Health organization in DETROIT, MI with annual revenue of approximately $828M",
VIRGINIA HOSPITAL CENTER ARLINGTON HEALTH SYSTEM,540505989,Health,1701 N GEORGE MASON DR,ARLINGTON,VA,22205-3610,,"Health organization in ARLINGTON, VA with annual revenue of approximately $824M",
OWENSBORO HEALTH REGIONAL HOSPITAL,611286361,Health,1201 PLEASANT VALLEY RD,OWENSBORO,KY,42303-9811,,"Health organization in OWENSBORO, KY with annual revenue of approximately $822M",
SAN DIEGO IMPERIAL COUNTIES DEVELOPMENTAL SERVICES INC,953735517,Human Services,4355 RUFFIN RD,SAN DIEGO,CA,92123-4306,,"Human Services organization in SAN DIEGO, CA with annual revenue of approximately $820M",
KENNEDY UNIVERSITY HOSPITAL INC,221773439,Health,500 MARLBORO AVE,CHERRY HILL,NJ,08002-2020,,"Health organization in CHERRY HILL, NJ with annual revenue of approximately $817M",
MILTON HERSHEY SCHOOL & SCHOOL TRUST,231353340,Education,PO BOX 830,HERSHEY,PA,17033-0830,,"Education organization in HERSHEY, PA with annual revenue of approximately $814M",
EMBRY-RIDDLE AERONAUTICAL,590936101,Education,1 AEROSPACE BLVD,DAYTONA BEACH,FL,32114-3910,,"Education organization in DAYTONA BEACH, FL with annual revenue of approximately $810M",
MERCY HOSPITAL OKLAHOMA CITY INC,730579285,Health,4300 W MEMORIAL RD,OKLAHOMA CITY,OK,73120-8304,,"Health organization in OKLAHOMA CITY, OK with annual revenue of approximately $810M",
ST PETERS HOSPITAL,141348692,Health,315 S MANNING BLVD,ALBANY,NY,12208-1707,,"Health organization in ALBANY, NY with annual revenue of approximately $810M",
GATES MEDICAL RESEARCH INSTITUTE,821808476,Health,ONE KENDAL SQ BLDG 600 STE 6-301,CAMBRIDGE,MA,02139-1562,,"Health organization in CAMBRIDGE, MA with annual revenue of approximately $809M",
PRESENCE ST MARYS HOSPITAL PRESENCE CENTRAL AND SUBURBAN HOSPITALS NET,364195126,Health,PO BOX 45998,SAINT LOUIS,MO,63145-5998,,"Health organization in SAINT LOUIS, MO with annual revenue of approximately $807M",
JOHNS HOPKINS BAYVIEW MEDICAL CENTER INC,521341890,Health,600 N WOLFE STREET SUITE 5400,BALTIMORE,MD,21287-0005,,"Health organization in BALTIMORE, MD with annual revenue of approximately $805M",
OVERLAKE MEDICAL CENTER & CLINICS,910652651,Health,1035 116TH AVE NE,BELLEVUE,WA,98004-4604,,"Health organization in BELLEVUE, WA with annual revenue of approximately $802M",
GEISINGER SYSTEM SERVICES,232164794,Health,100 N ACADEMY AVE MC 49-70,DANVILLE,PA,17822-9800,,"Health organization in DANVILLE, PA with annual revenue of approximately $801M",
FAMILY HEALTH INTERNATIONAL,237413005,International,359 BLACKWELL ST STE 200,DURHAM,NC,27701-2477,,"International organization in DURHAM, NC with annual revenue of approximately $799M",
ST JOHNS UNIVERSITY NEW YORK,111630830,Education,8000 UTOPIA PKWY,JAMAICA,NY,11439-9000,,"Education organization in JAMAICA, NY with annual revenue of approximately $799M",
ALTA CALIFORNIA REGIONAL CENTER INC,941720511,Other,4151 E COMMERCE WAY STE 100,SACRAMENTO,CA,95834-9728,,"Other organization in SACRAMENTO, CA with annual revenue of approximately $799M",
SMDC MEDICAL CENTER,411878730,Health,502 E 2ND ST,DULUTH,MN,55805-1913,,"Health organization in DULUTH, MN with annual revenue of approximately $796M",
JAMAICA HOSPITAL MEDICAL CENTER,111631788,Health,8900 VAN WYCK EXPY,JAMAICA,NY,11418-2832,,"Health organization in JAMAICA, NY with annual revenue of approximately $795M",
ALEGENT HEALTH - BERGAN MERCY HEALTH SYSTEM,470484764,Health,7500 MERCY RD,OMAHA,NE,68124-2319,,"Health organization in OMAHA, NE with annual revenue of approximately $792M",
TUCSON MEDICAL CENTER,860137567,Health,5301 E GRANT RD,TUCSON,AZ,85712-2805,,"Health organization in TUCSON, AZ with annual revenue of approximately $791M",
GASTON MEMORIAL HOSPITAL INC,560619359,Health,2525 COURT DR,GASTONIA,NC,28054-2140,,"Health organization in GASTONIA, NC with annual revenue of approximately $790M",
CITY OF HOPE MEDICAL FOUNDATION,274803222,Health,1500 DUARTE RD,DUARTE,CA,91010-3012,,"Health organization in DUARTE, CA with annual revenue of approximately $789M",
TEXAS HEALTH PRESBYTERIAN HOSPITAL DALLAS,751047527,Health,8200 WALNUT HILL LN,DALLAS,TX,75231-4402,,"Health organization in DALLAS, TX with annual revenue of approximately $788M",
CHRISTIAN HEALTHCARE MINISTRIES INC,341964742,Religion,127 HAZELWOOD AVE,BARBERTON,OH,44203-1316,,"Religion organization in BARBERTON, OH with annual revenue of approximately $784M",
HARRISON MEDICAL CENTER,910565546,Health,2520 CHERRY AVE,BREMERTON,WA,98310-4229,,"Health organization in BREMERTON, WA with annual revenue of approximately $783M",
HEARTLAND REGIONAL MEDICAL CENTER,440545289,Health,5325 FARAON ST,SAINT JOSEPH,MO,64506-3488,,"Health organization in SAINT JOSEPH, MO with annual revenue of approximately $782M",
TEXAS CHILDRENS PHYSICIAN GROUP,260834681,Health,6330 WEST LOOP S STE 1300,BELLAIRE,TX,77401-2950,,"Health organization in BELLAIRE, TX with annual revenue of approximately $780M",
UNIVERSITY OF WISCONSIN FOUNDATION,390743975,Education,1848 UNIVERSITY AVE,MADISON,WI,53726-4090,,"Education organization in MADISON, WI with annual revenue of approximately $776M",
HOSPITAL OF CENTRAL CONNECTICUT AT NEW BRITAIN GENERAL AND BRADLEY ME,060646768,Health,100 GRAND ST,NEW BRITAIN,CT,06052-2016,,"Health organization in NEW BRITAIN, CT with annual revenue of approximately $776M",
PRIME HEALTHCARE FOUNDATION INC,208065139,Health,3480 E GUASTI RD,ONTARIO,CA,91761-7684,,"Health organization in ONTARIO, CA with annual revenue of approximately $776M",
CHAPMAN UNIVERSITY,951643992,Education,1 UNIVERSITY DR,ORANGE,CA,92866-1005,,"Education organization in ORANGE, CA with annual revenue of approximately $776M",
INDIANA UNIVERSITY HEALTH BLOOMINGON INC,351720796,Health,950 N MERIDIAN ST STE 1200,INDIANAPOLIS,IN,46204-1011,,"Health organization in INDIANAPOLIS, IN with annual revenue of approximately $772M",
UPMC,251423657,Health,600 GRANT ST 58TH FL C/O CORP TAX,PITTSBURGH,PA,15219-2739,,"Health organization in PITTSBURGH, PA with annual revenue of approximately $772M",
WEST VIRGINIA UNIVERSITY MEDICAL CORPORATION,550492006,Health,ONE MEDICAL CENTER DR BOX 8033,MORGANTOWN,WV,26506-1200,,"Health organization in MORGANTOWN, WV with annual revenue of approximately $769M",
NYC SCHOOL SUPPORT SERVICES INC,812621466,Education,180 MADISON AVE 12TH FLOOR,NEW YORK,NY,10016-5215,,"Education organization in NEW YORK, NY with annual revenue of approximately $767M",
MEDECINS SANS FRONTIERES USA INC,133433452,International,40 RECTOR ST 16TH FL,NEW YORK,NY,10006-1751,,"International organization in NEW YORK, NY with annual revenue of approximately $767M",
SHELBY COUNTY HEALTH CARE CORPORATION,621113169,Health,877 JEFFERSON AVE,MEMPHIS,TN,38103-2807,,"Health organization in MEMPHIS, TN with annual revenue of approximately $766M",
ST LUKES HEALTH SYSTEM LTD,562570681,Health,190 E BANNOCK ST,BOISE,ID,83712-6241,,"Health organization in BOISE, ID with annual revenue of approximately $764M",
WAKE FOREST UNIVERSITY,560532138,Education,1834 WAKE FOREST ROAD,WINSTONSALEM,NC,27109-6000,,"Education organization in WINSTONSALEM, NC with annual revenue of approximately $764M",
NORTHBAY HEALTHCARE GROUP,941458282,Health,1200 B GALE WILSON BLVD,FAIRFIELD,CA,94533-3552,,"Health organization in FAIRFIELD, CA with annual revenue of approximately $763M",
SOUTH NASSAU COMMUNITIES HOSPITAL,111352310,Health,1 HEALTHY WAY,OCEANSIDE,NY,11572-1551,,"Health organization in OCEANSIDE, NY with annual revenue of approximately $760M",
UNIVERSITY MEDICAL CENTER MANAGEMENT CORPORATON,251925187,Health,2000 CANAL ST,NEW ORLEANS,LA,70112-3018,,"Health organization in NEW ORLEANS, LA with annual revenue of approximately $759M",
COMMUNITY CARE INC,391264667,Human Services,205 BISHOPS WAY,BROOKFIELD,WI,53005-6247,,"Human Services organization in BROOKFIELD, WI with annual revenue of approximately $759M",
ASCENSION VIA CHRISTI HOSPITALS WICHITA INC,481172106,Health,PO BOX 45998,SAINT LOUIS,MO,63145-5998,,"Health organization in SAINT LOUIS, MO with annual revenue of approximately $759M",
LOKAHI ASSURANCE LTD,912171891,Other,C/O KP TAX ONE KAISER PLZ FL 26,OAKLAND,CA,94612-0000,,"Other organization in OAKLAND, CA with annual revenue of approximately $758M",
SAN ANDREAS REGIONAL CENTER,942591195,Human Services,6203 SAN IGNACIO AVE STE 200,SAN JOSE,CA,95119-1245,,"Human Services organization in SAN JOSE, CA with annual revenue of approximately $758M",
BERKSHIRE MEDICAL CENTER INC,042791396,Health,725 NORTH ST,PITTSFIELD,MA,01201-4109,,"Health organization in PITTSFIELD, MA with annual revenue of approximately $757M",
BAPTIST HEALTH MEDICAL GROUP INC,462597739,Health,6855 RED ROAD SUITE 600,CORAL GABLES,FL,33143-3518,,"Health organization in CORAL GABLES, FL with annual revenue of approximately $756M",
THE MIRIAM HOSPITAL,050258905,Health,164 SUMMIT AVE,PROVIDENCE,RI,02906-2853,,"Health organization in PROVIDENCE, RI with annual revenue of approximately $755M",
MARQUETTE UNIVERSITY,390806251,Education,PO BOX 1881,MILWAUKEE,WI,53201-1881,,"Education organization in MILWAUKEE, WI with annual revenue of approximately $750M",
CREIGHTON UNIVERSITY,470376583,Education,2500 CALIFORNIA PLZ,OMAHA,NE,68178-0133,,"Education organization in OMAHA, NE with annual revenue of approximately $750M",
FAYETTE COMMUNITY HOSPITAL INC,582322328,Health,1255 HIGHWAY 54 W,FAYETTEVILLE,GA,30214-4526,,"Health organization in FAYETTEVILLE, GA with annual revenue of approximately $748M",
LEHIGH UNIVERSITY,240795445,Education,306 S NEW ST SUITE 464,BETHLEHEM,PA,18015-1652,,"Education organization in BETHLEHEM, PA with annual revenue of approximately $748M",
BAKERSFIELD MEMORIAL HOSPITAL,951802779,Health,420 34TH ST,BAKERSFIELD,CA,93301-2237,,"Health organization in BAKERSFIELD, CA with annual revenue of approximately $744M",
NEBRASKA METHODIST HOSPITAL,470376604,Health,825 S 169TH ST,OMAHA,NE,68118-9300,,"Health organization in OMAHA, NE with annual revenue of approximately $743M",
NORTHWELL HEALTH LABORATORIES,113412370,Health,972 BRUSH HOLLOW RD 5TH FL,WESTBURY,NY,11590-1740,,"Health organization in WESTBURY, NY with annual revenue of approximately $743M",
MAINEGENERAL HEALTH,320265031,Other,35 MEDICAL CENTER PKWY,AUGUSTA,ME,04330-8160,,"Other organization in AUGUSTA, ME with annual revenue of approximately $743M",
HEALTHWELL FOUNDATION,200413676,Health,20440 CENTURY BLVD STE 250,GERMANTOWN,MD,20874-9180,,"Health organization in GERMANTOWN, MD with annual revenue of approximately $742M",
DAYTON CHILDRENS HOSPITAL,310672132,Health,1 CHILDRENS PLZ,DAYTON,OH,45404-1873,,"Health organization in DAYTON, OH with annual revenue of approximately $741M",
SHANNON MEDICAL CENTER,752559845,Health,120 E HARRIS AVE,SAN ANGELO,TX,76903-5904,,"Health organization in SAN ANGELO, TX with annual revenue of approximately $740M",
ST VINCENT HOSPITAL OF THE HOSPITAL SISTERS OF THE THIRD ORDER OF ST,390817529,Health,4936 LAVERNA RD,SPRINGFIELD,IL,62707-9797,,"Health organization in SPRINGFIELD, IL with annual revenue of approximately $739M",
MERCY CLINIC EAST COMMUNITIES,431771217,Other,14528 S OUTER FORTY,CHESTERFIELD,MO,63017-5785,,"Other organization in CHESTERFIELD, MO with annual revenue of approximately $739M",
AMERICAN CHEMICAL SOCIETY,530196572,Research,1155 16TH ST NW,WASHINGTON,DC,20036-4839,,"Research organization in WASHINGTON, DC with annual revenue of approximately $739M",
ELLIOT HOSPITAL OF THE CITY OF MANCHESTER,020232673,Health,1070 HOLT AVE UNIT 1 STE 2100,MANCHESTER,NH,03109-5603,,"Health organization in MANCHESTER, NH with annual revenue of approximately $736M",
DIALYSIS CLINIC INC,620850498,Health,1633 CHURCH ST STE 500,NASHVILLE,TN,37203-2948,,"Health organization in NASHVILLE, TN with annual revenue of approximately $736M",
GEORGE KAISER FAMILY FOUNDATION,731574370,Community,7030 S YALE AVE STE 600,TULSA,OK,74136-5749,,"Community organization in TULSA, OK with annual revenue of approximately $736M",
MANHATTAN AND BRONX SURFACE TRANSIT OPERATING AUTHORITY,131961750,Other,2 BROADWAY UNIT A1556,NEW YORK,NY,10004-2207,,"Other organization in NEW YORK, NY with annual revenue of approximately $736M",
THE UNITY HOSPITAL OF ROCHESTER,237221763,Health,100 KINGS HIGHWAY,ROCHESTER,NY,14617-5504,,"Health organization in ROCHESTER, NY with annual revenue of approximately $733M",
PORTERCARE ADVENTIST HEALTH SYSTEM,840438224,Health,6061 S WILLOW DRIVE,GREENWOOD VILLAGE,CO,80111-5140,,"Health organization in GREENWOOD VILLAGE, CO with annual revenue of approximately $731M",
JOBSOHIO BEVERAGE SYSTEM,201255734,Community,41 S HIGH ST STE 1500,COLUMBUS,OH,43215-6132,,"Community organization in COLUMBUS, OH with annual revenue of approximately $730M",
ENDEAVOR HEALTH MEDICAL GROUP,363738206,Health,3040 W SALT CREEK LN,ARLINGTON HTS,IL,60005-1069,,"Health organization in ARLINGTON HTS, IL with annual revenue of approximately $730M",
MEMORIAL HOSPITAL OF SOUTH BEND,350868132,Health,615 N MICHIGAN ST,SOUTH BEND,IN,46601-1033,,"Health organization in SOUTH BEND, IN with annual revenue of approximately $730M",
ASPIRUS WAUSAU HOSPITAL INC,391138241,Health,333 PINE RIDGE BLVD,WAUSAU,WI,54401-4120,,"Health organization in WAUSAU, WI with annual revenue of approximately $730M",
COMMUNITY MEDICAL ASSOCIATES INC,611276316,Health,ACCOUNTING 224 E BROADWAY 5TH FLOOR,LOUISVILLE,KY,40202-0000,,"Health organization in LOUISVILLE, KY with annual revenue of approximately $730M",
MUNSTER MEDICAL RESEARCH FOUNDATION INC,351107009,Health,10010 DONALD S POWERS DR,MUNSTER,IN,46321-4054,,"Health organization in MUNSTER, IN with annual revenue of approximately $729M",
PLAN INTERNATIONAL INC,510169168,International,305 E 47TH ST,NEW YORK,NY,10017-2303,,"International organization in NEW YORK, NY with annual revenue of approximately $726M",
REGIONAL CENTER OF ORANGE COUNTY,953119548,Human Services,1525 N TUSTIN AVE,SANTA ANA,CA,92705-8621,,"Human Services organization in SANTA ANA, CA with annual revenue of approximately $724M",
MERCY HEALTH SYSTEM CORPORATION,390816848,Health,1000 MINERAL POINT AVE,JANESVILLE,WI,53548-2940,,"Health organization in JANESVILLE, WI with annual revenue of approximately $723M",
HUNTINGTON HOSPITAL ASSOCIATION,111630914,Health,972 BRUSH HOLLOW RD 5TH FL,WESTBURY,NY,11590-1740,,"Health organization in WESTBURY, NY with annual revenue of approximately $722M",
THE UCLA FOUNDATION,952250801,Education,10889 WILSHIRE BLVD STE 1500,LOS ANGELES,CA,90024-4200,,"Education organization in LOS ANGELES, CA with annual revenue of approximately $722M",
HACKENSACK MERIDIAN HEALTH MEDICAL GROUP-SPECIALTY CARE PC,223376459,Other,399 THORNALL ST STE 2,EDISON,NJ,08837-2238,,"Other organization in EDISON, NJ with annual revenue of approximately $720M",
FACULTY PHYSICIANS AND SURGEONS OF LLUSM,330672915,Health,11175 CAMPUS STREET 11120,LOMA LINDA,CA,92350-1700,,"Health organization in LOMA LINDA, CA with annual revenue of approximately $720M",
UNITED STATES FUND FOR UNICEF,131760110,International,125 MAIDEN LANE,NEW YORK,NY,10038-4912,,"International organization in NEW YORK, NY with annual revenue of approximately $720M",
ST MARYS MEDICAL CENTER INC,550357050,Other,2900 1ST AVE,HUNTINGTON,WV,25702-1271,,"Other organization in HUNTINGTON, WV with annual revenue of approximately $715M",
FERMI RESEARCH ALLIANCE LLC,571239010,Research,PO BOX 500,BATAVIA,IL,60510-5011,,"Research organization in BATAVIA, IL with annual revenue of approximately $715M",
MEMORIAL HEALTH CARE SYSTEM INC,620532345,Other,2525 DESALES AVE,CHATTANOOGA,TN,37404-1161,,"Other organization in CHATTANOOGA, TN with annual revenue of approximately $714M",
HARVARD MEDICAL FACULTY PHYS AT BETH ISRAEL DEACONESS MED CTR INC,222768204,Health,375 LONGWOOD AVE STE 3,BOSTON,MA,02215-5395,,"Health organization in BOSTON, MA with annual revenue of approximately $714M",
ANMED HEALTH,570359174,Health,800 N FANT ST,ANDERSON,SC,29621-5708,,"Health organization in ANDERSON, SC with annual revenue of approximately $712M",
THE JOHNS HOPKINS HEALTH SYSTEM CORPORATION,521465301,Health,3910 KESWICK RD S BLDG 4300A,BALTIMORE,MD,21211-2226,,"Health organization in BALTIMORE, MD with annual revenue of approximately $711M",
ATLANTIC COAST CONFERENCE,560599082,Human Services,620 S TRYON ST SUITE 1200,CHARLOTTE,NC,28202-1842,,"Human Services organization in CHARLOTTE, NC with annual revenue of approximately $711M",
CONCORD HOSPITAL INC,222594672,Health,250 PLEASANT ST,CONCORD,NH,03301-7559,,"Health organization in CONCORD, NH with annual revenue of approximately $710M",
RENSSELAER POLYTECHNIC INSTITUTE,141340095,Education,110 8TH ST,TROY,NY,12180-3590,,"Education organization in TROY, NY with annual revenue of approximately $709M",
HOLY CROSS HEALTH INC,520738041,Other,1500 FOREST GLEN RD,SILVER SPRING,MD,20910-1460,,"Other organization in SILVER SPRING, MD with annual revenue of approximately $708M",
PACE UNIVERSITY,135562314,Education,100 SUMMIT LAKE DRIVE 3RD FLOOR,VALHALLA,NY,10595-1321,,"Education organization in VALHALLA, NY with annual revenue of approximately $707M",
HARTFORD HEALTH CARE CORPORATION,222672834,Health,100 PEARL STREET,HARTFORD,CT,06103-4506,,"Health organization in HARTFORD, CT with annual revenue of approximately $707M",
SOUTHERN ILLINOIS HOSPITAL SERVICES,370618939,Health,PO BOX 3988,CARBONDALE,IL,62902-3988,,"Health organization in CARBONDALE, IL with annual revenue of approximately $707M",
SCRIPPS HEALTH PLAN SERVICES INC,330782099,Health,10790 RANCHO BERNARDO RD,SAN DIEGO,CA,92127-5705,,"Health organization in SAN DIEGO, CA with annual revenue of approximately $706M",
HOFSTRA UNIVERSITY,111630906,Education,128-HOFSTRA UNIV PHILLIPS HALL 100,HEMPSTEAD,NY,11549-0001,,"Education organization in HEMPSTEAD, NY with annual revenue of approximately $705M",
PEPPERDINE UNIVERSITY,951644037,Education,24255 PACIFIC COAST HIGHWAY,MALIBU,CA,90263-3999,,"Education organization in MALIBU, CA with annual revenue of approximately $705M",
BLESSING HOSPITAL,370661183,Health,PO BOX 7005,QUINCY,IL,62305-7005,,"Health organization in QUINCY, IL with annual revenue of approximately $704M",
THE JEWISH FEDERATIONS OF NORTH AMERICA INC,131624240,Community,25 BROADWAY 17TH FL,NEW YORK,NY,10004-1015,,"Community organization in NEW YORK, NY with annual revenue of approximately $702M",
LOMA LINDA UNIVERSITY CHILDRENS HOSPITAL,463214504,Other,PO BOX 2000,LOMA LINDA,CA,92354-0200,,"Other organization in LOMA LINDA, CA with annual revenue of approximately $700M",
UNION HOSPITAL INC,350876396,Health,1606 N 7TH ST,TERRE HAUTE,IN,47804-2706,,"Health organization in TERRE HAUTE, IN with annual revenue of approximately $699M",
LOYOLA MARYMOUNT UNIVERSITY,951643334,Education,1 LMU DR STE 1880,LOS ANGELES,CA,90045-2678,,"Education organization in LOS ANGELES, CA with annual revenue of approximately $697M",
THE METROPOLITAN MUSEUM OF ART,131624086,Arts & Culture,1000 FIFTH AVENUE,NEW YORK,NY,10028-0113,,"Arts & Culture organization in NEW YORK, NY with annual revenue of approximately $697M",
CHRISTUS GOOD SHEPHERD MEDICAL CENTER,750974351,Health,811 S WASHINGTON AVE,MARSHALL,TX,75670-5336,,"Health organization in MARSHALL, TX with annual revenue of approximately $696M",
SCOTT & WHITE HOSPITAL ROUND ROCK,203749695,Health,301 N WASHINGTON AVE,DALLAS,TX,75246-1754,,"Health organization in DALLAS, TX with annual revenue of approximately $695M",
SAINT FRANCIS MEDICAL CENTER,237246265,Health,211 SAINT FRANCIS DR,CPE GIRARDEAU,MO,63703-5049,,"Health organization in CPE GIRARDEAU, MO with annual revenue of approximately $695M",
HARTFORD HEALTHCARE MEDICAL GROUP SPECIALISTS PLLC,371911194,Health,1290 SILAS DEANE HWY 2ND FLOOR,WETHERSFIELD,CT,06109-4337,,"Health organization in WETHERSFIELD, CT with annual revenue of approximately $694M",
MYMICHIGAN MEDICAL CENTER MIDLAND,380833014,Health,1000 WELLNESS DR,MIDLAND,MI,48670-0001,,"Health organization in MIDLAND, MI with annual revenue of approximately $694M",
MARY IMOGENE BASSETT HOSPITAL,135596796,Health,1 ATWELL RD,COOPERSTOWN,NY,13326-1301,,"Health organization in COOPERSTOWN, NY with annual revenue of approximately $694M",
BAYLOR ALL SAINTS MEDICAL CENTER,751008430,Health,301 N WASHINGTON AVE,DALLAS,TX,75246-1754,,"Health organization in DALLAS, TX with annual revenue of approximately $693M",
JEFFERSON HEALTH-NORTHEAST,230596940,Health,10800 KNIGHTS RD,PHILADELPHIA,PA,19114-4200,,"Health organization in PHILADELPHIA, PA with annual revenue of approximately $693M",
ST MARYS HEALTH INC DBA ASCENSION,350869065,Health,PO BOX 45998,SAINT LOUIS,MO,63145-5998,,"Health organization in SAINT LOUIS, MO with annual revenue of approximately $689M",
PIKEVILLE MEDICAL CENTER INC,610458376,Health,911 BYPASS RD,PIKEVILLE,KY,41501-1602,,"Health organization in PIKEVILLE, KY with annual revenue of approximately $688M",
CHILDRENS HOSPITAL INC,720467503,Health,200 HENRY CLAY AVE,NEW ORLEANS,LA,70118-5720,,"Health organization in NEW ORLEANS, LA with annual revenue of approximately $688M",
BATON ROUGE GENERAL MEDICAL CENTER,721025017,Health,8490 PICARDY AVENUE 300-B,BATON ROUGE,LA,70809-3733,,"Health organization in BATON ROUGE, LA with annual revenue of approximately $688M",
KENT COUNTY MEMORIAL HOSPITAL,050258896,Health,4 RICHMOND SQUARE 4TH FLOOR,PROVIDENCE,RI,02906-5117,,"Health organization in PROVIDENCE, RI with annual revenue of approximately $687M",
MY CHOICE WISCONSIN INC,811970070,Health,PO BOX 131,GREENDALE,WI,53129-0131,,"Health organization in GREENDALE, WI with annual revenue of approximately $686M",
VITALANT,860098929,Health,9305 EAST VIA DE VENTURA,SCOTTSDALE,AZ,85258-3597,,"Health organization in SCOTTSDALE, AZ with annual revenue of approximately $686M",
WEST KENDALL BAPTIST HOSPITAL INC,522438452,Health,9555 SW 162ND AVE,MIAMI,FL,33196-6408,,"Health organization in MIAMI, FL with annual revenue of approximately $683M",
LAFAYETTE GENERAL MEDICAL CENTER INC,720535375,Health,1214 COOLIDGE BLVD,LAFAYETTE,LA,70503-2621,,"Health organization in LAFAYETTE, LA with annual revenue of approximately $681M",
PRESIDENT-BOARD OF TRUSTEES SANTA CLARA COLLEGE,941156617,Education,500 EL CAMINO REAL,SANTA CLARA,CA,95053-1000,,"Education organization in SANTA CLARA, CA with annual revenue of approximately $679M",
GENESIS HEALTH SYSTEM,421418847,Health,1227 E RUSHOLME ST,DAVENPORT,IA,52803-2459,,"Health organization in DAVENPORT, IA with annual revenue of approximately $675M",
RESEARCH FOUNDATION OF THE CITY UNIVERSITY OF NEW YORK,131988190,Education,230 WEST 41ST STREET,NEW YORK,NY,10036-7207,,"Education organization in NEW YORK, NY with annual revenue of approximately $673M",
ALTRU HEALTH SYSTEM,450310462,Health,PO BOX 6002,GRAND FORKS,ND,58206-6002,,"Health organization in GRAND FORKS, ND with annual revenue of approximately $672M",
LUMINIS HEALTH ANNE ARUNDEL MEDICAL CENTER INC,521169362,Health,2000 MEDICAL PKWY STE 606,ANNAPOLIS,MD,21401-3748,,"Health organization in ANNAPOLIS, MD with annual revenue of approximately $672M",
PIEDMONT HENRY HOSPITAL INC,582200195,Health,1133 EAGLES LANDING PKWY,STOCKBRIDGE,GA,30281-5085,,"Health organization in STOCKBRIDGE, GA with annual revenue of approximately $672M",
UNIVERSITY OF ILLINOIS FOUNDATION,376006007,Education,303 SAINT MARYS RD,CHAMPAIGN,IL,61820-6930,,"Education organization in CHAMPAIGN, IL with annual revenue of approximately $671M",
PUBLIC HEALTH FOUNDATION INC,952557063,Other,13300 CROSSROADS PKWY NORTH SUITE 4,CITY OF INDUSTRY,CA,91746-3407,,"Other organization in CITY OF INDUSTRY, CA with annual revenue of approximately $670M",
ADENA HEALTH SYSTEM,314379443,Health,272 HOSPITAL RD,CHILLICOTHE,OH,45601-9031,,"Health organization in CHILLICOTHE, OH with annual revenue of approximately $670M",
GENESIS HEALTHCARE SYSTEM,311480941,Health,2951 MAPLE AVE,ZANESVILLE,OH,43701-1406,,"Health organization in ZANESVILLE, OH with annual revenue of approximately $669M",
FREEMAN HEALTH SYSTEM,431704371,Health,1102 W 32ND ST,JOPLIN,MO,64804-3503,,"Health organization in JOPLIN, MO with annual revenue of approximately $669M",
NEW VENTURE FUND,205806345,Environment,1828 L STREET NW SUITE 300-A,WASHINGTON,DC,20036-5109,,"Environment organization in WASHINGTON, DC with annual revenue of approximately $669M",
CHILD CARE RESOURCE CENTER INC,953081695,Human Services,20001 PRAIRIE ST,CHATSWORTH,CA,91311-6508,,"Human Services organization in CHATSWORTH, CA with annual revenue of approximately $668M",
NATIONAL MARROW DONOR PROGRAM,840865803,Health,500 N 5TH ST,MINNEAPOLIS,MN,55401-1206,,"Health organization in MINNEAPOLIS, MN with annual revenue of approximately $666M",
MEMORIAL HEALTH SYSTEMS INC,590973502,Health,301 MEMORIAL MEDICAL PKWY,DAYTONA BEACH,FL,32117-5167,,"Health organization in DAYTONA BEACH, FL with annual revenue of approximately $665M",
CHILDRENS HOSPITAL OF THE KINGS DAUGHTERS INC,540506321,Health,601 CHILDRENS LN,NORFOLK,VA,23507-1910,,"Health organization in NORFOLK, VA with annual revenue of approximately $665M",
HEALTH CARE LA IPA,954298276,Health,4195 E THOUSAND OAKS BLVD STE 235,WESTLAKE VLG,CA,91362-3868,,"Health organization in WESTLAKE VLG, CA with annual revenue of approximately $665M",
ST LUKES EPISCOPAL-PRESBYTERIAN HOSPITAL,430652680,Health,232 S WOODS MILL RD,CHESTERFIELD,MO,63017-3417,,"Health organization in CHESTERFIELD, MO with annual revenue of approximately $664M",
HOLY CROSS HOSPITAL INC,590791028,Health,4725 N FEDERAL HWY,FT LAUDERDALE,FL,33308-4603,,"Health organization in FT LAUDERDALE, FL with annual revenue of approximately $663M",
COLUMBIA ST MARYS HOSPITAL MILWAUKEE INC,390806315,Health,PO BOX 45998,SAINT LOUIS,MO,63145-5998,,"Health organization in SAINT LOUIS, MO with annual revenue of approximately $662M",
PROHEALTH WAUKESHA MEMORIAL HOSPITAL INC,390910727,Health,725 AMERICAN AVE,WAUKESHA,WI,53188-5031,,"Health organization in WAUKESHA, WI with annual revenue of approximately $662M",
MERCY HOSPITAL SOUTH,430980256,Health,10010 KENNERLY RD,SAINT LOUIS,MO,63128-2106,,"Health organization in SAINT LOUIS, MO with annual revenue of approximately $661M",
SHARP CHULA VISTA MEDICAL CENTER,952367304,Health,8695 SPECTRUM CENTER BLVD,SAN DIEGO,CA,92123-1489,,"Health organization in SAN DIEGO, CA with annual revenue of approximately $659M",
MARTINS POINT GENERATIONS ADVANTAGE INC,474682941,Health,331 VERANDA ST,PORTLAND,ME,04103-5535,,"Health organization in PORTLAND, ME with annual revenue of approximately $658M",
CENTRAL PENINSULA GENERAL HOSPITAL INC,920077523,Health,250 HOSPITAL PL,SOLDOTNA,AK,99669-7559,,"Health organization in SOLDOTNA, AK with annual revenue of approximately $657M",
AMERICAN CANCER SOCIETY INC,131788491,Health,270 PEACHTREE ST NW STE 1300,ATLANTA,GA,30303-1246,,"Health organization in ATLANTA, GA with annual revenue of approximately $656M",
UNIVERSITY OF VIRGINIA PHYSICIANS GROUP,541124769,Health,100 AVON ST APT 201,CHARLOTTESVLE,VA,22902-5703,,"Health organization in CHARLOTTESVLE, VA with annual revenue of approximately $656M",
MOBILE INFIRMARY ASSOCIATION,630288856,Health,PO BOX 2226,MOBILE,AL,36652-2226,,"Health organization in MOBILE, AL with annual revenue of approximately $654M",
LUCY WEBB HAYNES NATIONAL TRAINING SCHOOL FOR DEACONESSES AND MISSION,530196602,Health,5255 LOUGHBORO RD NW,WASHINGTON,DC,20016-2633,,"Health organization in WASHINGTON, DC with annual revenue of approximately $653M",
FLOYD HEALTHCARE MANAGEMENT INC,581973570,Health,304 TURNER MCCALL BLVD SW,ROME,GA,30165-5621,,"Health organization in ROME, GA with annual revenue of approximately $652M",
UNIVERSITY OF LOUISVILLE RESEARCH FOUNDATION INC,611029626,Education,2215 S BROOK ST,LOUISVILLE,KY,40208-1874,,"Education organization in LOUISVILLE, KY with annual revenue of approximately $651M",
INSTITUTE OF ELECTRICAL AND ELECTRONICS ENGINEERS INC,131656633,Education,445 HOES LN,PISCATAWAY,NJ,08854-4141,,"Education organization in PISCATAWAY, NJ with annual revenue of approximately $650M",
WHITE MEMORIAL MEDICAL CENTER,952282647,Health,1 ADVENTIST HEALTH WAY,ROSEVILLE,CA,95661-3266,,"Health organization in ROSEVILLE, CA with annual revenue of approximately $650M",
NORTHEAST MEDICAL GROUP INC,061330992,Other,99 HAWLEY LANE,STRATFORD,CT,06614-1202,,"Other organization in STRATFORD, CT with annual revenue of approximately $646M",
CHILDRENS HOSPITAL & MEDICAL CENTER,470379754,Health,8200 DODGE ST,OMAHA,NE,68114-4113,,"Health organization in OMAHA, NE with annual revenue of approximately $646M",
CENTERLIGHT HEALTHCARE INC,133600807,Health,13665 37TH AVE,FLUSHING,NY,11354-4110,,"Health organization in FLUSHING, NY with annual revenue of approximately $646M",
UNITED HOSPITAL CENTER INC,550525724,Health,327 MEDICAL PARK DR,BRIDGEPORT,WV,26330-9006,,"Health organization in BRIDGEPORT, WV with annual revenue of approximately $646M",
HENRY FORD MACOMB HOSPITAL CORPORATION,382947657,Health,ONE FORD PLACE - 5F,DETROIT,MI,48202-3450,,"Health organization in DETROIT, MI with annual revenue of approximately $645M",
ROCKEFELLER PHILANTHROPY ADVISORS INC,133615533,Community,120 BROADWAY STE 3475,NEW YORK,NY,10271-3401,,"Community organization in NEW YORK, NY with annual revenue of approximately $644M",
ST BERNARDS HOSPITAL INC,710290019,Health,225 E WASHINGTON AVE,JONESBORO,AR,72401-3111,,"Health organization in JONESBORO, AR with annual revenue of approximately $644M",
MEDICAL CENTER OF THE ROCKIES,043730045,Health,2315 E HARMONY RD STE 200,FORT COLLINS,CO,80528-8620,,"Health organization in FORT COLLINS, CO with annual revenue of approximately $641M",
INDIANA UNIVERSITY HEALTH ARNETT INC,263162145,Health,950 N MERIDIAN ST STE 1200,INDIANAPOLIS,IN,46204-1011,,"Health organization in INDIANAPOLIS, IN with annual revenue of approximately $641M",
LETTIE PATE EVANS FOUNDATION INC TRUSTEE OF THE RESTRICTED FUND UW,237282939,Community,191 PEACHTREE ST NE STE 3540,ATLANTA,GA,30303-1799,,"Community organization in ATLANTA, GA with annual revenue of approximately $641M",
SCRIPPS RESEARCH INSTITUTE,330435954,Health,10550 N TORREY PINES RD,LA JOLLA,CA,92037-1000,,"Health organization in LA JOLLA, CA with annual revenue of approximately $641M",
ELMHURST MEMORIAL HEALTHCARE,352339114,Other,155 E BRUSH HILL RD,ELMHURST,IL,60126-5658,,"Other organization in ELMHURST, IL with annual revenue of approximately $640M",
CORPORATION FOR PUBLIC BROADCASTING,132607374,Arts & Culture,401 9TH ST NW STE 200,WASHINGTON,DC,20004-2129,,"Arts & Culture organization in WASHINGTON, DC with annual revenue of approximately $640M",
SAINT AGNES MEDICAL CENTER,941437713,Health,1303 E HERNDON AVE,FRESNO,CA,93720-3309,,"Health organization in FRESNO, CA with annual revenue of approximately $638M",
SHAWNEE MISSION MEDICAL CENTER INC,480637331,Health,9100 W 74TH ST,SHAWNEE MSN,KS,66204-4004,,"Health organization in SHAWNEE MSN, KS with annual revenue of approximately $638M",
SVMC HOLDINGS INC,832550272,Health,2800 MAIN ST,BRIDGEPORT,CT,06606-4201,,"Health organization in BRIDGEPORT, CT with annual revenue of approximately $637M",
BOWLING GREEN-WARREN COUNTY COMMUNITY HOSPITAL CORPORATION,610920842,Health,800 PARK ST,BOWLING GREEN,KY,42101-2347,,"Health organization in BOWLING GREEN, KY with annual revenue of approximately $637M",
CONNECTICUT CHILDRENS MEDICAL CENTER,060646755,Health,282 WASHINGTON ST,HARTFORD,CT,06106-3322,,"Health organization in HARTFORD, CT with annual revenue of approximately $637M",
SOUTH CENTRAL L A REG CENTRAL FOR DVLOPMNTLY DISABLED PERSONS INC,953861159,Human Services,2500 S WESTERN AVE,LOS ANGELES,CA,90018-2609,,"Human Services organization in LOS ANGELES, CA with annual revenue of approximately $636M",
BON SECOURS CHARITY HEALTH SYSTEM AFFILIATED GROUP,452964467,Health,255 LAFAYETTE AVE,SUFFERN,NY,10901-4812,,"Health organization in SUFFERN, NY with annual revenue of approximately $636M",
BEEBE MEDICAL CENTER INC,510067938,Health,424 SAVANNAH RD,LEWES,DE,19958-1462,,"Health organization in LEWES, DE with annual revenue of approximately $634M",
MERCY MEDICAL CENTER INC,520591658,Health,301 ST PAUL PLACE,BALTIMORE,MD,21202-0000,,"Health organization in BALTIMORE, MD with annual revenue of approximately $633M",
SOUTHCENTRAL FOUNDATION,920086076,Health,4501 DIPLOMACY DR,ANCHORAGE,AK,99508-5919,,"Health organization in ANCHORAGE, AK with annual revenue of approximately $633M",
MERITUS MEDICAL CENTER INC,520607949,Health,11116 MEDICAL CAMPUS RD,HAGERSTOWN,MD,21742-6710,,"Health organization in HAGERSTOWN, MD with annual revenue of approximately $633M",
MARSHFIELD CLINIC INC,390452970,Health,1000 N OAK AVE,MARSHFIELD,WI,54449-5703,,"Health organization in MARSHFIELD, WI with annual revenue of approximately $633M",
CONSORTIUM MANAGEMENT GROUP INC,464166123,Community,550 HILLS DR STE 108B,BEDMINSTER,NJ,07921-1537,,"Community organization in BEDMINSTER, NJ with annual revenue of approximately $630M",
CENTRAL VALLEY REGIONAL CENTER INC,942823126,Human Services,4615 N MARTY AVE,FRESNO,CA,93722-4186,,"Human Services organization in FRESNO, CA with annual revenue of approximately $630M",
CENTRAL WASHINGTON HEALTH SERVICES ASSOCIATION,910171250,Health,1201 S MILLER ST,WENATCHEE,WA,98801-3201,,"Health organization in WENATCHEE, WA with annual revenue of approximately $629M",
EVERGLADES COLLEGE INC,650216638,Education,COND EL MIRADOR,SAN JUAN,PR,00915-2866,,"Education organization in SAN JUAN, PR with annual revenue of approximately $629M",
GREATER BALTIMORE MEDICAL CENTER,526049658,Health,6701 N CHARLES ST,BALTIMORE,MD,21204-6808,,"Health organization in BALTIMORE, MD with annual revenue of approximately $629M",
DONORS FUND INC,474844275,Community,1777 AVE OF THE STATES,LAKEWOOD,NJ,08701-6205,,"Community organization in LAKEWOOD, NJ with annual revenue of approximately $628M",
HENRY M JACKSON FOUNDATION FOR THE ADVANCEMENT OF MILITARY MEDICINE,521317896,Health,6720A ROCKLEDGE DR STE 100,BETHESDA,MD,20817-1891,,"Health organization in BETHESDA, MD with annual revenue of approximately $628M",
ST VINCENT HOSPITAL,850106941,Health,455 SAINT MICHAELS DR,SANTA FE,NM,87505-7601,,"Health organization in SANTA FE, NM with annual revenue of approximately $628M",
OUR LADY OF LOURDES REGIONAL MEDICAL CENTER INC,720423635,Health,4200 ESSEN LN,BATON ROUGE,LA,70809-2158,,"Health organization in BATON ROUGE, LA with annual revenue of approximately $628M",
SARAH BUSH LINCOLN HEALTH CENTER,237098532,Health,1000 HEALTH CENTER DR,MATTOON,IL,61938-4644,,"Health organization in MATTOON, IL with annual revenue of approximately $626M",
MERITER HOSPITAL INC,390806367,Health,202 S PARK ST,MADISON,WI,53715-1507,,"Health organization in MADISON, WI with annual revenue of approximately $625M",
INNOVIS HEALTH LLC,261175213,Health,3000 32ND AVE S,FARGO,ND,58103-6132,,"Health organization in FARGO, ND with annual revenue of approximately $625M",
ST JOSEPHS HOSPITAL HEALTH CENTER,150532254,Health,1300 MASSACHUSETTS AVENUE 6TH,TROY,NY,12180-1628,,"Health organization in TROY, NY with annual revenue of approximately $622M",
NOBLIS INC,541781521,Research,2002 EDMUND HALLEY DR,RESTON,VA,20191-3436,,"Research organization in RESTON, VA with annual revenue of approximately $621M",
FIAT LUX RISK AND INSURANCE COMPANY,461828839,Other,1608 RHODE ISLAND AVE NW,WASHINGTON,DC,20036-3206,,"Other organization in WASHINGTON, DC with annual revenue of approximately $621M",
SAN JOAQUIN COMMUNITY HOSPITAL CORPORATION,952294234,Health,1 ADVENTIST HEALTH WAY,ROSEVILLE,CA,95661-3266,,"Health organization in ROSEVILLE, CA with annual revenue of approximately $621M",
COMMUNITY MEMORIAL HEALTH SYSTEM,951683892,Health,147 N BRENT ST,VENTURA,CA,93003-2809,,"Health organization in VENTURA, CA with annual revenue of approximately $620M",
SAINT JOSEPH HOSPITAL,840417134,Health,1375 E 19TH AVE,DENVER,CO,80218-1114,,"Health organization in DENVER, CO with annual revenue of approximately $616M",
NORTHWEST COMMUNITY HOSPITAL,362340313,Health,3040 W SALT CREEK LN,ARLINGTON HTS,IL,60005-1069,,"Health organization in ARLINGTON HTS, IL with annual revenue of approximately $616M",
JACK AND NANCY DWYER WORKFORCE DEVELOPMENT CENTER INC,862555082,Health,2 HAMILL RD STE 245,BALTIMORE,MD,21210-1802,,"Health organization in BALTIMORE, MD with annual revenue of approximately $613M",
TEXAS HEALTH PHYSICIANS GROUP,752613493,Health,9250 AMBERTON PKWY,DALLAS,TX,75243-3224,,"Health organization in DALLAS, TX with annual revenue of approximately $613M",
FRANKLIN SQUARE HOSPITAL CENTER INC,520608007,Health,9000 FRANKLIN SQUARE DR,BALTIMORE,MD,21237-3901,,"Health organization in BALTIMORE, MD with annual revenue of approximately $613M",
PRINCETON HEALTHCARE SYSTEM A NEW JERSEY NON-PROFIT CORP,210635009,Health,1 PLAINSBORO RD,PLAINSBORO,NJ,08536-1913,,"Health organization in PLAINSBORO, NJ with annual revenue of approximately $612M",
IOWA PHYSICIANS CLINIC MEDICAL FOUNDATION,421411630,Health,1776 WESTLAKES PKWY STE 400,WDM,IA,50266-8393,,"Health organization in WDM, IA with annual revenue of approximately $612M",
UNIVERSITY HEALTH SERVICES INC,581581103,Health,1350 WALTON WAY,AUGUSTA,GA,30901-2612,,"Health organization in AUGUSTA, GA with annual revenue of approximately $611M",
NORTON HEALTHCARE INC,611028725,Health,9500 ORMSBY STATION ROAD,LOUISVILLE,KY,40223-4069,,"Health organization in LOUISVILLE, KY with annual revenue of approximately $607M",
YOUNG MENS CHRISTIAN ASSOCIATION RETIREMENT FUND,135562401,Other,1177 AVENUE OF THE AMERICAS,NEW YORK,NY,10036-2714,,"Other organization in NEW YORK, NY with annual revenue of approximately $606M",
NEW YORK BLOOD CENTER INC,131949477,Health,310 E 67TH ST,NEW YORK,NY,10065-6275,,"Health organization in NEW YORK, NY with annual revenue of approximately $605M",
THE LOWELL GENERAL HOSPITAL,042103590,Health,295 VARNUM AVE,LOWELL,MA,01854-2193,,"Health organization in LOWELL, MA with annual revenue of approximately $605M",
INDIANA UNIVERSITY HEALTH BALL MEMORIAL HOSPITAL INC,350867958,Health,950 N MERIDIAN ST STE 1200,INDIANAPOLIS,IN,46204-1011,,"Health organization in INDIANAPOLIS, IN with annual revenue of approximately $604M",
BAR ILAN UNIVERSITY IN ISRAEL,136192275,Other,160 EAST 56TH STREET,NEW YORK,NY,10022-3609,,"Other organization in NEW YORK, NY with annual revenue of approximately $603M",
METROPOLITAN HOSPITAL,380593405,Health,5900 BYRON CENTER AVE SW,WYOMING,MI,49519-9606,,"Health organization in WYOMING, MI with annual revenue of approximately $602M",
ST JOHNS HOSPITAL OF THE HOSPITAL SISTERS OF THE THIRD ORDER OF ST F,370661238,Health,4936 LAVERNA RD,SPRINGFIELD,IL,62707-9797,,"Health organization in SPRINGFIELD, IL with annual revenue of approximately $601M",
ST JOHN MEDICAL CENTER INC,730579286,Health,1923 S UTICA AVE,TULSA,OK,74104-6520,,"Health organization in TULSA, OK with annual revenue of approximately $600M",
HARMONY PUBLIC SCHOOLS,760615245,Education,1255 ENCLAVE PKWY STE 150,HOUSTON,TX,77077-1999,,"Education organization in HOUSTON, TX with annual revenue of approximately $599M",
EXCELA HEALTH,900759236,Other,532 W PITTSBURGH ST,GREENSBURG,PA,15601-2239,,"Other organization in GREENSBURG, PA with annual revenue of approximately $598M",
ST DOMINIC-JACKSON MEMORIAL HOSPITAL,640303091,Health,969 LAKELAND DR,JACKSON,MS,39216-4699,,"Health organization in JACKSON, MS with annual revenue of approximately $596M",
EAST CAROLINA HEALTH,911997979,Health,2100 STANTONSBURG RD,GREENVILLE,NC,27834-2818,,"Health organization in GREENVILLE, NC with annual revenue of approximately $596M",
QUINNIPIAC UNIVERSITY,060646701,Education,275 MOUNT CARMEL AVENUE,HAMDEN,CT,06518-1908,,"Education organization in HAMDEN, CT with annual revenue of approximately $595M",
WOMEN & INFANTS HOSPITAL OF RHODE ISLAND,050258937,Health,4 RICHMOND SQUARE 4TH FLOOR,PROVIDENCE,RI,02906-5117,,"Health organization in PROVIDENCE, RI with annual revenue of approximately $595M",
THE MEDICAL CENTER INC,581685139,Health,710 CENTER ST,COLUMBUS,GA,31901-1527,,"Health organization in COLUMBUS, GA with annual revenue of approximately $593M",
SERVANT FOUNDATION,431890105,Religion,7171 W 95TH ST STE 501,OVERLAND PARK,KS,66212-2254,,"Religion organization in OVERLAND PARK, KS with annual revenue of approximately $592M",
ADVOCATE HEALTH CARE NETWORK,262525968,Health,3075 HIGHLAND PKWY FL 6,DOWNERS GROVE,IL,60515-5563,,"Health organization in DOWNERS GROVE, IL with annual revenue of approximately $591M",
MARIN GENERAL HOSPITAL,942823538,Health,100B DRAKES LANDING RD STE 190,GREENBRAE,CA,94904-3120,,"Health organization in GREENBRAE, CA with annual revenue of approximately $589M",
TRUSTEES OF THE ESTATE OF BERNICE PAUAHI BISHOP,990073480,Education,567 S KING ST STE 200,HONOLULU,HI,96813-3079,,"Education organization in HONOLULU, HI with annual revenue of approximately $588M",
THE NEW SCHOOL,133297197,Education,66 W 12TH ST,NEW YORK,NY,10011-8603,,"Education organization in NEW YORK, NY with annual revenue of approximately $588M",
MISSISSIPPI BAPTIST MEDICAL CENTER,640881013,Health,1225 NORTH STATE STREET,JACKSON,MS,39202-2064,,"Health organization in JACKSON, MS with annual revenue of approximately $587M",
SILVER CROSS HOSPITAL & MEDICAL CENTERS,362174832,Health,1900 SILVER CROSS BLVD,NEW LENOX,IL,60451-9509,,"Health organization in NEW LENOX, IL with annual revenue of approximately $587M",
SOUTHERN OHIO MEDICAL CENTER,310678022,Health,1248 KINNEYS LN,PORTSMOUTH,OH,45662-2927,,"Health organization in PORTSMOUTH, OH with annual revenue of approximately $586M",
GARNET HEALTH MEDICAL CENTER,141364536,Health,707 E MAIN ST,MIDDLETOWN,NY,10940-2650,,"Health organization in MIDDLETOWN, NY with annual revenue of approximately $586M",
WILLIAM W BACKUS HOSPITAL,060250773,Health,326 WASHINGTON ST,NORWICH,CT,06360-2740,,"Health organization in NORWICH, CT with annual revenue of approximately $585M",
GOOD SAMARITAN HOSPITAL CORVALLIS,930391573,Health,PO BOX 3000,CORVALLIS,OR,97339-3000,,"Health organization in CORVALLIS, OR with annual revenue of approximately $585M",
SAINT PETERS UNIVERSITY HOSPITAL,221487330,Health,254 EASTON AVE,NEW BRUNSWICK,NJ,08901-1766,,"Health organization in NEW BRUNSWICK, NJ with annual revenue of approximately $584M",
COMMONSPIRIT HEALTH OPERATING INVESTMENT POOL LLC,850919176,Religion,185 BERRY ST STE 200,SAN FRANCISCO,CA,94107-1777,,"Religion organization in SAN FRANCISCO, CA with annual revenue of approximately $584M",
JOHN MUIR PHYSICIAN NETWORK,680360801,Health,1400 TREAT BLVD,WALNUT CREEK,CA,94597-2142,,"Health organization in WALNUT CREEK, CA with annual revenue of approximately $582M",
BARNABAS HEALTH MEDICAL GROUP P C,223316007,Health,2 CRESCENT PLACE,OCEANPORT,NJ,07757-1233,,"Health organization in OCEANPORT, NJ with annual revenue of approximately $581M",
SCL HEALTH MONTANA,810232124,Health,36 S STATE ST STE 2200,SALT LAKE CTY,UT,84111-1470,,"Health organization in SALT LAKE CTY, UT with annual revenue of approximately $581M",
ALEGENT CREIGHTON CLINIC,470765154,Health,12809 W DODGE RD,OMAHA,NE,68154-2155,,"Health organization in OMAHA, NE with annual revenue of approximately $580M",
BON SECOURS-ST FRANCIS XAVIER HOSPITAL INC,571067254,Health,2095 HENRY TECKLENBURG DR,CHARLESTON,SC,29414-5733,,"Health organization in CHARLESTON, SC with annual revenue of approximately $580M",
RAYMOND JAMES CHARITABLE ENDOWMENT FUND,593652538,Community,PO BOX 23559,ST PETERSBURG,FL,33742-3559,,"Community organization in ST PETERSBURG, FL with annual revenue of approximately $580M",
EMANATE HEALTH MEDICAL CENTER,956006469,Health,PO BOX 6108,COVINA,CA,91722-5108,,"Health organization in COVINA, CA with annual revenue of approximately $579M",
ROBERT PACKER HOSPITAL,240795463,Health,1 GUTHRIE SQUARE,SAYRE,PA,18840-1625,,"Health organization in SAYRE, PA with annual revenue of approximately $578M",
HOSPITAL SISTERS HEALTH SYSTEM,371058692,Health,4936 LAVERNA RD,SPRINGFIELD,IL,62707-9797,,"Health organization in SPRINGFIELD, IL with annual revenue of approximately $577M",
CENTRACARE HEALTH SYSTEM,411813221,Health,1406 6TH AVE N,SAINT CLOUD,MN,56303-1900,,"Health organization in SAINT CLOUD, MN with annual revenue of approximately $577M",
ACTS RETIREMENT-LIFE COMMUNITIES INC,231900132,Human Services,420 DELAWARE DR,FT WASHINGTON,PA,19034-2711,,"Human Services organization in FT WASHINGTON, PA with annual revenue of approximately $577M",
LEGAL SERVICES CORPORATION,521039060,Human Services,1825 I ST NW STE 800,WASHINGTON,DC,20006-5475,,"Human Services organization in WASHINGTON, DC with annual revenue of approximately $577M",
UPMC,251709054,Health,600 GRANT ST 58TH FL,PITTSBURGH,PA,15219-2739,,"Health organization in PITTSBURGH, PA with annual revenue of approximately $575M",
GREENWICH HOSPITAL,060646659,Health,5 PERRYRIDGE RD,GREENWICH,CT,06830-4608,,"Health organization in GREENWICH, CT with annual revenue of approximately $575M",
ST LUKES MAGIC VALLEY REGIONAL MEDICAL CENTER LTD,562570686,Health,190 E BANNOCK ST,BOISE,ID,83712-6241,,"Health organization in BOISE, ID with annual revenue of approximately $575M",
TIDALHEALTH PENINSULA REGIONAL INC,520591628,Health,100 E CARROLL ST,SALISBURY,MD,21801-5422,,"Health organization in SALISBURY, MD with annual revenue of approximately $575M",
THE CARLE FOUNDATION,370673465,Health,611 W PARK ST,URBANA,IL,61801-2529,,"Health organization in URBANA, IL with annual revenue of approximately $575M",
UNIVERSITY OF CALIFORNIA SAN FRANCISCO FOUNDATION,942829914,Education,2001 THE EMBARCADERO3RD FLOOR,SAN FRANCISCO,CA,94143-5200,,"Education organization in SAN FRANCISCO, CA with annual revenue of approximately $574M",
ADVENTIST MIDWEST HEALTH,362276984,Health,120 N OAK ST,HINSDALE,IL,60521-3829,,"Health organization in HINSDALE, IL with annual revenue of approximately $574M",
ST BARNABAS HOSPITAL,131740122,Health,183RD ST AND THIRD AVE,BRONX,NY,10457-0000,,"Health organization in BRONX, NY with annual revenue of approximately $573M",
JACKSON LABORATORY,010211513,Health,600 MAIN ST,BAR HARBOR,ME,04609-1522,,"Health organization in BAR HARBOR, ME with annual revenue of approximately $572M",
BARBARA ANN KARMANOS CANCER HOSPITAL,201649466,Health,4100 JOHN R ST,DETROIT,MI,48201-2013,,"Health organization in DETROIT, MI with annual revenue of approximately $572M",
TRUSTEES OF MEASE HOSPITAL INC,590855412,Health,601 MAIN ST,DUNEDIN,FL,34698-5848,,"Health organization in DUNEDIN, FL with annual revenue of approximately $572M",
AMERICAN UNIVERSITY OF BEIRUT,135596846,Education,3 DAG HAMMARSKJOLD PLZ FL 8,NEW YORK,NY,10017-2322,,"Education organization in NEW YORK, NY with annual revenue of approximately $571M",
KANSAS UNIVERSITY ENDOWMENT ASSOC,480547734,Education,PO BOX 928,LAWRENCE,KS,66044-0928,,"Education organization in LAWRENCE, KS with annual revenue of approximately $571M",
BENEFIS HOSPITALS INC,810232122,Health,500 15TH AVE S,GREAT FALLS,MT,59405-4324,,"Health organization in GREAT FALLS, MT with annual revenue of approximately $570M",
FOUNDATION FOR AFFORDABLE RENTAL HOUSING HOLDINGS INC,202563055,Human Services,3330 CUMBERLAND BLVD SE STE 1000,ATLANTA,GA,30339-5999,,"Human Services organization in ATLANTA, GA with annual revenue of approximately $569M",
FAMILY ENDEAVORS INC,237223078,Other,6363 DE ZAVALA RD,SAN ANTONIO,TX,78249-2101,,"Other organization in SAN ANTONIO, TX with annual revenue of approximately $569M",
HIGHMARK HEALTH,453674900,Health,120 FIFTH AVE FAPHM 043B,PITTSBURGH,PA,15222-0000,,"Health organization in PITTSBURGH, PA with annual revenue of approximately $568M",
UMSJ HEALTH SYSTEM LLC,462097818,Health,7601 OSLER DR,TOWSON,MD,21204-7700,,"Health organization in TOWSON, MD with annual revenue of approximately $567M",
MCLAREN FLINT,382383119,Health,401 S BALLENGER HWY,FLINT,MI,48532-3638,,"Health organization in FLINT, MI with annual revenue of approximately $566M",
PAC-12 CONFERENCE,941459048,Human Services,12647 ALCOSTA BLVD 5TH FLOOR,SAN RAMON,CA,94583-4439,,"Human Services organization in SAN RAMON, CA with annual revenue of approximately $566M",
FLAGSTAFF MEDICAL CENTER,860110232,Health,PO BOX 1268,FLAGSTAFF,AZ,86002-1268,,"Health organization in FLAGSTAFF, AZ with annual revenue of approximately $566M",
LEGACY SALMON CREEK HOSPITAL,331065485,Health,2211 NE 139TH ST,VANCOUVER,WA,98686-2742,,"Health organization in VANCOUVER, WA with annual revenue of approximately $566M",
UNMC PHYSICIANS,470785575,Health,988145 NEBRASKA MEDICAL CTR,OMAHA,NE,68198-8145,,"Health organization in OMAHA, NE with annual revenue of approximately $564M",
CROUSE HEALTH HOSPITAL INC,160960470,Health,736 IRVING AVE,SYRACUSE,NY,13210-1602,,"Health organization in SYRACUSE, NY with annual revenue of approximately $563M",
IHA HEALTH SERVICES CORPORATION,383316559,Health,24 FRANK LLOYD WRIGHT DR,ANN ARBOR,MI,48105-9484,,"Health organization in ANN ARBOR, MI with annual revenue of approximately $563M",
SETON HALL UNIVERSITY,221500645,Other,400 S ORANGE AVE,SOUTH ORANGE,NJ,07079-2646,,"Other organization in SOUTH ORANGE, NJ with annual revenue of approximately $563M",
ST MARYS MEDICAL CENTER,410695604,Health,402 E 2ND ST,DULUTH,MN,55805-1906,,"Health organization in DULUTH, MN with annual revenue of approximately $563M",
UMASS MEMORIAL HEALTH CARE INC,043358566,Health,100 FRONT ST STE 200,WORCESTER,MA,01608-1442,,"Health organization in WORCESTER, MA with annual revenue of approximately $563M",
MERCY CLINIC SPRINGFIELD COMMUNITIES,431560263,Health,14528 S OUTER FORTY,CHESTERFIELD,MO,63017-5785,,"Health organization in CHESTERFIELD, MO with annual revenue of approximately $562M",
CANDLER HOSPITAL INCORPORATED,580593388,Health,5353 REYNOLDS ST,SAVANNAH,GA,31405-6005,,"Health organization in SAVANNAH, GA with annual revenue of approximately $562M",
SAINT LUKES PHYSICIAN GROUP INC,431598353,Health,901 E 104TH ST 3000 S,KANSAS CITY,MO,64131-4517,,"Health organization in KANSAS CITY, MO with annual revenue of approximately $562M",
GLENDALE ADVENTIST MEDICAL CENTER,951816017,Health,1 ADVENTIST HEALTH WAY,ROSEVILLE,CA,95661-3266,,"Health organization in ROSEVILLE, CA with annual revenue of approximately $562M",
SEA MAR COMMUNITY HEALTH CENTERS,911020139,Health,1040 S HENDERSON ST,SEATTLE,WA,98108-4720,,"Health organization in SEATTLE, WA with annual revenue of approximately $561M",
THE BLACKBAUD GIVING FUND,460942102,Community,65 FAIRCHILD ST,DANIEL ISLAND,SC,29492-7505,,"Community organization in DANIEL ISLAND, SC with annual revenue of approximately $561M",
HOLY NAME MEDICAL CENTER INC,221487322,Health,718 TEANECK RD,TEANECK,NJ,07666-4245,,"Health organization in TEANECK, NJ with annual revenue of approximately $560M",
BANNER MEDICAL GROUP,900532830,Health,2901 N CENTRAL AVE STE 160,PHOENIX,AZ,85012-2702,,"Health organization in PHOENIX, AZ with annual revenue of approximately $560M",
BAYCARE MEDICAL GROUP INC,593140335,Health,3503 E FRONTAGE RD,TAMPA,FL,33607-1742,,"Health organization in TAMPA, FL with annual revenue of approximately $559M",
PUBLIC BROADCASTING SERVICE,520899215,Arts & Culture,1225 S CLARK STREET,ARLINGTON,VA,22202-4371,,"Arts & Culture organization in ARLINGTON, VA with annual revenue of approximately $558M",
COMPASS HEALTH INC,431032835,Health,1800 COMMUNITY,CLINTON,MO,64735-8804,,"Health organization in CLINTON, MO with annual revenue of approximately $557M",
MIDWEST FOOD BANK NFP INC,412120170,Human Services,2031 WAREHOUSE RD,NORMAL,IL,61761-1038,,"Human Services organization in NORMAL, IL with annual revenue of approximately $556M",
YAKIMA VALLEY MEMORIAL HOSPITAL ASSOCIATION,910567263,Health,2811 TIETON DR,YAKIMA,WA,98902-3761,,"Health organization in YAKIMA, WA with annual revenue of approximately $553M",
UNIVERSITY OF SAN FRANCISCO,941156628,Education,2130 FULTON ST,SAN FRANCISCO,CA,94117-1080,,"Education organization in SAN FRANCISCO, CA with annual revenue of approximately $553M",
TEXAS HEALTH PRESBYTERIAN HOSPITAL PLANO,752770738,Health,6200 W PARKER RD,PLANO,TX,75093-8185,,"Health organization in PLANO, TX with annual revenue of approximately $551M",
REID HOSPITAL & HEALTH CARE SERVICES INC,350892672,Health,1100 REID PKWY,RICHMOND,IN,47374-1157,,"Health organization in RICHMOND, IN with annual revenue of approximately $551M",
HIGHLAND HOSPITAL OF ROCHESTER,160743037,Health,1000 SOUTH AVE,ROCHESTER,NY,14620-2733,,"Health organization in ROCHESTER, NY with annual revenue of approximately $547M",
GOLDEN GATE REGIONAL CENTER INC,942461462,Human Services,1355 MARKET ST STE 220,SAN FRANCISCO,CA,94103-1314,,"Human Services organization in SAN FRANCISCO, CA with annual revenue of approximately $545M",
MARTINS POINT HEALTH CARE INC,010353275,Health,331 VERANDA ST,PORTLAND,ME,04103-5535,,"Health organization in PORTLAND, ME with annual revenue of approximately $545M",
TRI-COUNTIES ASSOCIATION FOR THE DEVELOPMENTALLY DISABLED INC,952623230,Other,520 E MONTECITO ST,SANTA BARBARA,CA,93103-3245,,"Other organization in SANTA BARBARA, CA with annual revenue of approximately $544M",
NATIONAL UNIVERSITY,237172306,Education,9388 LIGHTWAVE AVE,SAN DIEGO,CA,92123-1426,,"Education organization in SAN DIEGO, CA with annual revenue of approximately $544M",
ST VINCENT INFIRMARY MEDICAL CENTER,710236917,Health,2 SAINT VINCENT CIR,LITTLE ROCK,AR,72205-5423,,"Health organization in LITTLE ROCK, AR with annual revenue of approximately $543M",
MERCY HOSPITAL FORT SMITH,710240352,Health,PO BOX 17000,FORT SMITH,AR,72917-7000,,"Health organization in FORT SMITH, AR with annual revenue of approximately $540M",
BILLINGS CLINIC,810231784,Health,2800 10TH AVE N,BILLINGS,MT,59101-0703,,"Health organization in BILLINGS, MT with annual revenue of approximately $540M",
SACRED HEART UNIVERSITY,060776644,Education,5151 PARK AVE,FAIRFIELD,CT,06825-1023,,"Education organization in FAIRFIELD, CT with annual revenue of approximately $539M",
MOUNT NITTANY MEDICAL CENTER,240795682,Health,155 WELLNESS WAY,STATE COLLEGE,PA,16803-6702,,"Health organization in STATE COLLEGE, PA with annual revenue of approximately $539M",
MIDDLESEX HOSPITAL,060646718,Health,28 CRESCENT ST,MIDDLETOWN,CT,06457-3654,,"Health organization in MIDDLETOWN, CT with annual revenue of approximately $539M",
BANNER-UNIVERSITY MEDICAL GROUP,942958258,Health,2901 N CENTRAL AVE STE 160,PHOENIX,AZ,85012-2702,,"Health organization in PHOENIX, AZ with annual revenue of approximately $538M",
CHRISTUS HEALTH ARK-LA-TEX,752796815,Health,2600 SAINT MICHAEL DR,TEXARKANA,TX,75503-2372,,"Health organization in TEXARKANA, TX with annual revenue of approximately $538M",
FOUNDATION FOR THE CAROLINAS,566047886,Community,220 N TRYON ST,CHARLOTTE,NC,28202-2137,,"Community organization in CHARLOTTE, NC with annual revenue of approximately $538M",
MIDWESTERN UNIVERSITY,363377698,Education,555 31ST ST,DOWNERS GROVE,IL,60515-1235,,"Education organization in DOWNERS GROVE, IL with annual revenue of approximately $537M",
NORTHEAST HOSPITAL CORPORATION,042121317,Health,CO BILH TAX 529 MAIN ST 4TH FL,CHARLESTOWN,MA,02129-0000,,"Health organization in CHARLESTOWN, MA with annual revenue of approximately $537M",
VIRTUA HEALTH INC,223524939,Health,406 LIPPINCOTT DR STE J,MARLTON,NJ,08053-4168,,"Health organization in MARLTON, NJ with annual revenue of approximately $537M",
THE TRUSTEES OF THE STEVENS INSTITUTE OF TECHNOLOGY,221487354,Education,1 CASTLE POINT TER,HOBOKEN,NJ,07030-5906,,"Education organization in HOBOKEN, NJ with annual revenue of approximately $536M",
FACULTY PRACTICE FOUNDATION INC,900513372,Other,1 BOSTON MEDICAL CTR PL,BOSTON,MA,02118-2908,,"Other organization in BOSTON, MA with annual revenue of approximately $535M",
LIFENET HEALTH,521273592,Health,1864 CONCERT DR,VIRGINIA BCH,VA,23453-1903,,"Health organization in VIRGINIA BCH, VA with annual revenue of approximately $535M",
