name,ein,category,address,city,state,zip_code,website,description,phone
KVC BEHAVIORAL HEALTHCARE INC,480770308,Human Services,21350 W 153RD ST,OLATHE,KS,66061-5413,,"Human Services organization in OLATHE, KS with annual revenue of approximately $60M",
MERCY HOSPITAL LINCOLN,472219204,Health,1000 E CHERRY ST,TROY,MO,63379-1513,,"Health organization in TROY, MO with annual revenue of approximately $60M",
SKILLS OF CENTRAL PENNSYLVANIA INC,240855593,Human Services,341 SCIENCE PARK RD STE 6,STATE COLLEGE,PA,16803-2287,,"Human Services organization in STATE COLLEGE, PA with annual revenue of approximately $60M",
POLISH ROMAN CATHOLIC UNION OF AMERICA,361635425,Other,984 N MILWAUKEE AVE,CHICAGO,IL,60642-4101,,"Other organization in CHICAGO, IL with annual revenue of approximately $60M",
SOUTHEASTERN LOUISIANA AREA HEALTH EDUCATION CENTER,721155014,Other,1302 J W DAVIS DR,HAMMOND,LA,70403-5914,,"Other organization in HAMMOND, LA with annual revenue of approximately $60M",
MATHENY SCHOOL AND HOSPITAL INC,221482276,Education,65 HIGHLAND AVE,PEAPACK,NJ,07977-0000,,"Education organization in PEAPACK, NJ with annual revenue of approximately $60M",
COLUMBIA INTERNATIONAL UNIVERSITY,570352247,Education,7435 MONTICELLO RD,COLUMBIA,SC,29203-1513,,"Education organization in COLUMBIA, SC with annual revenue of approximately $60M",
BURKE CENTER,751442393,Human Services,2001 S MEDFORD DR,LUFKIN,TX,75901-6260,,"Human Services organization in LUFKIN, TX with annual revenue of approximately $60M",
HACKENSACK MERIDIAN HEALTH INC,223474145,Health,399 THORNALL ST STE 2,EDISON,NJ,08837-2238,,"Health organization in EDISON, NJ with annual revenue of approximately $60M",
VILLAGE NETWORK,340768857,Human Services,2000 NOBLE DR,WOOSTER,OH,44691-5353,,"Human Services organization in WOOSTER, OH with annual revenue of approximately $60M",
HARMONY HEALTH CARE LONG ISLAND,270216316,Health,400 OAK ST STE 104,GARDEN CITY,NY,11530-6554,,"Health organization in GARDEN CITY, NY with annual revenue of approximately $60M",
THE CLAREMONT COLLEGES INC,954786748,Education,101 S MILLS AVE,CLAREMONT,CA,91711-5053,,"Education organization in CLAREMONT, CA with annual revenue of approximately $60M",
SOUTH CAROLINA CONNECTIONS ACADEMY INC,261966726,Education,201 EXECUTIVE CENTER DRIVE,COLUMBIA,SC,29210-8410,,"Education organization in COLUMBIA, SC with annual revenue of approximately $60M",
CHATHAM HOSPITAL INC,560611546,Other,PO BOX 649,SILER CITY,NC,27344-0649,,"Other organization in SILER CITY, NC with annual revenue of approximately $60M",
PLYMOUTH HOUSING GROUP,911122621,Human Services,2113 3RD AVE,SEATTLE,WA,98121-2321,,"Human Services organization in SEATTLE, WA with annual revenue of approximately $60M",
ROCKEFELLER FAMILY FUND INC,136257658,Community,475 RIVERSIDE DR RM 900,NEW YORK,NY,10115-0066,,"Community organization in NEW YORK, NY with annual revenue of approximately $60M",
THE IMMIGRANT AND REFUGEE COMMUNITY ORGANIZATION,930806295,Other,10301 NE GLISAN ST,PORTLAND,OR,97220-4013,,"Other organization in PORTLAND, OR with annual revenue of approximately $60M",
MUSCULAR DYSTROPHY ASSOCIATION,131665552,Health,161 N CLARK ST STE 3550,CHICAGO,IL,60601-3333,,"Health organization in CHICAGO, IL with annual revenue of approximately $60M",
GRAHAM-WINDHAM,132926426,Human Services,300 CADMAN PLZ W STE 901,BROOKLYN,NY,11201-3227,,"Human Services organization in BROOKLYN, NY with annual revenue of approximately $60M",
BUENA VISTA UNIVERSITY,420680404,Education,610 W 4TH ST,STORM LAKE,IA,50588-1713,,"Education organization in STORM LAKE, IA with annual revenue of approximately $60M",
COLORADO HEALTH BENEFIT EXCHANGE,453733823,Health,4600 S ULSTER ST STE 300,DENVER,CO,80237-3333,,"Health organization in DENVER, CO with annual revenue of approximately $60M",
CUBRC INC,222505934,Research,4455 GENESEE,BUFFALO,NY,14225-1955,,"Research organization in BUFFALO, NY with annual revenue of approximately $60M",
INTERNATIONAL FERTILIZER DEVELOPMENT CENTER,630676451,International,46 DAVID LILIENTHAL DR,MUSCLE SHOALS,AL,35661-3613,,"International organization in MUSCLE SHOALS, AL with annual revenue of approximately $60M",
THE PUBLIC SCHOOL OF GERMANTOWN,231352639,Education,340 MORRIS RD,FT WASHINGTON,PA,19034-2004,,"Education organization in FT WASHINGTON, PA with annual revenue of approximately $60M",
GLOBAL ALLIANCE FOR TB DRUG DEVELOPMENT INC,134128413,Health,80 PINE STREET 20TH FLR,NEW YORK,NY,10005-1755,,"Health organization in NEW YORK, NY with annual revenue of approximately $60M",
PREMIUM HEALTH INC,300640372,Health,620 FOSTER AVE STE 6T,BROOKLYN,NY,11230-1399,,"Health organization in BROOKLYN, NY with annual revenue of approximately $60M",
OZARK CENTER,430821959,Health,PO BOX 2526,JOPLIN,MO,64803-2526,,"Health organization in JOPLIN, MO with annual revenue of approximately $60M",
NORTH MISSISSIPPI HEALTH SERVICES INC,640653269,Health,830 S GLOSTER ST,TUPELO,MS,38801-4934,,"Health organization in TUPELO, MS with annual revenue of approximately $60M",
DENVER ZOOLOGICAL FOUNDATION INC,840502539,Health,2300 N STEELE ST,DENVER,CO,80205-5715,,"Health organization in DENVER, CO with annual revenue of approximately $60M",
HONORBRIDGE,581627444,Health,909 E ARLINGTON BLVD,GREENVILLE,NC,27858-5864,,"Health organization in GREENVILLE, NC with annual revenue of approximately $60M",
UNIVERSITY OF MARYLAND COMMUNITY MEDICAL GROUP INC,521874111,Health,900 ELKRIDGE LANDING RD 3W,LINTHICUM HEIGHTS,MD,21090-2924,,"Health organization in LINTHICUM HEIGHTS, MD with annual revenue of approximately $60M",
HOSPICE OF THE EMERALD COAST INC,621805874,Human Services,655 BRAWLEY SCHOOL RD STE 200,MOORESVILLE,NC,28117-9601,,"Human Services organization in MOORESVILLE, NC with annual revenue of approximately $60M",
LUTHERAN HOME FOR THE AGED,362192824,Human Services,800 W OAKTON ST,ARLINGTON HTS,IL,60004-4602,,"Human Services organization in ARLINGTON HTS, IL with annual revenue of approximately $60M",
TRU COMMUNITY CARE,840748577,Human Services,2594 TRAILRIDGE DRIVE E,LAFAYETTE,CO,80026-3186,,"Human Services organization in LAFAYETTE, CO with annual revenue of approximately $60M",
WAUPUN MEMORIAL HOSPITAL,390806265,Health,620 W BROWN ST,WAUPUN,WI,53963-1702,,"Health organization in WAUPUN, WI with annual revenue of approximately $59M",
COMMUNITY FOOD BANK OF EASTERN OKLAHOMA INC,731184980,Human Services,1304 N KENOSHA AVE,TULSA,OK,74106-5940,,"Human Services organization in TULSA, OK with annual revenue of approximately $59M",
CATHOLIC CHARITIES CORPORATION,341318541,Human Services,7911 DETROIT AVE,CLEVELAND,OH,44102-2815,,"Human Services organization in CLEVELAND, OH with annual revenue of approximately $59M",
COLLIER COMMUNITY FOUNDATION INC,592396243,Other,1110 PINE RIDGE RD STE 200,NAPLES,FL,34108-8927,,"Other organization in NAPLES, FL with annual revenue of approximately $59M",
FULLER THEOLOGICAL SEMINARY,951699394,Education,135 N OAKLAND AVE,PASADENA,CA,91101-1713,,"Education organization in PASADENA, CA with annual revenue of approximately $59M",
INTERFAITH MINISTRIES FOR GREATER HOUSTON,741488102,Other,3303 MAIN STREET,HOUSTON,TX,77002-9322,,"Other organization in HOUSTON, TX with annual revenue of approximately $59M",
UNITED CEREBRAL PALSY SEGUIN OF GREATER CHICAGO,362894174,Human Services,3100 S CENTRAL AVE,CICERO,IL,60804-3956,,"Human Services organization in CICERO, IL with annual revenue of approximately $59M",
BETHESDA LONG TERM CARE INC,431277070,Health,12101 WOODCREST EXECUTIVE DRIVE 20,ST LOUIS,MO,63141-5016,,"Health organization in ST LOUIS, MO with annual revenue of approximately $59M",
IDEASTREAM,341943865,Human Services,1375 EUCLID AVE,CLEVELAND,OH,44115-1826,,"Human Services organization in CLEVELAND, OH with annual revenue of approximately $59M",
FAMILY SERVICE LEAGUE INC,111631827,Human Services,790 PARK AVE,HUNTINGTON,NY,11743-4516,,"Human Services organization in HUNTINGTON, NY with annual revenue of approximately $59M",
PARSONS CHILD & FAMILY CENTER,141347440,Human Services,60 ACADEMY RD,ALBANY,NY,12208-3103,,"Human Services organization in ALBANY, NY with annual revenue of approximately $59M",
MUSC AFFILIATE PHYSICIANS,862800277,Health,1 POSTON RD STE 350,CHARLESTON,SC,29407-3431,,"Health organization in CHARLESTON, SC with annual revenue of approximately $59M",
UPHAMS CORNER HEALTH COMMITTEE INC,237211732,Health,500 COLUMBIA RD,DORCHESTER,MA,02125-2322,,"Health organization in DORCHESTER, MA with annual revenue of approximately $59M",
CENTER FOR STRATEGIC AND INTERNATIONAL STUDIES INC,521501082,International,1616 RHODE ISLAND AVE NW,WASHINGTON,DC,20036-3206,,"International organization in WASHINGTON, DC with annual revenue of approximately $59M",
SOUTHWEST BOSTON SENIOR SERVICES INC,237304163,Human Services,555 AMORY STREET,JAMAICA PLAIN,MA,02130-2652,,"Human Services organization in JAMAICA PLAIN, MA with annual revenue of approximately $59M",
CONNECTED GIVING FOUNDATION,843558614,Research,11710 PLAZA AMERICA DR STE 400,RESTON,VA,20190-4744,,"Research organization in RESTON, VA with annual revenue of approximately $59M",
HENRY STREET SETTLEMENT,131562242,Human Services,265 HENRY ST,NEW YORK,NY,10002-4808,,"Human Services organization in NEW YORK, NY with annual revenue of approximately $59M",
TITUSVILLE AREA HOSPITAL,250965579,Health,406 W OAK ST,TITUSVILLE,PA,16354-1404,,"Health organization in TITUSVILLE, PA with annual revenue of approximately $59M",
PLEDGELING FOUNDATION,462440594,Community,2261 MARKET STREET 5055,SAN FRANCISCO,CA,94114-1612,,"Community organization in SAN FRANCISCO, CA with annual revenue of approximately $59M",
KIPP NEW YORK INC,203971209,Education,1501 BROADWAY STE 1000,NEW YORK,NY,10036-5510,,"Education organization in NEW YORK, NY with annual revenue of approximately $59M",
CHILDRENS HOSPITAL ANESTHESIA CORPORATION,061587311,Health,1100 POYDRAS ST 2500 ENERGY CENTR,NEW ORLEANS,LA,70163-0000,,"Health organization in NEW ORLEANS, LA with annual revenue of approximately $59M",
VIRGINIA STUDENT AID FOUNDATION,540517188,Education,PO BOX 400833,CHARLOTTESVLE,VA,22904-4833,,"Education organization in CHARLOTTESVLE, VA with annual revenue of approximately $59M",
CHILDRENS MIRACLE NETWORK,870387205,Other,205 W 700 S,SALT LAKE CTY,UT,84101-2715,,"Other organization in SALT LAKE CTY, UT with annual revenue of approximately $59M",
MUSKINGUM VALLEY HEALTH CENTERS,208814374,Health,859 N MAIN ST,MALTA,OH,43758-9007,,"Health organization in MALTA, OH with annual revenue of approximately $59M",
MCGREGOR PACE,311495382,Human Services,14900 PRIVATE DR,EAST CLEVELAND,OH,44112-3470,,"Human Services organization in EAST CLEVELAND, OH with annual revenue of approximately $59M",
GIBSON GENERAL HOSPITAL INC,350877575,Health,1808 SHERMAN DR,PRINCETON,IN,47670-1043,,"Health organization in PRINCETON, IN with annual revenue of approximately $59M",
BRONX CHARTER SCHOOL FOR EXCELLENCE,450507998,Education,1960 BENEDICT AVE,BRONX,NY,10462-4402,,"Education organization in BRONX, NY with annual revenue of approximately $59M",
SHENANDOAH MEDICAL CENTER,421101835,Health,300 PERSHING AVE,SHENANDOAH,IA,51601-2355,,"Health organization in SHENANDOAH, IA with annual revenue of approximately $59M",
FOODBANK OF SOUTHERN CALIFORNIA,953557056,Human Services,1444 SAN FRANCISCO AVE,LONG BEACH,CA,90813-1434,,"Human Services organization in LONG BEACH, CA with annual revenue of approximately $59M",
DETROIT COUNTRY DAY SCHOOL,381359251,Education,22305 W 13 MILE RD,BEVERLY HILLS,MI,48025-4435,,"Education organization in BEVERLY HILLS, MI with annual revenue of approximately $59M",
GOODWILL INDUSTRIES OF UPSTATE MIDLANDS SOUTH CAROLINA INC,570564001,Human Services,115 HAYWOOD RD,GREENVILLE,SC,29607-3422,,"Human Services organization in GREENVILLE, SC with annual revenue of approximately $59M",
GLENDIVE MEDICAL CENTER INC,816016016,Health,202 PROSPECT DR,GLENDIVE,MT,59330-1999,,"Health organization in GLENDIVE, MT with annual revenue of approximately $59M",
THE VALLEY HOSPITAL ASSOCIATION INC,920019395,Health,777 N CRUSEY ST STE A201,WASILLA,AK,99654-7104,,"Health organization in WASILLA, AK with annual revenue of approximately $59M",
UTAH CHARTER ACADEMIES,680547532,Education,12894 S PONY EXPRESS RD STE 600,DRAPER,UT,84020-8334,,"Education organization in DRAPER, UT with annual revenue of approximately $59M",
NEVADA HEALTH CENTERS INC,943199117,Health,3325 RESEARCH WAY,CARSON CITY,NV,89706-7913,,"Health organization in CARSON CITY, NV with annual revenue of approximately $59M",
GEISINGER MEDICAL CENTER MUNCY,851226106,Health,100 N ACADEMY AVE MC 49-70,DANVILLE,PA,17822-9800,,"Health organization in DANVILLE, PA with annual revenue of approximately $59M",
HOSPITAL MENONITA HUMACAO INC,660938154,Health,PO BOX 8630,HUMACAO,PR,00792-8630,,"Health organization in HUMACAO, PR with annual revenue of approximately $59M",
NEW JERSEY ORGAN AND TISSUE SHARING NETWORK INC,222490603,Health,691 CENTRAL AVE,NEW PROVIDNCE,NJ,07974-1560,,"Health organization in NEW PROVIDNCE, NJ with annual revenue of approximately $59M",
CHICO STATE ENTERPRISES,680386518,Education,25 MAIN ST UNIT 103,CHICO,CA,95928-5388,,"Education organization in CHICO, CA with annual revenue of approximately $59M",
NATIONAL CENTER FOR CHILDREN AND FAMILIES,520591586,Human Services,6301 GREENTREE RD BLDG 1,BETHESDA,MD,20817-3368,,"Human Services organization in BETHESDA, MD with annual revenue of approximately $59M",
LOS ANGELES CENTERS FOR ALCOHOL AND DRUG ABUSE,237110152,Other,12070 TELEGRAPH RD STE 207,SANTA FE SPGS,CA,90670-8213,,"Other organization in SANTA FE SPGS, CA with annual revenue of approximately $59M",
THEODORE ROOSEVELT PRESIDENTIAL LIBRARY FOUNDATION,471324043,Education,401 E MAIN AVE STE 201,BISMARCK,ND,58501-4076,,"Education organization in BISMARCK, ND with annual revenue of approximately $59M",
USAGING,521052345,Other,1100 NEW JERSEY AVE SE,WASHINGTON,DC,20003-3302,,"Other organization in WASHINGTON, DC with annual revenue of approximately $59M",
ASSYRIAN UNIVERSAL ALLIANCE FOUNDATION INC,362976266,International,7303 N CICERO AVE,LINCOLNWOOD,IL,60712-1613,,"International organization in LINCOLNWOOD, IL with annual revenue of approximately $59M",
THE NATIVE AMERICAN REHABILITATION ASSOC OF THE NORTHWEST INC,237098400,Health,211 SE CARUTHERS STREET,PORTLAND,OR,97214-4502,,"Health organization in PORTLAND, OR with annual revenue of approximately $59M",
ALLIANCE FOR CHOICE IN EDUCATION,841531066,Education,5251 DTC PKWY STE 300,GREENWOOD VLG,CO,80111-2732,,"Education organization in GREENWOOD VLG, CO with annual revenue of approximately $59M",
UNIVERSITY OF JAMESTOWN,450231180,Education,6088 COLLEGE LN,JAMESTOWN,ND,58405-0001,,"Education organization in JAMESTOWN, ND with annual revenue of approximately $59M",
KIDSPEACE NATIONAL CENTERS INC,232654908,Health,4085 INDEPENDENCE DR,SCHNECKSVILLE,PA,18078-2574,,"Health organization in SCHNECKSVILLE, PA with annual revenue of approximately $59M",
MUSIC CITY PREP CLINIC,821619750,Health,501 28TH AVE N,NASHVILLE,TN,37209-4001,,"Health organization in NASHVILLE, TN with annual revenue of approximately $59M",
MEDSTAR HEALTH RESEARCH INSTITUTE INC,526056274,Other,10980 GRANTCHESTER WAY,COLUMBIA,MD,21044-6097,,"Other organization in COLUMBIA, MD with annual revenue of approximately $59M",
GREAT CIRCLE,430681471,Other,PO BOX 189,SAINT JAMES,MO,65559-0189,,"Other organization in SAINT JAMES, MO with annual revenue of approximately $59M",
J C BLAIR MEMORIAL HOSPITAL,231352159,Health,204 HOSPITAL AVE,DU BOIS,PA,15801-1442,,"Health organization in DU BOIS, PA with annual revenue of approximately $59M",
DEACONESS ILLINOIS CROSSROADS INC,920573933,Health,8 DOCTORS PARK RD,MOUNT VERNON,IL,62864-6224,,"Health organization in MOUNT VERNON, IL with annual revenue of approximately $59M",
ELDER SERVICES OF CAPE COD AND THE ISLANDS INC,042523904,Human Services,68 ROUTE 134,SOUTH DENNIS,MA,02660-3710,,"Human Services organization in SOUTH DENNIS, MA with annual revenue of approximately $59M",
MS FOUNDATION FOR WOMEN INC,237252609,Religion,1 WILLOUGHBY SQ STE 2000,BROOKLYN,NY,11201-7617,,"Religion organization in BROOKLYN, NY with annual revenue of approximately $59M",
NORTH COUNTRY HEALTHCARE INC,860663432,Other,2920 N 4TH ST,FLAGSTAFF,AZ,86004-1816,,"Other organization in FLAGSTAFF, AZ with annual revenue of approximately $59M",
FELLOWSHIP VILLAGE INC,223146725,Human Services,8000 FELLOWSHIP VILLAGE ROAD,BASKING RIDGE,NJ,07920-0000,,"Human Services organization in BASKING RIDGE, NJ with annual revenue of approximately $59M",
AUDUBON AREA COMMUNITY SERVICES INC,237364935,Human Services,1700 W 5TH ST,OWENSBORO,KY,42301-1952,,"Human Services organization in OWENSBORO, KY with annual revenue of approximately $59M",
BLUMONT GLOBAL DEVELOPMENT INC,810925158,International,1300 17TH STREET NORTH,ARLINGTON,VA,22209-3811,,"International organization in ARLINGTON, VA with annual revenue of approximately $59M",
COMMUNITY RENEWAL TEAM INC,060795640,Human Services,555 WINDSOR ST,HARTFORD,CT,06120-2418,,"Human Services organization in HARTFORD, CT with annual revenue of approximately $59M",
LADD MEMORIAL HOSPITAL,390773970,Health,PO BOX 218,OSCEOLA,WI,54020-0218,,"Health organization in OSCEOLA, WI with annual revenue of approximately $59M",
LA CLINICA DE FAMILIA INCORPORATED,850265533,Health,385 CALLE DE ALEGRA STE A,LAS CRUCES,NM,88005-3423,,"Health organization in LAS CRUCES, NM with annual revenue of approximately $59M",
CALIFORNIA SCIENCE CENTER FOUNDATION,952210527,Arts & Culture,700 EXPOSITION PARK DR,LOS ANGELES,CA,90037-1210,,"Arts & Culture organization in LOS ANGELES, CA with annual revenue of approximately $59M",
HIV-AIDS ALLIANCE FOR REGION TWO,721283359,Health,9516 AIRLINE HWY,BATON ROUGE,LA,70815-5501,,"Health organization in BATON ROUGE, LA with annual revenue of approximately $59M",
ADA S MCKINLEY COMMUNITY SERVICES INC,362144820,Human Services,1359 W WASHINGTON BLVD,CHICAGO,IL,60607-1905,,"Human Services organization in CHICAGO, IL with annual revenue of approximately $59M",
UNIVERSITY SCHOOL,340714720,Education,20701 BRANTLEY RD,SHAKER HTS,OH,44122-1929,,"Education organization in SHAKER HTS, OH with annual revenue of approximately $59M",
MARILLAC COMMUNITY HEALTH CENTERS,273046997,Health,3201 S CARROLLTON AVE,NEW ORLEANS,LA,70118-4307,,"Health organization in NEW ORLEANS, LA with annual revenue of approximately $59M",
4 GOOD COMMUNITY INC,851574845,Human Services,211 GOAD CEMETERY RD E,NEW HARMONY,IN,47631-9214,,"Human Services organization in NEW HARMONY, IN with annual revenue of approximately $59M",
AMERICAN ISRAEL EDUCATION FOUNDATION INC,521623781,International,251 H ST NW,WASHINGTON,DC,20001-2604,,"International organization in WASHINGTON, DC with annual revenue of approximately $59M",
BROOKE GROVE FOUNDATION INC,520634722,Health,18100 SLADE SCHOOL RD,SANDY SPRING,MD,20860-1313,,"Health organization in SANDY SPRING, MD with annual revenue of approximately $59M",
BELHAVEN UNIVERSITY,640303069,Education,1500 PEACHTREE STREET CAMPUS BOX 16,JACKSON,MS,39202-1754,,"Education organization in JACKSON, MS with annual revenue of approximately $59M",
AREA HOUSING AUTHORITY OF COUNTY OF VENTURA,952775099,Human Services,1400 W HILLCREST DR,NEWBURY PARK,CA,91320-2721,,"Human Services organization in NEWBURY PARK, CA with annual revenue of approximately $59M",
PEDDIE SCHOOL,210634492,Education,201 S MAIN ST,HIGHTSTOWN,NJ,08520-3352,,"Education organization in HIGHTSTOWN, NJ with annual revenue of approximately $59M",
HEALTHIERHERE,853205384,Human Services,PO BOX 99115,SEATTLE,WA,98139-0115,,"Human Services organization in SEATTLE, WA with annual revenue of approximately $59M",
WASHINGTON TOWNSHIP MEDICAL FOUNDATION,300564526,Health,39300 CIVIC CENTER DR,FREMONT,CA,94538-2338,,"Health organization in FREMONT, CA with annual revenue of approximately $59M",
CRUSADERS CENTRAL CLINIC ASSOCIATION,237076080,Health,1200 W STATE ST,ROCKFORD,IL,61102-2112,,"Health organization in ROCKFORD, IL with annual revenue of approximately $59M",
CATHOLIC CHARITIES OF THE ARCHDIOCESE OF WASHINGTON INC,530196524,Human Services,924 G ST NW,WASHINGTON,DC,20001-4532,,"Human Services organization in WASHINGTON, DC with annual revenue of approximately $59M",
ILLINOIS COLLEGE,370661211,Education,1101 W COLLEGE AVE,JACKSONVILLE,IL,62650-2212,,"Education organization in JACKSONVILLE, IL with annual revenue of approximately $59M",
HOPEWEST,841207388,Human Services,3090 N 12TH ST UNIT B,GRAND JCT,CO,81506-2804,,"Human Services organization in GRAND JCT, CO with annual revenue of approximately $59M",
NEIGHBORHOOD HEALTH CENTER OF WNY INC,161294447,Other,155 LAWN AVE,BUFFALO,NY,14207-1816,,"Other organization in BUFFALO, NY with annual revenue of approximately $59M",
SUNNYSIDE PRESBYTERIAN HOME,540591600,Human Services,600 UNIVERSITY BLVD STE L,HARRISONBURG,VA,22801-3763,,"Human Services organization in HARRISONBURG, VA with annual revenue of approximately $59M",
JOHN MUIR BEHAVIORAL HEALTH,680249685,Health,1400 TREAT BLVD,WALNUT CREEK,CA,94597-2142,,"Health organization in WALNUT CREEK, CA with annual revenue of approximately $59M",
OUR SUNDAY VISITOR INC,350563920,Religion,200 NOLL PLZ,HUNTINGTON,IN,46750-4310,,"Religion organization in HUNTINGTON, IN with annual revenue of approximately $59M",
ANDECO INSTITUTE,862787128,Community,1660 INTERNATIONAL DR STE 850,MCLEAN,VA,22102-4887,,"Community organization in MCLEAN, VA with annual revenue of approximately $59M",
TABITHA INC,470377998,Other,4720 RANDOLPH ST,LINCOLN,NE,68510-3741,,"Other organization in LINCOLN, NE with annual revenue of approximately $59M",
EDWARD M KENNEDY COMMUNITY HEALTH CENTER INC,042513817,Health,115 NE CUTOFF BLDG2 200,WORCESTER,MA,01606-1224,,"Health organization in WORCESTER, MA with annual revenue of approximately $59M",
UNIVERSITY OF MONTANA FOUNDATION,810362989,Education,PO BOX 7159,MISSOULA,MT,59807-7159,,"Education organization in MISSOULA, MT with annual revenue of approximately $59M",
WHITTIER COLLEGE,951644048,Education,13406 PHILADELPHIA ST,WHITTIER,CA,90601-4446,,"Education organization in WHITTIER, CA with annual revenue of approximately $59M",
BRIDGTON HOSPITAL,010130427,Health,10 HOSPITAL DR,BRIDGTON,ME,04009-1148,,"Health organization in BRIDGTON, ME with annual revenue of approximately $59M",
GOODWILL OF SILICON VALLEY,941212132,Other,1080 N 7TH ST,SAN JOSE,CA,95112-4425,,"Other organization in SAN JOSE, CA with annual revenue of approximately $59M",
GORDON RESEARCH CONFERENCES,260150662,Research,5586 POST RD UNIT 2,E GREENWICH,RI,02818-3454,,"Research organization in E GREENWICH, RI with annual revenue of approximately $58M",
SALUD PARA LA GENTE,942705747,Other,195 AVIATION WAY STE 200,WATSONVILLE,CA,95076-2059,,"Other organization in WATSONVILLE, CA with annual revenue of approximately $58M",
MASSENA HOSPITAL INC,843134268,Health,1 HOSPITAL DR,MASSENA,NY,13662-1056,,"Health organization in MASSENA, NY with annual revenue of approximately $58M",
COASTAL COMMUNITY FOUNDATION OF SOUTH CAROLINA INC,237390313,Community,1691 TURNBULL AVE,N CHARLESTON,SC,29405-1944,,"Community organization in N CHARLESTON, SC with annual revenue of approximately $58M",
MASONICARE HEALTH CENTER,060655131,Human Services,PO BOX 70,WALLINGFORD,CT,06492-7001,,"Human Services organization in WALLINGFORD, CT with annual revenue of approximately $58M",
BLOOD BANK OF SAN BERNARDINO AND RIVERSIDE COUNTIES,951708743,Health,384 W ORANGE SHOW RD,SN BERNRDNO,CA,92408-2028,,"Health organization in SN BERNRDNO, CA with annual revenue of approximately $58M",
COMMON GROUND MANAGEMENT CORPORATION,133871134,Human Services,505 8TH AVE RM 12,NEW YORK,NY,10018-4773,,"Human Services organization in NEW YORK, NY with annual revenue of approximately $58M",
USA HOCKEY INC,510204742,Human Services,1775 BOB JOHNSON DR,COLORADO SPGS,CO,80906-4026,,"Human Services organization in COLORADO SPGS, CO with annual revenue of approximately $58M",
JOHNSON CHARITABLE GIFT FUND,300233491,Community,3777 WEST FORK RD,CINCINNATI,OH,45247-7575,,"Community organization in CINCINNATI, OH with annual revenue of approximately $58M",
JEREMY AND HANNELORE GRANTHAM ENVIRONMENTAL TRUST,203959397,Community,53 STATE ST STE 3300,BOSTON,MA,02109-3008,,"Community organization in BOSTON, MA with annual revenue of approximately $58M",
BROOKVILLE CENTER FOR CHILDRENS SERVICES INC,731662897,Human Services,189 WHEATLEY RD,BROOKVILLE,NY,11545-2641,,"Human Services organization in BROOKVILLE, NY with annual revenue of approximately $58M",
FJC,133848582,Human Services,225 WEST 39TH STREET 12TH FLOOR,NEW YORK,NY,10018-3103,,"Human Services organization in NEW YORK, NY with annual revenue of approximately $58M",
FLINT AND GENESEE CHAMBER FOUNDATION,237420247,Other,519 S SAGINAW ST STE 200,FLINT,MI,48502-1815,,"Other organization in FLINT, MI with annual revenue of approximately $58M",
CENTER FOR ALTERNATIVE SENTENCING AND EMPLOYMENT SERVICES INC,132668080,Other,151 LAWRENCE ST 3RD FLR,BROOKLYN,NY,11201-5240,,"Other organization in BROOKLYN, NY with annual revenue of approximately $58M",
COMMUNITY FOUNDATION OF ELKHART COUNTY INC,311255886,Community,240 E JACKSON BLVD STE 104,ELKHART,IN,46516-3976,,"Community organization in ELKHART, IN with annual revenue of approximately $58M",
MUNSON HEALTHCARE MANISTEE HOSPITAL,380350304,Health,1465 E PARKDALE AVE,MANISTEE,MI,49660-9709,,"Health organization in MANISTEE, MI with annual revenue of approximately $58M",
GREAT LAKES COMMUNITY ACTION PARTNERSHIP,340975934,Human Services,127 S FRONT ST,FREMONT,OH,43420-3021,,"Human Services organization in FREMONT, OH with annual revenue of approximately $58M",
RURAL COMMUNITY ASSISTANCE,942512284,Community,3120 FREEBOARD DR STE 201,W SACRAMENTO,CA,95691-5039,,"Community organization in W SACRAMENTO, CA with annual revenue of approximately $58M",
THE EDUCATIONAL ALLIANCE INC,135562210,Other,197 E BROADWAY,NEW YORK,NY,10002-5507,,"Other organization in NEW YORK, NY with annual revenue of approximately $58M",
THE FOUNDATION FOR BARNES-JEWISH HOSPITAL,431648435,Health,1001 HIGHLANDS PLAZA DR W STE 140,SAINT LOUIS,MO,63110-1339,,"Health organization in SAINT LOUIS, MO with annual revenue of approximately $58M",
WESTERN MICHIGAN UNIVERSITY FOUNDATION,382138856,Education,1903 W MICHIGAN AVE,KALAMAZOO,MI,49008-5200,,"Education organization in KALAMAZOO, MI with annual revenue of approximately $58M",
ANDROSCOGGIN HOME HEALTH SERVICES INC,010227184,Health,15 STRAWBERRY AVE,LEWISTON,ME,04240-5941,,"Health organization in LEWISTON, ME with annual revenue of approximately $58M",
CENTER FOR HUMAN SERVICES INC,440609255,Other,1500 EWING DR,SEDALIA,MO,65301-2396,,"Other organization in SEDALIA, MO with annual revenue of approximately $58M",
CARSON-NEWMAN UNIVERSITY,620479189,Education,PO BOX 557,JEFFERSON CTY,TN,37760-0557,,"Education organization in JEFFERSON CTY, TN with annual revenue of approximately $58M",
UNITED WAY MIAMI INC,590830840,Community,3250 SW 3RD AVE,MIAMI,FL,33129-2712,,"Community organization in MIAMI, FL with annual revenue of approximately $58M",
INTEGRAL DE LOIZA CONCILIODE SALUD,237259899,Other,PO BOX 509,LOIZA,PR,00772-0509,,"Other organization in LOIZA, PR with annual revenue of approximately $58M",
PIERPONT MORGAN LIBRARY,131624146,Education,225 MADISON AVE,NEW YORK,NY,10016-3405,,"Education organization in NEW YORK, NY with annual revenue of approximately $58M",
REGIONAL WEST PHYSICIANS CLINIC,363314159,Religion,4021 AVENUE B,SCOTTSBLUFF,NE,69361-4602,,"Religion organization in SCOTTSBLUFF, NE with annual revenue of approximately $58M",
STAND TOGETHER TRUST,463508366,Education,4201 WILSON BLVD SUITE 0800,ARLINGTON,VA,22203-4492,,"Education organization in ARLINGTON, VA with annual revenue of approximately $58M",
VALLEY CITIES COUNSELING AND CONSULTATION,916063183,Health,325 W GOWE ST,KENT,WA,98032-5892,,"Health organization in KENT, WA with annual revenue of approximately $58M",
SOUTH COUNTY COMMUNITY HEALTH CENTER INC,943372130,Health,1885 BAY RD,E PALO ALTO,CA,94303-1312,,"Health organization in E PALO ALTO, CA with annual revenue of approximately $58M",
PACE CENTER FOR GIRLS INC,592414492,Human Services,6745 PHILIPS INDUSTRIAL BLVD,JACKSONVILLE,FL,32256-3033,,"Human Services organization in JACKSONVILLE, FL with annual revenue of approximately $58M",
NORTHEAST KINGDOM HUMAN SERVICES INC,030212039,Other,181 CRAWFORD RD,NEWPORT,VT,05855-6405,,"Other organization in NEWPORT, VT with annual revenue of approximately $58M",
COBBLE HILL HEALTH CENTER INC,112388200,Health,380 HENRY ST,BROOKLYN,NY,11201-6048,,"Health organization in BROOKLYN, NY with annual revenue of approximately $58M",
THE FOOD BANK OF NORTHERN NEVADA INC,942924979,Human Services,550 ITALY DR,SPARKS,NV,89437-5400,,"Human Services organization in SPARKS, NV with annual revenue of approximately $58M",
COREWELL HEALTH,382770076,Health,100 MICHIGAN ST NE,GRAND RAPIDS,MI,49503-2560,,"Health organization in GRAND RAPIDS, MI with annual revenue of approximately $58M",
SEMPER FI & AMERICAS FUND,260086305,Health,715 BROADWAY ST,QUANTICO,VA,22134-5176,,"Health organization in QUANTICO, VA with annual revenue of approximately $58M",
MEDLINK GEORGIA INC,581394645,Other,11 CHARLIE MORRIS RD,COLBERT,GA,30628-2445,,"Other organization in COLBERT, GA with annual revenue of approximately $58M",
COMMUNITY HEALTH CLINIC INC,264463924,Health,315 LEHMAN AVE STE C,TOPEKA,IN,46571-9476,,"Health organization in TOPEKA, IN with annual revenue of approximately $58M",
BARTON COLLEGE,560529933,Education,PO BOX 5000,WILSON,NC,27893-7000,,"Education organization in WILSON, NC with annual revenue of approximately $58M",
INDIANAPOLIS FOUNDATION INC,454618430,Community,615 N ALABAMA ST STE 300,INDIANAPOLIS,IN,46204-1431,,"Community organization in INDIANAPOLIS, IN with annual revenue of approximately $58M",
AMERICAN CAMPING ASSOCIATION INC,350962419,Other,5000 STATE ROAD 67 N,MARTINSVILLE,IN,46151-7902,,"Other organization in MARTINSVILLE, IN with annual revenue of approximately $58M",
PINKERTON ACADEMY,020223338,Education,19 N MAIN ST,DERRY,NH,03038-1208,,"Education organization in DERRY, NH with annual revenue of approximately $58M",
HOULTON REGIONAL HOSPITAL,237134386,Health,20 HARTFORD ST,HOULTON,ME,04730-1891,,"Health organization in HOULTON, ME with annual revenue of approximately $58M",
HARFORD MEMORIAL HOSPITAL INC,520591484,Health,900 ELKRIDGE LANDING RD 3W,LINTHICUM HEIGHTS,MD,21090-2924,,"Health organization in LINTHICUM HEIGHTS, MD with annual revenue of approximately $58M",
KENNETH C GRIFFIN MUSEUM OF SCIENCE AND INDUSTRY,362167797,Arts & Culture,5700 S DUSABLE LAKE SHOR,CHICAGO,IL,60637-0000,,"Arts & Culture organization in CHICAGO, IL with annual revenue of approximately $58M",
HAMPSHIRE COLLEGE TRUSTEES,046130872,Education,892 WEST STREET,AMHERST,MA,01002-0000,,"Education organization in AMHERST, MA with annual revenue of approximately $58M",
CENTRAL MONTANA MEDICAL FACILITIES INC,237169043,Health,408 WENDELL AVE,LEWISTOWN,MT,59457-2261,,"Health organization in LEWISTOWN, MT with annual revenue of approximately $58M",
TREASURE COAST FOOD BANK INCORPORATED,650123281,Human Services,401 ANGLE RD,FORT PIERCE,FL,34947-2528,,"Human Services organization in FORT PIERCE, FL with annual revenue of approximately $58M",
SAGE OAK CHARTER SCHOOL,474121914,Education,1473 FORD ST STE 105,REDLANDS,CA,92373-3915,,"Education organization in REDLANDS, CA with annual revenue of approximately $58M",
BERKSHIRE FACULTY SERVICES INC,042995053,Health,725 NORTH ST,PITTSFIELD,MA,01201-4109,,"Health organization in PITTSFIELD, MA with annual revenue of approximately $58M",
MILLIGAN UNIVERSITY,620535755,Education,PO BOX 750,MILLIGAN,TN,37682-0750,,"Education organization in MILLIGAN, TN with annual revenue of approximately $58M",
HOCKADAY SCHOOL,750800650,Education,11600 WELCH RD,DALLAS,TX,75229-2913,,"Education organization in DALLAS, TX with annual revenue of approximately $58M",
WEM 2000 FOUNDATION,411978254,Community,PO BOX 5628,MINNEAPOLIS,MN,55440-5628,,"Community organization in MINNEAPOLIS, MN with annual revenue of approximately $58M",
HOMEFIRST SERVICES OF SANTA CLARA COUNTY,942684272,Other,507 VALLEY WAY,MILPITAS,CA,95035-4105,,"Other organization in MILPITAS, CA with annual revenue of approximately $58M",
COMMUNITY ACTION COUNCIL FOR LEX- FAYETTE BOURB HARR NICH COUNTIES,610650121,Education,710 W HIGH ST,LEXINGTON,KY,40508-2451,,"Education organization in LEXINGTON, KY with annual revenue of approximately $58M",
CONCORDIA LUTHERAN MINISTRIES OF PITTSBURGH,270209886,Human Services,1300 BOWER HILL RD,PITTSBURGH,PA,15243-1388,,"Human Services organization in PITTSBURGH, PA with annual revenue of approximately $58M",
UNION RESCUE MISSION,951709293,Human Services,545 S SAN PEDRO ST,LOS ANGELES,CA,90013-2101,,"Human Services organization in LOS ANGELES, CA with annual revenue of approximately $58M",
SUMMIT PUBLIC SCHOOLS,262034843,Education,780 BROADWAY ST,REDWOOD CITY,CA,94063-3124,,"Education organization in REDWOOD CITY, CA with annual revenue of approximately $58M",
ECMC FOUNDATION,411990628,Education,111 WASHINGTON AVE S1400,MINNEAPOLIS,MN,55401-0000,,"Education organization in MINNEAPOLIS, MN with annual revenue of approximately $58M",
POLYNESIAN CULTURAL CENTER,990109908,Arts & Culture,55-370 KAMEHAMEHA HWY,LAIE,HI,96762-2113,,"Arts & Culture organization in LAIE, HI with annual revenue of approximately $58M",
SANTA FE SOUTH SCHOOLS INC,300118733,Education,7000 CROSSROAD BLVD SUITE 4000,OKLAHOMA CITY,OK,73149-0000,,"Education organization in OKLAHOMA CITY, OK with annual revenue of approximately $58M",
CATHOLIC CHARITABLE BUREAU OF THE ARCHDIOCESE OF BOSTON INC,042534041,Other,275 W BROADWAY,SOUTH BOSTON,MA,02127-1943,,"Other organization in SOUTH BOSTON, MA with annual revenue of approximately $58M",
LATIN SCHOOL OF CHICAGO,362258525,Education,59 W NORTH BLVD,CHICAGO,IL,60610-1403,,"Education organization in CHICAGO, IL with annual revenue of approximately $58M",
AMERICAN JEWISH UNIVERSITY,951684064,Education,15600 MULHOLLAND DR,LOS ANGELES,CA,90077-1519,,"Education organization in LOS ANGELES, CA with annual revenue of approximately $58M",
HEALTH FEDERATION OF PHILADELPHIA,232244355,Other,123 S BROAD ST STE 650,PHILADELPHIA,PA,19109-1013,,"Other organization in PHILADELPHIA, PA with annual revenue of approximately $58M",
BLAKE SCHOOL,237243247,Education,110 BLAKE RD S,HOPKINS,MN,55343-2021,,"Education organization in HOPKINS, MN with annual revenue of approximately $58M",
DIGITAL PROMISE GLOBAL,465460594,International,1001 CONNECTICUT AVE NW SUITE,WASHINGTON,DC,20036-5504,,"International organization in WASHINGTON, DC with annual revenue of approximately $58M",
SHC MEDICAL CENTER TOPPENISH,814670687,Health,1016 TACOMA AVE,SUNNYSIDE,WA,98944-2263,,"Health organization in SUNNYSIDE, WA with annual revenue of approximately $58M",
WINDBER HOSPITAL INC,251244202,Health,600 SOMERSET AVE,WINDBER,PA,15963-1331,,"Health organization in WINDBER, PA with annual revenue of approximately $58M",
FAMILY HEALTH SERVICES CORPORATION,820371093,Health,794 EASTLAND DR,TWIN FALLS,ID,83301-6856,,"Health organization in TWIN FALLS, ID with annual revenue of approximately $58M",
GINOK LLC,251815436,Human Services,875 GREENTREE RD ONE PARKWAY CENTER,PITTSBURGH,PA,15220-0000,,"Human Services organization in PITTSBURGH, PA with annual revenue of approximately $58M",
CONTINUUM OF CARE INC,060836524,Other,109 LEGION AVE,NEW HAVEN,CT,06519-5506,,"Other organization in NEW HAVEN, CT with annual revenue of approximately $58M",
CITIZEN ADVOCATES INC,141577715,Human Services,PO BOX 608,MALONE,NY,12953-0608,,"Human Services organization in MALONE, NY with annual revenue of approximately $58M",
MISERICORDIA FOUNDATION,237285834,Human Services,6300 N RIDGE AVE,CHICAGO,IL,60660-1017,,"Human Services organization in CHICAGO, IL with annual revenue of approximately $58M",
ILLINOIS ACTION FOR CHILDREN,362712912,Other,4753 N BROADWAY ST STE 1200,CHICAGO,IL,60640-4907,,"Other organization in CHICAGO, IL with annual revenue of approximately $58M",
CONSORTIUM FOR GRADUATE STUDY IN MANAGEMENT,430962198,Other,229 CHESTERFIELD BUS PKWY,CHESTERFIELD,MO,63005-1241,,"Other organization in CHESTERFIELD, MO with annual revenue of approximately $57M",
NEW ENGLAND LIFE FLIGHT INC,222582060,Health,150 HANSCOM DR,BEDFORD,MA,01730-2630,,"Health organization in BEDFORD, MA with annual revenue of approximately $57M",
PRO PUBLICA INC,142007220,Arts & Culture,155 AVE AMERICA 13 FL,NEW YORK,NY,10013-0000,,"Arts & Culture organization in NEW YORK, NY with annual revenue of approximately $57M",
EASTER SEALS INC,362171729,Other,141 W JACKSON BLVD STE 1400A,CHICAGO,IL,60604-3188,,"Other organization in CHICAGO, IL with annual revenue of approximately $57M",
CONCERN FOR INDEPENDENT LIVING INC,237259687,Health,312 EXPRESSWAY DR S,MEDFORD,NY,11763-2555,,"Health organization in MEDFORD, NY with annual revenue of approximately $57M",
ALLIANT HEALTH SOLUTIONS INC,900838127,Health,400 PERIMETER CENTER TER NE STE 250,ATLANTA,GA,30346-1259,,"Health organization in ATLANTA, GA with annual revenue of approximately $57M",
GOODWILL INDUSTRIES OF DELAWARE & DELAWARE COUNTY INC,510064311,Human Services,300 E LEA BLVD,WILMINGTON,DE,19802-2354,,"Human Services organization in WILMINGTON, DE with annual revenue of approximately $57M",
WILLIAM J BRENNAN JR CENTER FOR JUSTICE INC,133839293,Education,120 BROADWAY STE 1750,NEW YORK,NY,10271-0202,,"Education organization in NEW YORK, NY with annual revenue of approximately $57M",
PLEASANT VALLEY HOSPITAL INC,550440086,Health,2520 VALLEY DRIVE,PT PLEASANT,WV,25550-2031,,"Health organization in PT PLEASANT, WV with annual revenue of approximately $57M",
COMMUNITY SHELTER BOARD,311181284,Other,355 EAST CAMPUS VIEW BLVD,COLUMBUS,OH,43235-5616,,"Other organization in COLUMBUS, OH with annual revenue of approximately $57M",
RUMFORD HOSPITAL,010215227,Health,420 FRANKLIN ST,RUMFORD,ME,04276-2104,,"Health organization in RUMFORD, ME with annual revenue of approximately $57M",
HENDERSON BEHAVIORAL HEALTH INC,590711167,Health,4740 N STATE ROAD 7 BLD C SUITE 201,LAUDERDALE LAKES,FL,33319-5839,,"Health organization in LAUDERDALE LAKES, FL with annual revenue of approximately $57M",
NYSARC INC,131740065,Human Services,265 SAW MILL RIVER RD,HAWTHORNE,NY,10532-1509,,"Human Services organization in HAWTHORNE, NY with annual revenue of approximately $57M",
THE PAULEY FAMILY FOUNDATION,541685158,Community,3409 MOORE ST,RICHMOND,VA,23230-4443,,"Community organization in RICHMOND, VA with annual revenue of approximately $57M",
CLARION HOSPITAL,251010039,Health,1 HOSPITAL DR,CLARION,PA,16214-8501,,"Health organization in CLARION, PA with annual revenue of approximately $57M",
CWI WORKS INC,526048236,Human Services,8403 COLESVILLE RD STE 200,SILVER SPRING,MD,20910-6391,,"Human Services organization in SILVER SPRING, MD with annual revenue of approximately $57M",
SPRINGSIDE CHESTNUT HILL ACADEMY,231352681,Education,500 W WILLOW GROVE AVE,PHILADELPHIA,PA,19118-4126,,"Education organization in PHILADELPHIA, PA with annual revenue of approximately $57M",
GOODWILL INDUSTRIES OF SOUTHERN NEVADA INC,237437479,Other,250 PILOT RD STE 140,LAS VEGAS,NV,89119-3543,,"Other organization in LAS VEGAS, NV with annual revenue of approximately $57M",
FRANCIS PARKER SCHOOL,951696720,Education,6501 LINDA VISTA RD,SAN DIEGO,CA,92111-7321,,"Education organization in SAN DIEGO, CA with annual revenue of approximately $57M",
SAGINAW COOPERATIVE HOSPITALS INC,381870664,Health,1000 HOUGHTON AVE,SAGINAW,MI,48602-5303,,"Health organization in SAGINAW, MI with annual revenue of approximately $57M",
SAVE THE REDWOODS LEAGUE,940843915,Environment,111 SUTTER STREET 11TH FLOOR,SAN FRANCISCO,CA,94104-4541,,"Environment organization in SAN FRANCISCO, CA with annual revenue of approximately $57M",
FERRELL HOSPITAL COMMUNITY FOUNDATION,201244058,Health,1201 PINE ST,ELDORADO,IL,62930-1634,,"Health organization in ELDORADO, IL with annual revenue of approximately $57M",
PENNSYLVANIA ASSOCIATION OF AREA AGENCY ON AGING DIRECTORS INC,251417076,Other,525 S 29TH STREET,HARRISBURG,PA,17104-2140,,"Other organization in HARRISBURG, PA with annual revenue of approximately $57M",
TRUMERIT,232026352,Health,3600 MARKET ST STE 400,PHILADELPHIA,PA,19104-2647,,"Health organization in PHILADELPHIA, PA with annual revenue of approximately $57M",
MONONGALIA HEALTH SYSTEM INC,550621551,Health,1200 J D ANDERSON DR,MORGANTOWN,WV,26505-3494,,"Health organization in MORGANTOWN, WV with annual revenue of approximately $57M",
CLINICA DE SALUD DEL VALLE DE SALINAS,942652757,Health,55 PLAZA CIR,SALINAS,CA,93901-2952,,"Health organization in SALINAS, CA with annual revenue of approximately $57M",
COMMUNITY FOUNDATION OF THE OZARKS INC,237290968,Community,300 S JEFFERSON AVE STE 400,SPRINGFIELD,MO,65806-2215,,"Community organization in SPRINGFIELD, MO with annual revenue of approximately $57M",
DALLAS PHYSICIAN MEDICAL SERVICES FOR CHILDREN INC,810584868,Health,1935 MEDICAL DISTRICT DR,DALLAS,TX,75235-7701,,"Health organization in DALLAS, TX with annual revenue of approximately $57M",
PRATT REGIONAL MEDICAL CENTER CORPORATION,481058737,Health,200 COMMODORE ST,PRATT,KS,67124-2903,,"Health organization in PRATT, KS with annual revenue of approximately $57M",
GATEWAYS HOSPITAL & MENTAL HEALTH CENTER,951691011,Health,1891 EFFIE ST,LOS ANGELES,CA,90026-1711,,"Health organization in LOS ANGELES, CA with annual revenue of approximately $57M",
SUNNY GLEN CHILDRENS HOME,741260706,Human Services,2385 W EXPRESSWAY 83,SAN BENITO,TX,78586-7831,,"Human Services organization in SAN BENITO, TX with annual revenue of approximately $57M",
SUMMER INSTITUTE OF LINGUISTICS INC,751840827,International,7500 W CAMP WISDOM RD,DALLAS,TX,75236-5629,,"International organization in DALLAS, TX with annual revenue of approximately $57M",
GRACE CHURCH SCHOOL,113752853,Education,86 4TH AVE,NEW YORK,NY,10003-5232,,"Education organization in NEW YORK, NY with annual revenue of approximately $57M",
SAN FRANCISCO BALLET ENDOWMENT FOUNDATION,942747262,Arts & Culture,455 FRANKLIN ST,SAN FRANCISCO,CA,94102-4438,,"Arts & Culture organization in SAN FRANCISCO, CA with annual revenue of approximately $57M",
THOMAS MORE UNIVERSITY INC,610448560,Education,333 THOMAS MORE PKWY,CRESTVIEW HLS,KY,41017-3428,,"Education organization in CRESTVIEW HLS, KY with annual revenue of approximately $57M",
ONE TREE PLANTED INC,464664562,Community,145 PINE HAVEN SHORES RD STE 1000D,SHELBURNE,VT,05482-7812,,"Community organization in SHELBURNE, VT with annual revenue of approximately $57M",
PUNXSUTAWNEY AREA HOSPITAL INC,250965210,Health,81 HILLCREST DR,PUNXSUTAWNEY,PA,15767-2605,,"Health organization in PUNXSUTAWNEY, PA with annual revenue of approximately $57M",
SONOMA COUNTY INDIAN HEALTH PROJECT INC,941741896,Health,144 STONY POINT RD,SANTA ROSA,CA,95401-4122,,"Health organization in SANTA ROSA, CA with annual revenue of approximately $57M",
SENIOR HOUSING ASSISTANCE GROUP,943063455,Other,1980 112TH AVE NE STE 210,BELLEVUE,WA,98004-2940,,"Other organization in BELLEVUE, WA with annual revenue of approximately $57M",
YOUNG MENS CHRISTIAN ASSOCIATION OF SOUTH HAMPTON ROADS,540445205,Human Services,920 CORPORATE LN,CHESAPEAKE,VA,23320-3641,,"Human Services organization in CHESAPEAKE, VA with annual revenue of approximately $57M",
COMMUNITY HEALTH OF CENTRAL WASHINGTON,571140982,Health,501 S 5TH AVE,YAKIMA,WA,98902-3550,,"Health organization in YAKIMA, WA with annual revenue of approximately $57M",
HOMES FOR THE HOMELESS INC,133351420,Human Services,36 COOPER SQUARE 3RD FLOOR,NEW YORK,NY,10003-7115,,"Human Services organization in NEW YORK, NY with annual revenue of approximately $57M",
CENTRAL PA BEHAVORIAL HEALTH COLLABORATIVE INC,201646631,Health,81 HOLLIDAY HILLS DR,HOLLIDAYSBURG,PA,16648-3257,,"Health organization in HOLLIDAYSBURG, PA with annual revenue of approximately $57M",
INTERLOCHEN ARTS GROUP,932002543,Education,PO BOX 199,INTERLOCHEN,MI,49643-0199,,"Education organization in INTERLOCHEN, MI with annual revenue of approximately $57M",
DREW CHARTER SCHOOL INC,582528098,Education,300 EVA DAVIS WAY,ATLANTA,GA,30317-3100,,"Education organization in ATLANTA, GA with annual revenue of approximately $57M",
CHN HOUSING PARTNERS,341346763,Human Services,2999 PAYNE AVE STE 306,CLEVELAND,OH,44114-4443,,"Human Services organization in CLEVELAND, OH with annual revenue of approximately $57M",
PARALLAX ADVANCED RESEARCH CORP,161704454,Research,4035 COLONEL GLENN HWY,BEAVERCRK TWP,OH,45431-1601,,"Research organization in BEAVERCRK TWP, OH with annual revenue of approximately $57M",
HEARTLAND ALLIANCE FOR HUMAN NEEDS & HUMAN RIGHTS,361877640,Human Services,4822 BROADWAY 2ND FL,CHICAGO,IL,60640-3604,,"Human Services organization in CHICAGO, IL with annual revenue of approximately $57M",
MADONNA UNIVERSITY,381498763,Education,36600 SCHOOLCRAFT RD,LIVONIA,MI,48150-1176,,"Education organization in LIVONIA, MI with annual revenue of approximately $57M",
LEGAL AID FOUNDATION OF LOS ANGELES,951684067,Human Services,1550 W 8TH ST,LOS ANGELES,CA,90017-4316,,"Human Services organization in LOS ANGELES, CA with annual revenue of approximately $57M",
LEONARD & BERYL BUCK FOUNDATION,946485668,Community,PO BOX 505,SAINT LOUIS,MO,63166-0505,,"Community organization in SAINT LOUIS, MO with annual revenue of approximately $57M",
OZANAM HALL OF QUEENS NURSING HOME INC,112167809,Health,4241 201ST ST,BAYSIDE,NY,11361-2550,,"Health organization in BAYSIDE, NY with annual revenue of approximately $57M",
CODMAN SQUARE HEALTH CENTER INC,042678774,Health,637 WASHINGTON ST,DORCHESTER,MA,02124-3510,,"Health organization in DORCHESTER, MA with annual revenue of approximately $57M",
NEW ISRAEL FUND,942607722,International,254 WEST 31ST STREET,NEW YORK,NY,10001-2813,,"International organization in NEW YORK, NY with annual revenue of approximately $57M",
OPERATION HOPE INC,954378084,Other,191 PEACHTREE ST NE STE 3840,ATLANTA,GA,30303-1754,,"Other organization in ATLANTA, GA with annual revenue of approximately $57M",
DEAN MCGEE EYE INSTITUTE,736109395,Health,608 STANTON L YOUNG BLVD,OKLAHOMA CITY,OK,73104-5014,,"Health organization in OKLAHOMA CITY, OK with annual revenue of approximately $57M",
MONTCLAIR KIMBERLY ACADEMY FOUNDATION,237365263,Education,201 VALLEY RD,MONTCLAIR,NJ,07042-2335,,"Education organization in MONTCLAIR, NJ with annual revenue of approximately $57M",
MARINE BIOLOGICAL LABORATORY,042104690,Research,7 MBL STREET,WOODS HOLE,MA,02543-1015,,"Research organization in WOODS HOLE, MA with annual revenue of approximately $57M",
PHILADELPHIA FOUNDATION,231581832,Community,1835 MARKET ST STE 2410,PHILADELPHIA,PA,19103-2909,,"Community organization in PHILADELPHIA, PA with annual revenue of approximately $57M",
KENTUCKY RIVER COMMUNITY CARE INC,310965230,Health,115 ROCKWOOD LN,HAZARD,KY,41701-9415,,"Health organization in HAZARD, KY with annual revenue of approximately $57M",
PROSTATE CANCER FOUNDATION,954418411,Community,1250 4TH STREET,SANTA MONICA,CA,90401-1366,,"Community organization in SANTA MONICA, CA with annual revenue of approximately $57M",
ENOCH PRATT FREE LIBRARY OF BALTIMORE CITY,526001143,Education,400 CATHEDRAL ST,BALTIMORE,MD,21201-4401,,"Education organization in BALTIMORE, MD with annual revenue of approximately $57M",
EVERYAGE,566056582,Human Services,100 LEONARD AVE,NEWTON,NC,28658-9649,,"Human Services organization in NEWTON, NC with annual revenue of approximately $57M",
MATRIX HUMAN SERVICES,381358015,Other,1400 WOODBRIDGE ST,DETROIT,MI,48207-3110,,"Other organization in DETROIT, MI with annual revenue of approximately $57M",
BETHESDA FOUNDATION,470497753,Human Services,15475 GLENEAGLE DR,COLORADO SPGS,CO,80921-2596,,"Human Services organization in COLORADO SPGS, CO with annual revenue of approximately $57M",
AQUINAS COLLEGE INC,381367080,Education,1700 FULTON ST E,GRAND RAPIDS,MI,49506-1801,,"Education organization in GRAND RAPIDS, MI with annual revenue of approximately $57M",
COMMUNITY SUPPORT SERVICES,521902966,Human Services,9075 COMPRINT CT,GAITHERSBURG,MD,20877-1306,,"Human Services organization in GAITHERSBURG, MD with annual revenue of approximately $57M",
YOUNG MENS CHRISTIAN ASSOCIATION OF GREATER LOUISVILLE,610444843,Human Services,545 S 2ND ST,LOUISVILLE,KY,40202-1801,,"Human Services organization in LOUISVILLE, KY with annual revenue of approximately $57M",
GOODWILL OF WESTERN MISSOURI AND EASTERN KANSAS,431125281,Human Services,800 E 18TH ST,KANSAS CITY,MO,64108-1514,,"Human Services organization in KANSAS CITY, MO with annual revenue of approximately $57M",
COLUMBIACARE SERVICES INC,810609831,Health,3587 HEATHROW WAY,MEDFORD,OR,97504-4004,,"Health organization in MEDFORD, OR with annual revenue of approximately $57M",
MENDOCINO COMMUNITY HEALTH CLINIC INC,680259045,Health,333 LAWS AVE,UKIAH,CA,95482-6540,,"Health organization in UKIAH, CA with annual revenue of approximately $57M",
COUNTRY MUSIC FOUNDATION INC,620753887,Arts & Culture,222 REP JOHN LEWIS WAY S,NASHVILLE,TN,37203-4206,,"Arts & Culture organization in NASHVILLE, TN with annual revenue of approximately $57M",
CORPORATION OF THE FINE ARTS MUSEUMS,943045948,Arts & Culture,50 HAGIWARA TEA GARDEN DR,SAN FRANCISCO,CA,94118-4502,,"Arts & Culture organization in SAN FRANCISCO, CA with annual revenue of approximately $57M",
LYRIC OPERA OF CHICAGO,366008929,Arts & Culture,20 N WACKER DR STE 860,CHICAGO,IL,60606-2899,,"Arts & Culture organization in CHICAGO, IL with annual revenue of approximately $57M",
CONFLUENCE ACADEMY,680557741,Education,319 N 4TH ST STE 500,SAINT LOUIS,MO,63102-1932,,"Education organization in SAINT LOUIS, MO with annual revenue of approximately $57M",
COMPREHENSIVE COMMUNITY HEALTH CENTERS INC,421553807,Health,801 S CHEVY CHASE DR STE 20,GLENDALE,CA,91205-4437,,"Health organization in GLENDALE, CA with annual revenue of approximately $57M",
ASTOR SERVICES FOR CHILDREN & FAMILIES,141397918,Human Services,6339 MILL ST,RHINEBECK,NY,12572-1427,,"Human Services organization in RHINEBECK, NY with annual revenue of approximately $57M",
HENNEPIN HEALTHCARE RESEARCH INSTITUTE,411677920,Health,701 PARK AVE PP7 700,MINNEAPOLIS,MN,55415-1623,,"Health organization in MINNEAPOLIS, MN with annual revenue of approximately $57M",
MATER ACADEMY CENTRAL INC,465537120,Education,3200 PLEASANT HILL RD,KISSIMMEE,FL,34746-3067,,"Education organization in KISSIMMEE, FL with annual revenue of approximately $57M",
IDAHO FOODBANK WAREHOUSE,820425400,Human Services,3630 E COMMERCIAL CT,MERIDIAN,ID,83642-6043,,"Human Services organization in MERIDIAN, ID with annual revenue of approximately $57M",
SOME INC,237098123,Other,60 O ST NW,WASHINGTON,DC,20001-1259,,"Other organization in WASHINGTON, DC with annual revenue of approximately $57M",
GRACE HEALTH INC,382679075,Health,181 EMMETT ST W,BATTLE CREEK,MI,49037-2963,,"Health organization in BATTLE CREEK, MI with annual revenue of approximately $57M",
THE OAK CLINIC,341930683,Health,3838 MASSILLON RD STE 360,UNIONTOWN,OH,44685-7965,,"Health organization in UNIONTOWN, OH with annual revenue of approximately $57M",
CATHOLIC CHARITIES OF THE ARCHDIOCESE OF ST PAUL & MPLS,411302487,Human Services,1007 E 14TH ST,MINNEAPOLIS,MN,55404-1314,,"Human Services organization in MINNEAPOLIS, MN with annual revenue of approximately $57M",
CATHOLIC CHARITIES DIOCESE OF TRENTON,210634494,Other,383 W STATE ST,TRENTON,NJ,08618-5705,,"Other organization in TRENTON, NJ with annual revenue of approximately $57M",
KNOXVILLE COMMUNITY HOSPITAL INC,421087612,Health,1002 S LINCOLN ST,KNOXVILLE,IA,50138-3155,,"Health organization in KNOXVILLE, IA with annual revenue of approximately $57M",
AQUARIUM OF THE PACIFIC,330532354,Health,100 AQUARIUM WAY,LONG BEACH,CA,90802-8126,,"Health organization in LONG BEACH, CA with annual revenue of approximately $57M",
PANORAMA,943048988,Human Services,1751 CIRCLE LN SE,LACEY,WA,98503-2570,,"Human Services organization in LACEY, WA with annual revenue of approximately $57M",
CIVIL-MILITARY INNOVATION INSTITUTE INC,352506985,Research,3592 COLLINS FERRY RD STE 200,MORGANTOWN,WV,26505-2374,,"Research organization in MORGANTOWN, WV with annual revenue of approximately $56M",
MARSHALL HEALTH NETWORK INC,320573122,Health,1340 HAL GREER BLVD,HUNTINGTON,WV,25701-3804,,"Health organization in HUNTINGTON, WV with annual revenue of approximately $56M",
GOODWILL OF THE FINGER LAKES INC,274212702,Human Services,422 CLINTON AVE S,ROCHESTER,NY,14620-1103,,"Human Services organization in ROCHESTER, NY with annual revenue of approximately $56M",
GREAT OAKS CHARTER SCHOOL,451260087,Education,89 MARKET ST,NEWARK,NJ,07102-1736,,"Education organization in NEWARK, NJ with annual revenue of approximately $56M",
INDIANA HEMOPHILIA AND THROMBOSIS CENTER INC,352047838,Health,8326 NAAB RD,INDIANAPOLIS,IN,46260-1920,,"Health organization in INDIANAPOLIS, IN with annual revenue of approximately $56M",
ARKANSAS COLLEGES OF HEALTH EDUCATION,465138928,Education,7000 CHAD COLLEY BLVD,FORT SMITH,AR,72916-6024,,"Education organization in FORT SMITH, AR with annual revenue of approximately $56M",
HJF MEDICAL RESEARCH INTERNATIONAL INC,522322791,Health,6720A ROCKLEDGE DR STE 100,BETHESDA,MD,20817-1891,,"Health organization in BETHESDA, MD with annual revenue of approximately $56M",
FEDERATED TRANSPORTATION SERVICES OF THE BLUEGRASS INC,311057711,Human Services,1713 JAGGIE FOX WAY,LEXINGTON,KY,40511-2512,,"Human Services organization in LEXINGTON, KY with annual revenue of approximately $56M",
KEUKA COLLEGE,166054295,Education,141 CENTRAL AVE,KEUKA PARK,NY,14478-9764,,"Education organization in KEUKA PARK, NY with annual revenue of approximately $56M",
RIVER PARTNERS,943302335,Environment,580 VALLOMBROSA AVE,CHICO,CA,95926-4038,,"Environment organization in CHICO, CA with annual revenue of approximately $56M",
LITTLE HAVANA ACTIVITIES AND NUTRITION CENTERS OF DADE COUNTY I,237378008,Human Services,700 SW 8TH ST,MIAMI,FL,33130-3311,,"Human Services organization in MIAMI, FL with annual revenue of approximately $56M",
LAKE WALES CHARTER SCHOOLS,061667879,Education,PO BOX 3309,LAKE WALES,FL,33859-3309,,"Education organization in LAKE WALES, FL with annual revenue of approximately $56M",
ILEAD CALIFORNIA CHARTERS 1,474286845,Education,3720 SIERRA HWY STE A,ACTON,CA,93510-1272,,"Education organization in ACTON, CA with annual revenue of approximately $56M",
CRISP SHARED SERVICES INC,853328249,Health,PO BOX 1152,COLUMBIA,MD,21044-0152,,"Health organization in COLUMBIA, MD with annual revenue of approximately $56M",
RISEWELL COMMUNITY SERVICES INC,237237931,Other,1 FARMINGDALE ROAD / ROUTE 109,WEST BABYLON,NY,11704-0000,,"Other organization in WEST BABYLON, NY with annual revenue of approximately $56M",
PLAN INTERNATIONAL USA INC,135661832,International,275 PROMENADE ST STE 225,PROVIDENCE,RI,02908-5748,,"International organization in PROVIDENCE, RI with annual revenue of approximately $56M",
LEXINGTON CENTER CORPORATION,610734772,Community,430 W VINE ST,LEXINGTON,KY,40507-9002,,"Community organization in LEXINGTON, KY with annual revenue of approximately $56M",
WILDLIFE CONSERVATION NETWORK INC,300108469,Health,209 MISSISSIPPI ST,SAN FRANCISCO,CA,94107-2528,,"Health organization in SAN FRANCISCO, CA with annual revenue of approximately $56M",
LOS ANGELES DEPENDENCY LAWYERS INC,205491740,Human Services,901 CORPORATE CENTER DR STE 520,MONTEREY PARK,CA,91754-7625,,"Human Services organization in MONTEREY PARK, CA with annual revenue of approximately $56M",
THE GRADUATE CENTER FOUNDATION INC,133219419,Other,365 FIFTH STREET 8TH FLOOR,NEW YORK,NY,10016-4309,,"Other organization in NEW YORK, NY with annual revenue of approximately $56M",
ISANA,201782192,Education,3580 WILSHIRE BLVD STE 1130,LOS ANGELES,CA,90010-2546,,"Education organization in LOS ANGELES, CA with annual revenue of approximately $56M",
SIERRA CANYON HIGH SCHOOL FOUNDATION,954823704,Education,11052 INDEPENDENCE AVE,CHATSWORTH,CA,91311-1562,,"Education organization in CHATSWORTH, CA with annual revenue of approximately $56M",
VOLUNTEERS OF AMERICA INC,830280532,Other,1876 S SHERIDAN AVE,SHERIDAN,WY,82801-6136,,"Other organization in SHERIDAN, WY with annual revenue of approximately $56M",
MARY BALDWIN UNIVERSITY,540506319,Education,NEW FREDERICK STS,STAUNTON,VA,24401-0000,,"Education organization in STAUNTON, VA with annual revenue of approximately $56M",
ST LUKES-JONES REGIONAL MEDICAL CENTER,421487967,Education,1795 HIGHWAY 64 E,ANAMOSA,IA,52205-2112,,"Education organization in ANAMOSA, IA with annual revenue of approximately $56M",
RIPON COLLEGE BOARD OF TRUSTEES,390826049,Education,PO BOX 248,RIPON,WI,54971-0248,,"Education organization in RIPON, WI with annual revenue of approximately $56M",
UNIVERSITY FACULTY ASSOCIATES INC,463969536,Health,2625 E DIVISADERO ST,FRESNO,CA,93721-1431,,"Health organization in FRESNO, CA with annual revenue of approximately $56M",
WEST HAWAII COMMUNITY HEALTH CENTER INC,200495394,Health,75-5751 KUAKINI HWY STE 203,KAILUA KONA,HI,96740-1753,,"Health organization in KAILUA KONA, HI with annual revenue of approximately $56M",
LANDIS HOMES RETIREMENT COMMUNITY,232194364,Human Services,1001 E OREGON RD,LITITZ,PA,17543-9205,,"Human Services organization in LITITZ, PA with annual revenue of approximately $56M",
ASSOCIATED JEWISH CHARITIES OF BALTIMORE,526024192,Community,5700 PARK HEIGHTS AVE,BALTIMORE,MD,21215-3930,,"Community organization in BALTIMORE, MD with annual revenue of approximately $56M",
HAWKEYE AREA COMMUNITY ACTION PROGRAM INC,420898405,Human Services,1515 HAWKEYE DR,HIAWATHA,IA,52233-1102,,"Human Services organization in HIAWATHA, IA with annual revenue of approximately $56M",
QUINCY UNIVERSITY CORPORATION,370661231,Education,1800 COLLEGE AVE,QUINCY,IL,62301-2670,,"Education organization in QUINCY, IL with annual revenue of approximately $56M",
ABILITY360 INC,860486447,Human Services,5025 EAST WASHINGTON STREET,PHOENIX,AZ,85034-7437,,"Human Services organization in PHOENIX, AZ with annual revenue of approximately $56M",
UNITED CEREBRAL PALSY ASSOCIATION OF GREATER SUFFOLK INC,112568841,Health,250 MARCUS BLVD,HAUPPAUGE,NY,11788-2018,,"Health organization in HAUPPAUGE, NY with annual revenue of approximately $56M",
SAINT JOSEPH REGIONAL MEDICAL CENTER-PLYMOUTH CAMPUS INC,351142669,Health,5215 HOLY CROSS PKWY,MISHAWAKA,IN,46545-1469,,"Health organization in MISHAWAKA, IN with annual revenue of approximately $56M",
GULF COAST JEWISH FAMILY AND COMMUNITY SERVICES INC,591229354,Other,14041 ICOT BLVD,CLEARWATER,FL,33760-3702,,"Other organization in CLEARWATER, FL with annual revenue of approximately $56M",
ACHIEVEMENT FIRST INC,651203744,Education,470 JAMES STREET STE 007,NEW HAVEN,CT,06513-3175,,"Education organization in NEW HAVEN, CT with annual revenue of approximately $56M",
SOUTHLAKE TRI-CITY MANAGEMENT CORP,351859562,Health,8400 LOUISIANA STREET,MERRILLVILLE,IN,46410-6385,,"Health organization in MERRILLVILLE, IN with annual revenue of approximately $56M",
LINCOLN PARK ZOOLOGICAL SOCIETY,362512404,Health,2001 N CLARK ST,CHICAGO,IL,60614-4712,,"Health organization in CHICAGO, IL with annual revenue of approximately $56M",
ASCENSION VIA CHRISTI HOSPITAL ST TERESA INC,271965272,Health,PO BOX 45998,SAINT LOUIS,MO,63145-5998,,"Health organization in SAINT LOUIS, MO with annual revenue of approximately $56M",
CSU FULLERTON AUXILIARY SERVICES CORPORATION,952081258,Education,1121 N STATE COLLEGE BLVD,FULLERTON,CA,92831-3014,,"Education organization in FULLERTON, CA with annual revenue of approximately $56M",
LUTHERAN FAMILY SERVICES OF VIRGINIA INC,541222012,Human Services,2965 COLONNADE DRIVE SW,ROANOKE,VA,24018-3557,,"Human Services organization in ROANOKE, VA with annual revenue of approximately $56M",
UNIVERSITY SETTLEMENT SOCIETY OF NEW YORK,135562374,Other,184 ELDRIDGE ST 3RD FL,NEW YORK,NY,10002-2924,,"Other organization in NEW YORK, NY with annual revenue of approximately $56M",
GOSHEN MEDICAL CENTER INCORPORATED,561209062,Health,444 SW CENTER ST,FAISON,NC,28341-8820,,"Health organization in FAISON, NC with annual revenue of approximately $56M",
ROCKY MOUNTAIN PLANNED PARENTHOOD INC,840404253,Health,7155 E 38TH AVE,DENVER,CO,80207-1630,,"Health organization in DENVER, CO with annual revenue of approximately $56M",
LEAD PUBLIC SCHOOLS INC,202526508,Education,7101 EXECUTIVE CENTER DR,BRENTWOOD,TN,37027-5236,,"Education organization in BRENTWOOD, TN with annual revenue of approximately $56M",
EVIDENCE ACTION INC,900874591,International,1133 CONNECTICUT AVE NW STE 200,WASHINGTON,DC,20036-4380,,"International organization in WASHINGTON, DC with annual revenue of approximately $56M",
MERCYFIRST,111635089,Human Services,525 CONVENT RD,SYOSSET,NY,11791-3868,,"Human Services organization in SYOSSET, NY with annual revenue of approximately $56M",
COLORADO CATTLEMENS AGRICULTURAL LAND TRUST,841317592,Human Services,7000 W 14TH AVE,LAKEWOOD,CO,80214-4723,,"Human Services organization in LAKEWOOD, CO with annual revenue of approximately $56M",
CATHOLIC CHARITIES OF SANTA CLARA COUNTY,942762269,Human Services,2625 ZANKER ROAD,SAN JOSE,CA,95134-2130,,"Human Services organization in SAN JOSE, CA with annual revenue of approximately $56M",
GOODWILL INDUSTRIES OF CENTRAL OHIO INC,314379448,Human Services,671 S HIGH ST STE 800,COLUMBUS,OH,43206-1073,,"Human Services organization in COLUMBUS, OH with annual revenue of approximately $56M",
ADELPHOI VILLAGE INC,251441744,Human Services,354 MAIN ST,LATROBE,PA,15650-1558,,"Human Services organization in LATROBE, PA with annual revenue of approximately $56M",
YOUNG MENS CHRISTIAN ASSOCIATION OF DELAWARE,510065748,Human Services,100 W 10TH ST STE 1100,WILMINGTON,DE,19801-6607,,"Human Services organization in WILMINGTON, DE with annual revenue of approximately $56M",
YOUNG MENS CHRISTIAN ASSOCIATION OF GREATER RICHMOND,540505986,Human Services,201 W 7TH ST STE 101,RICHMOND,VA,23224-2399,,"Human Services organization in RICHMOND, VA with annual revenue of approximately $56M",
MEMORIAL MEDICAL CENTER LIVINGSTON,760436439,Health,602 EAST CHURCH,LIVINGSTON,TX,77351-6043,,"Health organization in LIVINGSTON, TX with annual revenue of approximately $56M",
THE BELLEVUE HOSPITAL,344428205,Health,1400 W MAIN ST,BELLEVUE,OH,44811-9088,,"Health organization in BELLEVUE, OH with annual revenue of approximately $56M",
FOUNDATION FOR GROSSMONT AND CUYAMACA COLLEGES,330905402,Education,8800 GROSSMONT COLLEGE DR,EL CAJON,CA,92020-1765,,"Education organization in EL CAJON, CA with annual revenue of approximately $56M",
CENTRAL METHODIST UNIVERSITY,430654854,Education,411 CENTRAL METHODIST SQUARE,FAYETTE,MO,65248-1104,,"Education organization in FAYETTE, MO with annual revenue of approximately $56M",
ROBERT LOUIS STEVENSON SCHOOL,941218745,Education,3152 FOREST LAKE RD,PEBBLE BEACH,CA,93953-3200,,"Education organization in PEBBLE BEACH, CA with annual revenue of approximately $56M",
CAR DONATION FOUNDATION,263408048,Community,5775 WAYZATA BLVD SUITE 765,ST LOUIS PARK,MN,55416-1222,,"Community organization in ST LOUIS PARK, MN with annual revenue of approximately $56M",
KAWERAK INC,920047009,Other,500 SEPPALA DRIVE,NOME,AK,99762-0000,,"Other organization in NOME, AK with annual revenue of approximately $56M",
CHOC FOUNDATION,956097416,Health,1201 W LA VETA AVE,ORANGE,CA,92868-4203,,"Health organization in ORANGE, CA with annual revenue of approximately $56M",
SUNCOAST COMMUNITY HEALTH CENTERS INC,591741303,Other,13110 ELK MOUNTAIN DR,RIVERVIEW,FL,33579-7182,,"Other organization in RIVERVIEW, FL with annual revenue of approximately $56M",
SCHOOLCRAFT MEMORIAL HOSPITAL,742517055,Health,7870 W US HWY 2,MANISTIQUE,MI,49854-0000,,"Health organization in MANISTIQUE, MI with annual revenue of approximately $56M",
POLYTECHNIC SCHOOL,951641456,Education,1030 E CALIFORNIA BLVD,PASADENA,CA,91106-4042,,"Education organization in PASADENA, CA with annual revenue of approximately $56M",
TRUE NORTH ROCHESTER PREPARATORYCHARTER SCHOOL,205060104,Education,100 CHURCH STREET 9TH FLOOR,NEW YORK,NY,10007-2650,,"Education organization in NEW YORK, NY with annual revenue of approximately $56M",
FARMERS UNION HOSPITAL ASSOCIATION,730579295,Health,PO BOX 2339,ELK CITY,OK,73648-2339,,"Health organization in ELK CITY, OK with annual revenue of approximately $56M",
COUNCIL FOR JEWISH ELDERLY,362727597,Human Services,3003 W TOUHY AVE,CHICAGO,IL,60645-2833,,"Human Services organization in CHICAGO, IL with annual revenue of approximately $56M",
HABITAT FOR HUMANITY INTERNATIONAL INC,363363171,Other,1954 UNIVERSITY AVE W,SAINT PAUL,MN,55104-3426,,"Other organization in SAINT PAUL, MN with annual revenue of approximately $56M",
DAVE THOMAS FOUNDATION FOR ADOPTION,311356151,Other,4900 TUTTLE CROSSING BLVD,DUBLIN,OH,43016-1532,,"Other organization in DUBLIN, OH with annual revenue of approximately $56M",
COVENANT HOSPICE INC,592208300,Human Services,5101 N 12TH AVENUE,PENSACOLA,FL,32504-8928,,"Human Services organization in PENSACOLA, FL with annual revenue of approximately $56M",
AMERICAN ASSOCIATION OF MOTOR VEHICLE ADMINISTRATORS,530172317,Community,4401 WILSON BLVD STE 700,ARLINGTON,VA,22203-4195,,"Community organization in ARLINGTON, VA with annual revenue of approximately $56M",
EDEN HOUSING INC,231716750,Human Services,22645 GRAND ST,HAYWARD,CA,94541-5031,,"Human Services organization in HAYWARD, CA with annual revenue of approximately $56M",
CITIZENS OF THE WORLD CHARTER SCHOOLS - LOS ANGELES,453532127,Education,2301 BEVERLY BLVD,LOS ANGELES,CA,90057-2209,,"Education organization in LOS ANGELES, CA with annual revenue of approximately $56M",
EMPOWER ILLINOIS,272479414,Education,PO BOX 7,HIGHLAND PARK,IL,60035-0007,,"Education organization in HIGHLAND PARK, IL with annual revenue of approximately $56M",
UNITED PHYSICIANS CARE INC,550638563,Health,686 S PIKE STREET A,SHINNSTON,WV,26431-1043,,"Health organization in SHINNSTON, WV with annual revenue of approximately $56M",
TRILOGY INC,362795409,Other,1400 W GREENLEAF AVE,CHICAGO,IL,60626-2805,,"Other organization in CHICAGO, IL with annual revenue of approximately $56M",
CENTER FOR DISABILITY RIGHTS INC,223141275,Religion,497 STATE ST,ROCHESTER,NY,14608-1642,,"Religion organization in ROCHESTER, NY with annual revenue of approximately $56M",
FOODBANK OF SOUTHEASTERN VIRGINIA,521219783,Human Services,800 TIDEWATER DR,NORFOLK,VA,23504-3326,,"Human Services organization in NORFOLK, VA with annual revenue of approximately $56M",
HEIDELBERG UNIVERSITY,344428219,Education,310 E MARKET ST,TIFFIN,OH,44883-2434,,"Education organization in TIFFIN, OH with annual revenue of approximately $56M",
HEALTH CHOICE NETWORK OF FLORIDA INC,650504316,Health,9064 NW 13TH TER,DORAL,FL,33172-2907,,"Health organization in DORAL, FL with annual revenue of approximately $56M",
PARA LOS NINOS,953443276,Human Services,5000 HOLLYWOOD BLVD,LOS ANGELES,CA,90027-6104,,"Human Services organization in LOS ANGELES, CA with annual revenue of approximately $56M",
ST VINCENT DE PAUL SOCIETY OF LANE COUNTY INC,930454786,Human Services,2890 CHAD DR,EUGENE,OR,97408-7336,,"Human Services organization in EUGENE, OR with annual revenue of approximately $56M",
OPTIMUS HEALTH CARE INC,060972166,Health,982 E MAIN ST,BRIDGEPORT,CT,06608-1913,,"Health organization in BRIDGEPORT, CT with annual revenue of approximately $55M",
POLK MEDICAL CENTER INC,453957368,Health,420 E 2ND AVE STE 102,ROME,GA,30161-3210,,"Health organization in ROME, GA with annual revenue of approximately $55M",
MUSEUM OF THE BIBLE INC,273444987,Other,7507 SW 44TH ST,OKLAHOMA CITY,OK,73179-4312,,"Other organization in OKLAHOMA CITY, OK with annual revenue of approximately $55M",
QUALITY DEVELOPMENT AND CONSTRUCTION INC,460815785,Human Services,17701 COWAN STE 200,IRVINE,CA,92614-6840,,"Human Services organization in IRVINE, CA with annual revenue of approximately $55M",
NORTH MISSISSIPPI MEDICAL CLINICS,640787918,Health,830 S GLOSTER ST,TUPELO,MS,38801-4934,,"Health organization in TUPELO, MS with annual revenue of approximately $55M",
PENINSULA COMMUNITY HEALTH SERVICES,943079770,Health,PO BOX 960,BREMERTON,WA,98337-0212,,"Health organization in BREMERTON, WA with annual revenue of approximately $55M",
ACADEMIR CHARTER SCHOOLS INC,271986282,Education,5420 SW 157TH AVE STE 5,MIAMI,FL,33185-5349,,"Education organization in MIAMI, FL with annual revenue of approximately $55M",
UNIVERSITY OF CHATTANOOGA FOUNDATION INC,620476521,Education,615 MCCALLIE AVENUE DEPT 6806,CHATTANOOGA,TN,37403-2504,,"Education organization in CHATTANOOGA, TN with annual revenue of approximately $55M",
PARKINSONS FOUNDATION INC,131866796,Health,1359 BROADWAY RM 1509,NEW YORK,NY,10018-7867,,"Health organization in NEW YORK, NY with annual revenue of approximately $55M",
DKMS,200989212,Health,40 FULTON ST FL 26,NEW YORK,NY,10038-5007,,"Health organization in NEW YORK, NY with annual revenue of approximately $55M",
TMF HEALTH QUALITY INSTITUTE,521002260,Health,3107 OAK CREEK DR STE 200,AUSTIN,TX,78727-3107,,"Health organization in AUSTIN, TX with annual revenue of approximately $55M",
NYSARC INC,160769044,Human Services,30 WILSON RD,WILLIAMSVILLE,NY,14221-7026,,"Human Services organization in WILLIAMSVILLE, NY with annual revenue of approximately $55M",
FIRSTLINE SCHOOLS INC,721409800,Education,300 N BROAD ST STE 207,NEW ORLEANS,LA,70119-5578,,"Education organization in NEW ORLEANS, LA with annual revenue of approximately $55M",
CENTERBOARD INC,043019658,Other,16 CITY HALL SQ,LYNN,MA,01901-1003,,"Other organization in LYNN, MA with annual revenue of approximately $55M",
BRECK SCHOOL,410693894,Education,123 OTTAWA AVE N,MINNEAPOLIS,MN,55422-5124,,"Education organization in MINNEAPOLIS, MN with annual revenue of approximately $55M",
UNIVERSITY OF NEVADA LAS VEGAS FOUNDATION,942790134,Education,4505 S MARYLAND PARKWAY BOX 451006,LAS VEGAS,NV,89154-9900,,"Education organization in LAS VEGAS, NV with annual revenue of approximately $55M",
INNER CITY EDUCATION FOUNDATION,954548521,Education,3855 W SLAUSON AVE,LOS ANGELES,CA,90043-2947,,"Education organization in LOS ANGELES, CA with annual revenue of approximately $55M",
GRANITE MOUNTAIN CHARTER SCHOOL,833660999,Education,8560 ALIENTO RD,LUCERNE VLY,CA,92356-8133,,"Education organization in LUCERNE VLY, CA with annual revenue of approximately $55M",
CURE INTERNATIONAL INC,582248383,International,70 IONIA AVE SW STE 200,GRAND RAPIDS,MI,49503-5139,,"International organization in GRAND RAPIDS, MI with annual revenue of approximately $55M",
COMMUNITY OF HOPE INC,521184749,Community,4 ATLANTIC ST SW,WASHINGTON,DC,20032-2350,,"Community organization in WASHINGTON, DC with annual revenue of approximately $55M",
NORTHWEST JUSTICE PROJECT,911687791,Human Services,401 2ND AVE S STE 407,SEATTLE,WA,98104-3811,,"Human Services organization in SEATTLE, WA with annual revenue of approximately $55M",
GOVERNOR DUMMER ACADEMY,042103564,Education,1 ELM ST UNIT 99,BYFIELD,MA,01922-2716,,"Education organization in BYFIELD, MA with annual revenue of approximately $55M",
TRINITY MEDICAL WNY PC,272576645,Health,144 GENESEE STREET,BUFFALO,NY,14203-1560,,"Health organization in BUFFALO, NY with annual revenue of approximately $55M",
CIRCLES OF CARE INC,591101553,Health,400 EAST SHERIDAN ROAD,MELBOURNE,FL,32901-0000,,"Health organization in MELBOURNE, FL with annual revenue of approximately $55M",
THE COLORADO MUSEUM OF NATURAL HISTORY,840518447,Arts & Culture,2001 COLORADO BOULEVARD,DENVER,CO,80205-5732,,"Arts & Culture organization in DENVER, CO with annual revenue of approximately $55M",
MIDPEN HOUSING CORPORATION,237089977,Human Services,303 VINTAGE PARK DR STE 250,FOSTER CITY,CA,94404-1176,,"Human Services organization in FOSTER CITY, CA with annual revenue of approximately $55M",
FRASER CHILD AND FAMILY CENTER,411781580,Health,2400 W 64TH ST,RICHFIELD,MN,55423-1001,,"Health organization in RICHFIELD, MN with annual revenue of approximately $55M",
NEVADA DONOR NETWORK INC,880253675,Health,2061 E SAHARA AVE,LAS VEGAS,NV,89104-3829,,"Health organization in LAS VEGAS, NV with annual revenue of approximately $55M",
CHARLOTTE LATIN SCHOOLS INC,560944449,Education,9502 PROVIDENCE RD,CHARLOTTE,NC,28277-8695,,"Education organization in CHARLOTTE, NC with annual revenue of approximately $55M",
