name,ein,category,address,city,state,zip_code,website,description,phone
HOWARDCENTER INC,030179433,Human Services,102 S WINOOSKI AVE,BURLINGTON,VT,05401-7406,,"Human Services organization in BURLINGTON, VT with annual revenue of approximately $136M",
HOSPITAL FOR SPECIAL CARE,060646766,Health,2150 CORBIN AVE,NEW BRITAIN,CT,06053-2266,,"Health organization in NEW BRITAIN, CT with annual revenue of approximately $136M",
NORTHWESTERN MEDICAL CENTER INC,030266986,Health,133 FAIRFIELD ST,ST ALBANS,VT,05478-1726,,"Health organization in ST ALBANS, VT with annual revenue of approximately $135M",
DCI DONOR SERVICES INC,581990866,Health,566 MAINSTREAM DR STE 300,NASHVILLE,TN,37228-1234,,"Health organization in NASHVILLE, TN with annual revenue of approximately $135M",
UNITED MOVEMENT INC,383862033,Human Services,1010 N MAIN ST,LAS VEGAS,NV,89101-1011,,"Human Services organization in LAS VEGAS, NV with annual revenue of approximately $135M",
COGNIA INC,208613765,Education,9115 WESTSIDE PKWY,ALPHARETTA,GA,30009-8000,,"Education organization in ALPHARETTA, GA with annual revenue of approximately $135M",
ABODE SERVICES,943087060,Human Services,40849 FREMONT BLVD,FREMONT,CA,94538-4306,,"Human Services organization in FREMONT, CA with annual revenue of approximately $135M",
TEXAS HEALTH PRESBYTERIAN HOSPITAL ALLEN,752890358,Health,1105 CENTRAL EXPRESSWAY NORTH,ALLEN,TX,75013-6103,,"Health organization in ALLEN, TX with annual revenue of approximately $135M",
UNIVERSITY OF ST THOMAS,741277664,Education,3800 MONTROSE BLVD,HOUSTON,TX,77006-4626,,"Education organization in HOUSTON, TX with annual revenue of approximately $135M",
EMMA L BIXBY MEDICAL CENTER,382796005,Health,100 MADISON AVE,TOLEDO,OH,43604-1516,,"Health organization in TOLEDO, OH with annual revenue of approximately $135M",
ROPER ST FRANCIS HOSPITAL-BERKELEY INC,263710229,Health,100 CALLEN BLVD,SUMMERVILLE,SC,29486-2807,,"Health organization in SUMMERVILLE, SC with annual revenue of approximately $135M",
LMW HEALTHCARE INC,460543230,Health,365 MONTAUK AVE,NEW LONDON,CT,06320-4700,,"Health organization in NEW LONDON, CT with annual revenue of approximately $135M",
AMERICAN MUSICAL & DRAMATIC ACADEMY,132501829,Other,211 W 61ST STREET,NEW YORK,NY,10023-7832,,"Other organization in NEW YORK, NY with annual revenue of approximately $135M",
ST JOHN HEALTH SYSTEM INC,731215174,Health,PO BOX 45998,SAINT LOUIS,MO,63145-5998,,"Health organization in SAINT LOUIS, MO with annual revenue of approximately $135M",
SOUTHEASTERN UNIVERSITY INC,590722789,Education,1000 LONGFELLOW BLVD,LAKELAND,FL,33801-6034,,"Education organization in LAKELAND, FL with annual revenue of approximately $135M",
QUEEN EMMA LAND COMPANY,990183769,Health,1301 PUNCHBOWL ST,HONOLULU,HI,96813-2413,,"Health organization in HONOLULU, HI with annual revenue of approximately $135M",
MEMORIAL HEALTH PARTNERS FOUNDATION INC,030417049,Other,2525 DESALES AVE,CHATTANOOGA,TN,37404-1161,,"Other organization in CHATTANOOGA, TN with annual revenue of approximately $135M",
PEOPLE ACTING IN COMMUNITY ENDEAVORS INC,042777810,Other,166 WILLIAM ST,NEW BEDFORD,MA,02740-6022,,"Other organization in NEW BEDFORD, MA with annual revenue of approximately $135M",
NEW ENGLAND LIFE CARE INC,223195337,Other,45 CENTER STREET SUITE A,SCARBOROUGH,ME,04074-6503,,"Other organization in SCARBOROUGH, ME with annual revenue of approximately $135M",
CHRISTIAN & MISSIONARY ALLIANCE FOUNDATION INC,591166437,Human Services,15000 SHELL POINT BLVD STE 100,FORT MYERS,FL,33908-1657,,"Human Services organization in FORT MYERS, FL with annual revenue of approximately $135M",
GASTON FAMILY HEALTH SERVICES INC,581958398,Other,200 EAST SECOND AVE,GASTONIA,NC,28052-4358,,"Other organization in GASTONIA, NC with annual revenue of approximately $135M",
SCRIPPS COLLEGE,951664123,Education,1030 COLUMBIA AVE,CLAREMONT,CA,91711-3905,,"Education organization in CLAREMONT, CA with annual revenue of approximately $134M",
TARRANT AREA FOOD BANK,751822473,Other,2600 CULLEN ST,FORT WORTH,TX,76107-1302,,"Other organization in FORT WORTH, TX with annual revenue of approximately $134M",
START EARLY,363186328,Other,33 W MONROE ST STE 1200,CHICAGO,IL,60603-5316,,"Other organization in CHICAGO, IL with annual revenue of approximately $134M",
NORTHWEST COMMUNITY HEALTHCARE,363125209,Health,3040 W SALT CREEK LN,ARLINGTON HTS,IL,60005-1069,,"Health organization in ARLINGTON HTS, IL with annual revenue of approximately $134M",
SAINT MARYS COLLEGE,350868158,Education,153 LE MANS HALL SAINT MARY S,NOTRE DAME,IN,46556-0000,,"Education organization in NOTRE DAME, IN with annual revenue of approximately $134M",
RANGE REGIONAL HEALTH SERVICES,411293970,Health,750 E 34TH ST,HIBBING,MN,55746-2341,,"Health organization in HIBBING, MN with annual revenue of approximately $134M",
KENNEDY MEDICAL GROUP PRACTICE PC,461420853,Health,500 MARLBORO AVE,CHERRY HILL,NJ,08002-2020,,"Health organization in CHERRY HILL, NJ with annual revenue of approximately $134M",
GRAHAM HOSPITAL ASSOCIATION,370673506,Health,210 W WALNUT ST,CANTON,IL,61520-2444,,"Health organization in CANTON, IL with annual revenue of approximately $134M",
SATELLITE HEALTHCARE INC,237290564,Health,860 HILLVIEW CT STE 250,MILPITAS,CA,95035-4571,,"Health organization in MILPITAS, CA with annual revenue of approximately $134M",
MARYLAND INSTITUTE,520591661,Education,1300 W MOUNT ROYAL AVE,BALTIMORE,MD,21217-4134,,"Education organization in BALTIMORE, MD with annual revenue of approximately $134M",
NCHMD INC,331075317,Health,PO BOX 413029,NAPLES,FL,34101-3029,,"Health organization in NAPLES, FL with annual revenue of approximately $134M",
IFF,363656836,Community,333 S WABASH AVE STE 2800,CHICAGO,IL,60604-4264,,"Community organization in CHICAGO, IL with annual revenue of approximately $134M",
ROBIN HOOD FOUNDATION,133441066,Community,826 BROADWAY FL 9,NEW YORK,NY,10003-4826,,"Community organization in NEW YORK, NY with annual revenue of approximately $134M",
GREATER DELAWARE VALLEY SOCIETY OF TRANSPLANT SURGEONS,237388767,Health,401 N 3RD STREET,PHILA,PA,19123-4106,,"Health organization in PHILA, PA with annual revenue of approximately $134M",
EMMANUEL COLLEGE,042105769,Education,400 THE FENWAY ADM 336,BOSTON,MA,02115-5725,,"Education organization in BOSTON, MA with annual revenue of approximately $134M",
CHILDRENS HOSPITAL OF WISCONSIN FOUNDATION INC,391500075,Health,PO BOX 1997,MILWAUKEE,WI,53201-1997,,"Health organization in MILWAUKEE, WI with annual revenue of approximately $134M",
CHILDRENS HUNGER FUND,954335462,International,13931 BALBOA BLVD,RNCH CASCADES,CA,91342-1084,,"International organization in RNCH CASCADES, CA with annual revenue of approximately $134M",
COMMUNITY MEDICAL CENTERS INC,942437106,Health,PO BOX 779,STOCKTON,CA,95201-0779,,"Health organization in STOCKTON, CA with annual revenue of approximately $134M",
FAMILY & CHILDRENS SERVICE INC,730580270,Human Services,5310 EAST 31ST STREET STE 800,TULSA,OK,74135-5012,,"Human Services organization in TULSA, OK with annual revenue of approximately $134M",
OLIVET NAZARENE UNIVERSITY,362191252,Education,1 UNIVERSITY AVE,BOURBONNAIS,IL,60914-2345,,"Education organization in BOURBONNAIS, IL with annual revenue of approximately $134M",
CENTER FOR EMPLOYMENT OPPORTUNITIES INC,133843322,Human Services,50 BROADWAY STE 1604,NEW YORK,NY,10004-3819,,"Human Services organization in NEW YORK, NY with annual revenue of approximately $134M",
THE HARKER SCHOOL,941613808,Education,4525 UNION AVE,SAN JOSE,CA,95124-3530,,"Education organization in SAN JOSE, CA with annual revenue of approximately $133M",
SACRED HEART HOSPITAL OF THE HOSPIT AL SISTERS-3RD ORDER OF ST FRANCIS,390807060,Health,4936 LAVERNA RD,SPRINGFIELD,IL,62707-9797,,"Health organization in SPRINGFIELD, IL with annual revenue of approximately $133M",
AGESPAN INC,042545136,Human Services,280 MERRIMACK ST STE 400,LAWRENCE,MA,01843-1787,,"Human Services organization in LAWRENCE, MA with annual revenue of approximately $133M",
FAMILY INITIATIVE INC,841880993,Human Services,618 COMMERCIAL STREET,EMPORIA,KS,66801-3969,,"Human Services organization in EMPORIA, KS with annual revenue of approximately $133M",
MERCY MEDICAL CENTER-CLINTON INC,421336618,Health,1410 N 4TH ST,CLINTON,IA,52732-2940,,"Health organization in CLINTON, IA with annual revenue of approximately $133M",
MID-OHIO FOODBANK,310865343,Other,3960 BROOKHAM DR,GROVE CITY,OH,43123-9741,,"Other organization in GROVE CITY, OH with annual revenue of approximately $133M",
HENDRICK MEDICAL CENTER BROWNWOOD,851941193,Health,1900 PINE ST,ABILENE,TX,79601-2432,,"Health organization in ABILENE, TX with annual revenue of approximately $133M",
IN TOUCH MINISTRIES INC,581495310,Religion,3836 DEKALB TECHNOLOGY PKWY,ATLANTA,GA,30340-3604,,"Religion organization in ATLANTA, GA with annual revenue of approximately $133M",
THE MIAMI FOUNDATION INC,650350357,Community,40 NW 3RD ST STE 305,MIAMI,FL,33128-1839,,"Community organization in MIAMI, FL with annual revenue of approximately $133M",
ACDI VOCA,520811461,International,50 F ST NW STE 1000,WASHINGTON,DC,20001-5853,,"International organization in WASHINGTON, DC with annual revenue of approximately $133M",
DEACONESS REGIONAL HEALTHCARE SERVICES ILLINOIS INC,810693478,Health,3333 W DEYOUNG ST,MARION,IL,62959-5884,,"Health organization in MARION, IL with annual revenue of approximately $133M",
U OF M REHAB & ORTHOPAEDIC INSTITUTE,520591639,Health,900 ELKRIDGE LANDING RD 3W,LINTHICUM HEIGHTS,MD,21090-2924,,"Health organization in LINTHICUM HEIGHTS, MD with annual revenue of approximately $133M",
SOUTH PENINSULA HOSPITAL INC,920037099,Health,4300 BARTLETT ST,HOMER,AK,99603-7005,,"Health organization in HOMER, AK with annual revenue of approximately $133M",
COVENANT LIVING WEST,953472345,Human Services,2550 TREASURE DR,SANTA BARBARA,CA,93105-4148,,"Human Services organization in SANTA BARBARA, CA with annual revenue of approximately $133M",
MOUNTAIN COMPREHENSIVE CARE CENTER INC,610663787,Health,104 S FRONT AVE,PRESTONSBURG,KY,41653-1614,,"Health organization in PRESTONSBURG, KY with annual revenue of approximately $132M",
FRANCISCAN COMMUNITIES INC,351124441,Other,11500 THERESA DR,LEMONT,IL,60439-2727,,"Other organization in LEMONT, IL with annual revenue of approximately $132M",
CAPITAL AREA FOOD BANK,521167581,Human Services,4900 PUERTO RICO AVE NE,WASHINGTON,DC,20017-2313,,"Human Services organization in WASHINGTON, DC with annual revenue of approximately $132M",
LIFELONG MEDICAL CARE,942502308,Health,PO BOX 11247,BERKELEY,CA,94712-2247,,"Health organization in BERKELEY, CA with annual revenue of approximately $132M",
ONEIDA HEALTHCARE SYSTEMS INC,161492011,Health,321 GENESEE ST,ONEIDA,NY,13421-2611,,"Health organization in ONEIDA, NY with annual revenue of approximately $132M",
CENTER FOR INTERNET SECURITY INC,522278213,Community,31 TECH VALLEY DR,E GREENBUSH,NY,12061-4134,,"Community organization in E GREENBUSH, NY with annual revenue of approximately $132M",
PHEASANTS FOREVER INC,411429149,Other,1783 BUERKLE CIR,SAINT PAUL,MN,55110-5254,,"Other organization in SAINT PAUL, MN with annual revenue of approximately $132M",
CENTRAL PENNSYLVANIA FOOD BANK,232202250,Human Services,3908 COREY RD,HARRISBURG,PA,17109-5929,,"Human Services organization in HARRISBURG, PA with annual revenue of approximately $132M",
ASCENSION HEALTH TEXAS,454364243,Health,PO BOX 45998,SAINT LOUIS,MO,63145-5998,,"Health organization in SAINT LOUIS, MO with annual revenue of approximately $132M",
GATES PHILANTHROPY PARTNERS,473290897,Community,PO BOX 23350,SEATTLE,WA,98102-0650,,"Community organization in SEATTLE, WA with annual revenue of approximately $132M",
REACH CYBER CHARTER SCHOOL,474968734,Education,1826 GOOD HOPE RD,ENOLA,PA,17025-1233,,"Education organization in ENOLA, PA with annual revenue of approximately $132M",
OKLAHOMA MEDICAL RESEARCH FOUNDATION,730580274,Health,825 NE 13TH ST,OKLAHOMA CITY,OK,73104-5005,,"Health organization in OKLAHOMA CITY, OK with annual revenue of approximately $132M",
ASHLAND UNIVERSITY,340714626,Education,401 COLLEGE AVE,ASHLAND,OH,44805-3702,,"Education organization in ASHLAND, OH with annual revenue of approximately $132M",
GOLETA VALLEY COTTAGE HOSPITAL,952413596,Health,400 W PUEBLO ST,SANTA BARBARA,CA,93105-4353,,"Health organization in SANTA BARBARA, CA with annual revenue of approximately $132M",
FOUNDATION FOR FOOD AND AGRICULTURE RESEARCH,471559027,Human Services,401 9TH ST NW STE 730,WASHINGTON,DC,20004-2328,,"Human Services organization in WASHINGTON, DC with annual revenue of approximately $132M",
OREGON FOOD BANK INC,930785786,Other,7900 NE 33RD DR,PORTLAND,OR,97211-1918,,"Other organization in PORTLAND, OR with annual revenue of approximately $132M",
LUTHER COLLEGE,420680466,Education,700 COLLEGE DR,DECORAH,IA,52101-1041,,"Education organization in DECORAH, IA with annual revenue of approximately $132M",
SAINT PETERS UNIVERSITY,221508627,Education,2641 KENNEDY BLVD,JERSEY CITY,NJ,07306-5943,,"Education organization in JERSEY CITY, NJ with annual revenue of approximately $132M",
WIKIMEDIA ENDOWMENT,873024488,Community,1 SANSOME ST STE 1895,SAN FRANCISCO,CA,94104-4432,,"Community organization in SAN FRANCISCO, CA with annual revenue of approximately $132M",
HARVARD MANAGEMENT COMPANY INC,237361259,Education,600 ATLANTIC AVENUE 15TH,BOSTON,MA,02210-2211,,"Education organization in BOSTON, MA with annual revenue of approximately $132M",
ST JOHNS COLLEGE,520591421,Education,60 COLLEGE AVE,ANNAPOLIS,MD,21401-1687,,"Education organization in ANNAPOLIS, MD with annual revenue of approximately $131M",
COMMUNITY HOSPICE OF NORTHEAST FLORIDA INC,591940256,Human Services,4266 SUNBEAM RD,JACKSONVILLE,FL,32257-6030,,"Human Services organization in JACKSONVILLE, FL with annual revenue of approximately $131M",
SAC HEALTH SYSTEM,330664371,Health,250 S G ST,SN BERNRDNO,CA,92410-3320,,"Health organization in SN BERNRDNO, CA with annual revenue of approximately $131M",
UPMC,820844453,Health,600 GRANT ST 58TH FL,PITTSBURGH,PA,15219-2739,,"Health organization in PITTSBURGH, PA with annual revenue of approximately $131M",
LAKELAND REGIONAL HEALTH SYSTEMS INC,592650464,Health,1324 LAKELAND HILLS BLVD,LAKELAND,FL,33805-4543,,"Health organization in LAKELAND, FL with annual revenue of approximately $131M",
NORTHEASTERN VERMONT REGIONAL HOSPITAL INC,036013761,Health,PO BOX 905,ST JOHNSBURY,VT,05819-0905,,"Health organization in ST JOHNSBURY, VT with annual revenue of approximately $131M",
THE CHILDRENS CENTER INC,730580264,Health,6800 NW 39TH EXPY,BETHANY,OK,73008-2513,,"Health organization in BETHANY, OK with annual revenue of approximately $131M",
ROBERT W WOODRUFF ARTS CENTER INC,580633971,Arts & Culture,1280 PEACHTREE ST NE,ATLANTA,GA,30309-3502,,"Arts & Culture organization in ATLANTA, GA with annual revenue of approximately $131M",
TRI-STATE MEMORIAL HOSPITAL,910545036,Health,1221 HIGHLAND AVE,CLARKSTON,WA,99403-2829,,"Health organization in CLARKSTON, WA with annual revenue of approximately $131M",
COMMUNITY HEALTH PROJECT INC,133409680,Health,356 W 18TH ST,NEW YORK,NY,10011-4401,,"Health organization in NEW YORK, NY with annual revenue of approximately $131M",
ST MARYS HOSPITAL,370662580,Health,12800 CORPORATE HILL DR,SAINT LOUIS,MO,63131-1833,,"Health organization in SAINT LOUIS, MO with annual revenue of approximately $131M",
POINT PARK UNIVERSITY,251094922,Other,201 WOOD ST,PITTSBURGH,PA,15222-1912,,"Other organization in PITTSBURGH, PA with annual revenue of approximately $131M",
TEXAS CHILDRENS HEALTH PLAN THE CENTER,461392824,Health,6330 WEST LOOP S STE 800,BELLAIRE,TX,77401-2922,,"Health organization in BELLAIRE, TX with annual revenue of approximately $131M",
COREWELL HEALTH,822784244,Health,100 MICHIGAN ST NE,GRAND RAPIDS,MI,49503-2560,,"Health organization in GRAND RAPIDS, MI with annual revenue of approximately $131M",
HOLZER HEALTH SYSTEM,311156690,Health,100 JACKSON PIKE,GALLIPOLIS,OH,45631-1560,,"Health organization in GALLIPOLIS, OH with annual revenue of approximately $131M",
PAN AMERICAN DEVELOPMENT FOUNDATION INC,526054268,International,1889 F STREET NW 2ND FLOOR,WASHINGTON,DC,20006-4401,,"International organization in WASHINGTON, DC with annual revenue of approximately $131M",
RESOURCES LEGACY FUND,954703838,Environment,400 CAPITOL MALL STE 2150,SACRAMENTO,CA,95814-4424,,"Environment organization in SACRAMENTO, CA with annual revenue of approximately $131M",
MAKE- A- WISH FOUNDATION OF AMERICA,860481941,Other,1702 E HIGHLAND AVE STE 400,PHOENIX,AZ,85016-4630,,"Other organization in PHOENIX, AZ with annual revenue of approximately $130M",
MISERICORDIA HOME,362170153,Human Services,6300 N RIDGE AVE,CHICAGO,IL,60660-1017,,"Human Services organization in CHICAGO, IL with annual revenue of approximately $130M",
THE ALAMEDA COUNTY COMMUNITY FOOD BANK INC,942960297,Other,PO BOX 2599,OAKLAND,CA,94614-0599,,"Other organization in OAKLAND, CA with annual revenue of approximately $130M",
NORTH COUNTY HEALTH PROJECT INC,952847102,Other,150 VALPREDA RD,SAN MARCOS,CA,92069-2973,,"Other organization in SAN MARCOS, CA with annual revenue of approximately $130M",
SEALY & SMITH FOUNDATION,741109652,Health,2200 MARKET ST STE 500,GALVESTON,TX,77550-1532,,"Health organization in GALVESTON, TX with annual revenue of approximately $130M",
GIFT OF HOPE ORGAN & TISSUE DONOR NETWORK,363516431,Health,425 SPRING LAKE DR,ITASCA,IL,60143-2076,,"Health organization in ITASCA, IL with annual revenue of approximately $130M",
AUSTIN COLLEGE,750827409,Education,900 N GRAND AVENUE SUITE 6F,SHERMAN,TX,75090-4440,,"Education organization in SHERMAN, TX with annual revenue of approximately $130M",
THE COLBURN SCHOOL,952501387,Arts & Culture,200 S GRAND AVE,LOS ANGELES,CA,90012-3007,,"Arts & Culture organization in LOS ANGELES, CA with annual revenue of approximately $130M",
EMANATE HEALTH FOOTHILL PRESBYTERIAN HOSPITAL,952413054,Health,250 S GRAND AVE,GLENDORA,CA,91741-4218,,"Health organization in GLENDORA, CA with annual revenue of approximately $130M",
HARNETT HEALTH SYSTEM INC,560603898,Health,PO BOX 1706,DUNN,NC,28335-1706,,"Health organization in DUNN, NC with annual revenue of approximately $130M",
BOYS & GIRLS CLUBS OF AMERICA,912117699,Other,1275 PEACHTREE ST NE,ATLANTA,GA,30309-3580,,"Other organization in ATLANTA, GA with annual revenue of approximately $130M",
SAN LUIS VALLEY REGIONAL MEDICAL CENTER,840255530,Health,106 BLANCA AVE,ALAMOSA,CO,81101-2340,,"Health organization in ALAMOSA, CO with annual revenue of approximately $130M",
SAINT XAVIER UNIVERSITY,362177133,Education,3700 W 103RD ST,CHICAGO,IL,60655-3105,,"Education organization in CHICAGO, IL with annual revenue of approximately $130M",
ROOSEVELT UNIVERSITY,362167854,Other,430 S MICHIGAN AVE,CHICAGO,IL,60605-1315,,"Other organization in CHICAGO, IL with annual revenue of approximately $130M",
UNIVERSITY OF MOUNT SAINT VINCENT,131740445,Education,6301 RIVERDALE AVE,RIVERDALE,NY,10471-1046,,"Education organization in RIVERDALE, NY with annual revenue of approximately $130M",
PINE CREST PREPARATORY SCHOOL INC,590861374,Education,1501 NE 62ND ST,FT LAUDERDALE,FL,33334-5116,,"Education organization in FT LAUDERDALE, FL with annual revenue of approximately $130M",
MC DANIEL COLLEGE INC,520591694,Education,2 COLLEGE HL,WESTMINSTER,MD,21157-4390,,"Education organization in WESTMINSTER, MD with annual revenue of approximately $130M",
CHILDREN INTERNATIONAL,446005794,International,2000 E RED BRIDGE RD,KANSAS CITY,MO,64131-3610,,"International organization in KANSAS CITY, MO with annual revenue of approximately $130M",
SOUTHWESTERN UNIVERSITY,741233796,Education,1001 E UNIVERSITY AVE,GEORGETOWN,TX,78626-6100,,"Education organization in GEORGETOWN, TX with annual revenue of approximately $129M",
MOUNT NITTANY MEDICAL CENTER HEALTH SERVICES INC,510426500,Health,155 WELLNESS WAY,STATE COLLEGE,PA,16803-6702,,"Health organization in STATE COLLEGE, PA with annual revenue of approximately $129M",
SAINT MARYS UNIVERSITY,981358092,Education,HALIFAX NOVA SCOTIA B3H 3C3,CANADA,,00000-0000,,"Education organization in CANADA,  with annual revenue of approximately $129M",
WAY FINDERS INC,042518368,Human Services,1780 MAIN ST,SPRINGFIELD,MA,01103-1000,,"Human Services organization in SPRINGFIELD, MA with annual revenue of approximately $129M",
INTERNATIONAL AIDS VACCINE INITIATIVE INC,133870223,International,125 BROAD STREET 9TH FLOOR,NEW YORK,NY,10004-2743,,"International organization in NEW YORK, NY with annual revenue of approximately $129M",
LYRASIS,231365979,Education,3390 PEACHTREE RD NE STE 400,ATLANTA,GA,30326-1108,,"Education organization in ATLANTA, GA with annual revenue of approximately $129M",
MUNSON HEALTHCARE OTSEGO MEMORIAL HOSPITAL,381303843,Health,1105 SIXTH ST,TRAVERSE CITY,MI,49684-2345,,"Health organization in TRAVERSE CITY, MI with annual revenue of approximately $129M",
INSIGHT CHICAGO INC,862358048,Health,4800 S SAGINAW ST STE 1800,FLINT,MI,48507-2677,,"Health organization in FLINT, MI with annual revenue of approximately $129M",
CHICAGO CHARTER SCHOOL FOUNDATION,364141583,Education,11 E ADAMS ST STE 600,CHICAGO,IL,60603-6330,,"Education organization in CHICAGO, IL with annual revenue of approximately $129M",
BROOKLYN NAVY YARD DEVELOPMENT CORPORATION,112137138,Community,141 FLUSHING AVENUE SUITE 801,BROOKLYN,NY,11205-1338,,"Community organization in BROOKLYN, NY with annual revenue of approximately $129M",
ESKATON PROPERTIES INCORPORATED,942906316,Human Services,5105 MANZANITA AVE,CARMICHAEL,CA,95608-0523,,"Human Services organization in CARMICHAEL, CA with annual revenue of approximately $129M",
BRAVERHOOD LTD,204157876,Education,1527 60TH ST,BROOKLYN,NY,11219-5023,,"Education organization in BROOKLYN, NY with annual revenue of approximately $129M",
QUALTEX LABORATORIES,208429619,Health,6211 IH 10 WEST,SAN ANTONIO,TX,78201-2023,,"Health organization in SAN ANTONIO, TX with annual revenue of approximately $129M",
THE NEIGHBORHOOD HOUSE ASSN,951648184,Human Services,5660 COPLEY DR,SAN DIEGO,CA,92111-7902,,"Human Services organization in SAN DIEGO, CA with annual revenue of approximately $129M",
THE METHUSELAH FOUNDATION,542040344,Community,8021 FLINT ST,SPRINGFIELD,VA,22153-2438,,"Community organization in SPRINGFIELD, VA with annual revenue of approximately $129M",
ETHICAL CULTURE FIELDSTON SCHOOL,133862529,Education,33 CENTRAL PARK W,NEW YORK,NY,10023-6001,,"Education organization in NEW YORK, NY with annual revenue of approximately $129M",
KIPP METRO ATLANTA COLLABORATIVE INC,113723114,Education,1445 MAYNARD RD NW,ATLANTA,GA,30331-1109,,"Education organization in ATLANTA, GA with annual revenue of approximately $129M",
LOW INCOME HOUSING INSTITUTE,943155150,Other,1253 S JACKSON ST STE A,SEATTLE,WA,98144-3075,,"Other organization in SEATTLE, WA with annual revenue of approximately $129M",
NEW ENGLAND CENTER FOR CHILDREN INC,042708762,Other,33 TURNPIKE RD,SOUTHBOROUGH,MA,01772-2108,,"Other organization in SOUTHBOROUGH, MA with annual revenue of approximately $129M",
MOUNTAIN AREA HEALTH EDUCATION CENTER INC,561071426,Education,121 HENDERSONVILLE RD,ASHEVILLE,NC,28803-2868,,"Education organization in ASHEVILLE, NC with annual revenue of approximately $129M",
CLEVELAND MUSEUM OF ART,340714336,Arts & Culture,11150 EAST BLVD,CLEVELAND,OH,44106-1711,,"Arts & Culture organization in CLEVELAND, OH with annual revenue of approximately $129M",
SOUTHERN POVERTY LAW CENTER INC,630598743,Human Services,400 WASHINGTON AVE,MONTGOMERY,AL,36104-4344,,"Human Services organization in MONTGOMERY, AL with annual revenue of approximately $129M",
METHODIST PRIMARY CARE GROUP,760556120,Community,6565 FANNIN ST GB240,HOUSTON,TX,77030-2703,,"Community organization in HOUSTON, TX with annual revenue of approximately $129M",
COUNCIL ON AGING OF SOUTHWESTERN OHIO,310807186,Human Services,4601 MALSBARY RD,BLUE ASH,OH,45242-5632,,"Human Services organization in BLUE ASH, OH with annual revenue of approximately $128M",
SUNNYSIDE COMMUNITY HOSPITAL ASSOCIATION,911286274,Health,PO BOX 719,SUNNYSIDE,WA,98944-0719,,"Health organization in SUNNYSIDE, WA with annual revenue of approximately $128M",
HARDING UNIVERSITY,710236896,Other,915 E MARKET AVE HU10772,SEARCY,AR,72149-5615,,"Other organization in SEARCY, AR with annual revenue of approximately $128M",
ARKANSAS CHILDRENS NORTHWEST INC,810817660,Health,1 CHILDRENS WAY,LITTLE ROCK,AR,72202-3500,,"Health organization in LITTLE ROCK, AR with annual revenue of approximately $128M",
UNIVERSITY IMPACT,821504018,Education,3507 N UNIVERSITY AVE STE 125,PROVO,UT,84604-6682,,"Education organization in PROVO, UT with annual revenue of approximately $128M",
DAY KIMBALL HEALTHCARE INC,060646599,Health,320 POMFRET ST,PUTNAM,CT,06260-1836,,"Health organization in PUTNAM, CT with annual revenue of approximately $128M",
LANGLADE HOSPITAL-HOTEL DIEU OF ST JOSEPH OF ANTIGO WISCONSIN,390806429,Health,112 E 5TH AVE,ANTIGO,WI,54409-2710,,"Health organization in ANTIGO, WI with annual revenue of approximately $128M",
PORTER HOSPITAL INC HCSR,030181058,Health,115 PORTER DR,MIDDLEBURY,VT,05753-8423,,"Health organization in MIDDLEBURY, VT with annual revenue of approximately $128M",
UNLIMITED DEVELOPMENT INC,364094409,Human Services,285 S FARNHAM ST,GALESBURG,IL,61401-5323,,"Human Services organization in GALESBURG, IL with annual revenue of approximately $128M",
VALLEY HEALTH SYSTEM INC,222922016,Health,4 VALLEY HEALTH PLZ,PARAMUS,NJ,07652-3619,,"Health organization in PARAMUS, NJ with annual revenue of approximately $128M",
NIAGARA FALLS MEMORIAL MEDICAL CENTER,160743094,Health,621 10TH ST,NIAGARA FALLS,NY,14301-1813,,"Health organization in NIAGARA FALLS, NY with annual revenue of approximately $128M",
SEATTLE PACIFIC UNIVERSITY,910565553,Education,3307 3RD AVE W,SEATTLE,WA,98119-1940,,"Education organization in SEATTLE, WA with annual revenue of approximately $128M",
ASPIRUS MEDICAL GROUP INC,391670223,Health,2200 WESTWOOD DR,WAUSAU,WI,54401-7806,,"Health organization in WAUSAU, WI with annual revenue of approximately $128M",
ARH MARY BRECKINRIDGE HEALTH SERVICES INC,452696517,Health,2260 EXECUTIVE DR,LEXINGTON,KY,40505-4808,,"Health organization in LEXINGTON, KY with annual revenue of approximately $128M",
COMMUNITY FOUNDATION FOR SOUTHEAST MICHIGAN,382530980,Community,333 W FORT ST STE 2010,DETROIT,MI,48226-3134,,"Community organization in DETROIT, MI with annual revenue of approximately $128M",
HEART SHARE HUMAN SERVICES OF NEW YORK,111633549,Human Services,330 JAY STREET 29TH FLOOR,BROOKLYN,NY,11201-2935,,"Human Services organization in BROOKLYN, NY with annual revenue of approximately $128M",
MCGAW MEDICAL CENTER OF NORTHWESTERN UNIVERSITY,362656113,Other,420 E SUPERIOR ST 9-900,CHICAGO,IL,60611-4494,,"Other organization in CHICAGO, IL with annual revenue of approximately $128M",
MONADNOCK COMMUNITY HOSPITAL,020222157,Health,452 OLD STREET RD,PETERBOROUGH,NH,03458-1263,,"Health organization in PETERBOROUGH, NH with annual revenue of approximately $128M",
HOSPITAL & MEDICAL FOUNDATION OF PARIS INC,370860281,Health,721 E COURT ST,PARIS,IL,61944-2460,,"Health organization in PARIS, IL with annual revenue of approximately $128M",
H E L P USA INC,911922828,Human Services,115 E 13TH ST,NEW YORK,NY,10003-5305,,"Human Services organization in NEW YORK, NY with annual revenue of approximately $127M",
URSINUS COLLEGE,231177930,Education,601 E MAIN ST,COLLEGEVILLE,PA,19426-2509,,"Education organization in COLLEGEVILLE, PA with annual revenue of approximately $127M",
MIND OC,823901590,Human Services,18650 MACARTHUR BLVD STE 350,IRVINE,CA,92612-1205,,"Human Services organization in IRVINE, CA with annual revenue of approximately $127M",
RISE INC,870454287,Human Services,4554 E INVERNESS AVE,MESA,AZ,85206-4639,,"Human Services organization in MESA, AZ with annual revenue of approximately $127M",
TEXAS MEDICAL CENTER,741030788,Health,2450 HOLCOMBE BLVD STE 1,HOUSTON,TX,77021-2040,,"Health organization in HOUSTON, TX with annual revenue of approximately $127M",
JUDICIAL WATCH INC,521885088,Community,425 3RD ST SW STE 800,WASHINGTON,DC,20024-3232,,"Community organization in WASHINGTON, DC with annual revenue of approximately $127M",
BRONXWORKS INC,133254484,Human Services,60 E TREMONT AVE,BRONX,NY,10453-5842,,"Human Services organization in BRONX, NY with annual revenue of approximately $127M",
FOUNDATION MEDICAL PARTNERS INC,020456218,Health,PO BOX 3410,NASHUA,NH,03061-3410,,"Health organization in NASHUA, NH with annual revenue of approximately $127M",
THE YOUNG MENS AND YOUNG WOMENS HEBREW ASSOCIATION,131624229,Religion,1395 LEXINGTON AVE,NEW YORK,NY,10128-1612,,"Religion organization in NEW YORK, NY with annual revenue of approximately $127M",
CALVARY HOSPITAL INC,131740274,Health,1740 EASTCHESTER RD,BRONX,NY,10461-2300,,"Health organization in BRONX, NY with annual revenue of approximately $127M",
MARYMOUNT UNIVERSITY,540573801,Other,2807 N GLEBE ROADBUSINESS OFFICE ST,ARLINGTON,VA,22207-0000,,"Other organization in ARLINGTON, VA with annual revenue of approximately $127M",
AIDS ARMS INC,752306145,Health,3900 JUNIUS ST STE 300,DALLAS,TX,75246-1602,,"Health organization in DALLAS, TX with annual revenue of approximately $127M",
MERIDIAN HEALTH SERVICES CORP,351302836,Health,240 N TILLOTSON AVE,MUNCIE,IN,47304-3988,,"Health organization in MUNCIE, IN with annual revenue of approximately $127M",
KIDANGO INC,942581686,Human Services,44000 OLD WARM SPRINGS BLVD,FREMONT,CA,94538-6145,,"Human Services organization in FREMONT, CA with annual revenue of approximately $127M",
ASSUMPTION UNIVERSITY,042105776,Education,500 SALISBURY STREET,WORCESTER,MA,01609-1265,,"Education organization in WORCESTER, MA with annual revenue of approximately $127M",
BETHEL UNIVERSITY,410708577,Education,3900 BETHEL DR,SAINT PAUL,MN,55112-6999,,"Education organization in SAINT PAUL, MN with annual revenue of approximately $127M",
THE WINIFRED MASTERSON BURKE REHABILITATION HOSPITAL,131739937,Health,785 MAMARONECK AVE,WHITE PLAINS,NY,10605-2523,,"Health organization in WHITE PLAINS, NY with annual revenue of approximately $127M",
GREAT PLAINS TRIBAL LEADERS HEALTH BOARD,460420063,Health,2611 ELDERBERRY BLVD,RAPID CITY,SD,57703-5970,,"Health organization in RAPID CITY, SD with annual revenue of approximately $127M",
UNIVERSITY OF MARY,450273403,Education,7500 UNIVERSITY DR,BISMARCK,ND,58504-9652,,"Education organization in BISMARCK, ND with annual revenue of approximately $127M",
INDEPENDENT SUPPORT SERVICES INC,050535944,Health,20 CRYSTAL STREET,MONTICELLO,NY,12701-1380,,"Health organization in MONTICELLO, NY with annual revenue of approximately $126M",
ADVENTIST GLENOAKS HOSPITAL,363208390,Other,701 WINTHROP AVE,GLENDALE HTS,IL,60139-1405,,"Other organization in GLENDALE HTS, IL with annual revenue of approximately $126M",
NEW YORK EYE & EAR INFIRMARY,135562304,Health,310 E 14TH ST,NEW YORK,NY,10003-4284,,"Health organization in NEW YORK, NY with annual revenue of approximately $126M",
SEATTLE CHILDRENS FOUNDATION,911156519,Other,PO BOX 5371,SEATTLE,WA,98145-5005,,"Other organization in SEATTLE, WA with annual revenue of approximately $126M",
MEMORIAL HOSPITAL,020222156,Health,3073 WHITE MOUNTAIN HWY,NORTH CONWAY,NH,03860-7101,,"Health organization in NORTH CONWAY, NH with annual revenue of approximately $126M",
PHOEBE SUMTER MEDICAL CENTER INC,263975185,Health,126 US HIGHWAY 280 W,AMERICUS,GA,31719-8645,,"Health organization in AMERICUS, GA with annual revenue of approximately $126M",
INTERNATIONAL REPUBLICAN INSTITUTE,521340267,Education,1225 I ST NW STE 800,WASHINGTON,DC,20005-5962,,"Education organization in WASHINGTON, DC with annual revenue of approximately $126M",
AMYOTROPHIC LATERAL SCLEROSIS ASSN,133271855,Health,1300 WILSON BLVD STE 600,ARLINGTON,VA,22209-2335,,"Health organization in ARLINGTON, VA with annual revenue of approximately $126M",
UNIVERSITY OF SOUTH FLORIDA FOUNDATION INC,590879015,Education,4202 EAST FOWLER AVENUE ALC 100,TAMPA,FL,33620-9951,,"Education organization in TAMPA, FL with annual revenue of approximately $126M",
BRONX PARENT HOUSING NETWORK INC,134100758,Human Services,488 E 164TH ST MANAGEMENT SUITE,BRONX,NY,10456-6620,,"Human Services organization in BRONX, NY with annual revenue of approximately $126M",
NAZARETH UNIVERSITY,160743088,Education,4245 EAST AVE,ROCHESTER,NY,14618-3703,,"Education organization in ROCHESTER, NY with annual revenue of approximately $126M",
SOLES 4 SOULS,204023482,Human Services,319 MARTINGALE DR,OLD HICKORY,TN,37138-3349,,"Human Services organization in OLD HICKORY, TN with annual revenue of approximately $126M",
ROADRUNNER FOOD BANK INC,850278525,Human Services,5840 OFFICE BLVD NE,ALBUQUERQUE,NM,87109-5819,,"Human Services organization in ALBUQUERQUE, NM with annual revenue of approximately $126M",
SALUD INTEGRAL EN LA MONTANA INC,660329532,Health,PO BOX 515,NARANJITO,PR,00719-0515,,"Health organization in NARANJITO, PR with annual revenue of approximately $126M",
WELLSPAN SURGERY AND REHABILITATION HOSPITAL,232899911,Health,PO BOX 2767,YORK,PA,17405-2767,,"Health organization in YORK, PA with annual revenue of approximately $125M",
RIVERSIDE COMMUNITY CARE INC,043097170,Health,270 BRIDGE ST STE 301,DEDHAM,MA,02026-1798,,"Health organization in DEDHAM, MA with annual revenue of approximately $125M",
ELIZABETH SETON PEDIATRIC CENTER,133398657,Other,300 CORPORATE BLVD S,YONKERS,NY,10701-6862,,"Other organization in YONKERS, NY with annual revenue of approximately $125M",
COLONIAL WILLIAMSBURG FOUNDATION,540505888,Arts & Culture,301 FIRST ST,WILLIAMSBURG,VA,23185-4306,,"Arts & Culture organization in WILLIAMSBURG, VA with annual revenue of approximately $125M",
GULF COAST REGIONAL BLOOD CENTER,741809687,Health,1400 LA CONCHA LN,HOUSTON,TX,77054-1802,,"Health organization in HOUSTON, TX with annual revenue of approximately $125M",
PRESBYTERIAN MEDICAL SERVICES,850206810,Health,1422 PASEO DE PERALTA,SANTA FE,NM,87501-4327,,"Health organization in SANTA FE, NM with annual revenue of approximately $125M",
RELIGIOUS AND CHARITABLE RISK POOLING TRUST OF THE BROTHERS OF,363094218,Religion,1205 WINDHAM PKWY,ROMEOVILLE,IL,60446-1672,,"Religion organization in ROMEOVILLE, IL with annual revenue of approximately $125M",
MAINSAIL HEALTH PARTNERS,844667819,Health,22 WESTEDGE ST STE 319,CHARLESTON,SC,29403-6983,,"Health organization in CHARLESTON, SC with annual revenue of approximately $125M",
CAPITAL REGION MEDICAL CENTER,440546366,Health,1125 MADISON ST,JEFFERSON CTY,MO,65101-5227,,"Health organization in JEFFERSON CTY, MO with annual revenue of approximately $125M",
UNIVERSITY OF CALIFORNIA IRVINE FOUNDATION,952540117,Education,111 THEORY STE 200,IRVINE,CA,92617-3001,,"Education organization in IRVINE, CA with annual revenue of approximately $125M",
WESTERN MICHIGAN UNIVERSITY HOMER STRYKER M D SCHOOL OF MEDICINE,454135256,Education,1000 OAKLAND DR,KALAMAZOO,MI,49008-1282,,"Education organization in KALAMAZOO, MI with annual revenue of approximately $125M",
COMPUNET CLINICAL LABORATORIES LLC,311258010,Other,2308 SANDRIDGE DR,MORAINE,OH,45439-1847,,"Other organization in MORAINE, OH with annual revenue of approximately $125M",
CHICAGO SYMPHONY ORCHESTRA,362167823,Arts & Culture,220 SOUTH MICHIGAN AVE,CHICAGO,IL,60604-2596,,"Arts & Culture organization in CHICAGO, IL with annual revenue of approximately $125M",
GOOD SHEPHERD SERVICES,135598710,Human Services,305 7TH AVENUE 9TH FLOOR,NEW YORK,NY,10001-6161,,"Human Services organization in NEW YORK, NY with annual revenue of approximately $125M",
BENEFIS HEALTH SYSTEM INC,263538104,Health,500 15TH AVE S,GREAT FALLS,MT,59405-4324,,"Health organization in GREAT FALLS, MT with annual revenue of approximately $125M",
MEMORIAL HERMANN PHARMACY SERVICES LLC,202184459,Health,929 GESSNER RD STE 1900,HOUSTON,TX,77024-2317,,"Health organization in HOUSTON, TX with annual revenue of approximately $125M",
WELIA HEALTH,845163224,Health,301 HIGHWAY 65 S,MORA,MN,55051-1899,,"Health organization in MORA, MN with annual revenue of approximately $125M",
UPSON COUNTY HOSPITAL INC,581734026,Health,PO BOX 1059,THOMASTON,GA,30286-0027,,"Health organization in THOMASTON, GA with annual revenue of approximately $125M",
NEIGHBORHOOD HOUSING SERVICES OF THE SOUTH SHORE INC,042732439,Human Services,422 WASHINGTON ST,QUINCY,MA,02169-5715,,"Human Services organization in QUINCY, MA with annual revenue of approximately $125M",
FULTON COUNTY HEALTH CENTER,344428214,Health,725 S SHOOP AVE,WAUSEON,OH,43567-1702,,"Health organization in WAUSEON, OH with annual revenue of approximately $125M",
CAL POLY CORPORATION,951648180,Education,1 GRAND AVE BLD 15,SAN LUIS OBISPO,CA,93407-9000,,"Education organization in SAN LUIS OBISPO, CA with annual revenue of approximately $124M",
SAINT MARYS HOSPITAL FOR CHILDREN INC,111679599,Health,2901 216TH ST,BAYSIDE,NY,11360-2810,,"Health organization in BAYSIDE, NY with annual revenue of approximately $124M",
ACERO CHARTER SCHOOLS INC,364235934,Other,18 S MICHIGAN AVE,CHICAGO,IL,60603-3200,,"Other organization in CHICAGO, IL with annual revenue of approximately $124M",
FRANKLIN PIERCE UNIVERSITY,020263136,Education,40 UNIVERSITY DR,RINDGE,NH,03461-5046,,"Education organization in RINDGE, NH with annual revenue of approximately $124M",
OMAHA COMMUNITY FOUNDATION,470645958,Community,1120 S 101ST ST STE 320,OMAHA,NE,68124-1088,,"Community organization in OMAHA, NE with annual revenue of approximately $124M",
THE COMMUNITY PRESERVATION CORPORATION,132792409,Community,220 EAST 42ND ST 16TH FL,NEW YORK,NY,10017-5823,,"Community organization in NEW YORK, NY with annual revenue of approximately $124M",
ST NORBERT COLLEGE INC,391399196,Education,100 GRANT ST,DE PERE,WI,54115-2002,,"Education organization in DE PERE, WI with annual revenue of approximately $124M",
URBAN INSTITUTE,520880375,Research,500 LENFANT PLAZA SW 2ND FLOOR,WASHINGTON,DC,20024-2274,,"Research organization in WASHINGTON, DC with annual revenue of approximately $124M",
WELLSTAR MCG HEALTH INC,272999718,Other,793 SAWYER RD,MARIETTA,GA,30062-2222,,"Other organization in MARIETTA, GA with annual revenue of approximately $124M",
PLANNED PARENTHOOD LOS ANGELES,952408623,Health,400 W 30TH ST,LOS ANGELES,CA,90007-3320,,"Health organization in LOS ANGELES, CA with annual revenue of approximately $124M",
ONELEGACY,953138799,Health,1303 W OPTICAL DR,IRWINDALE,CA,91702-3251,,"Health organization in IRWINDALE, CA with annual revenue of approximately $124M",
WMC-NEW YORK INC,134107864,Health,100 WOODS RD TAYLOR PAVILION M222,VALHALLA,NY,10595-1530,,"Health organization in VALHALLA, NY with annual revenue of approximately $124M",
POSITIVE IMPACT HEALTH CENTERS INC,581973324,Health,2800 CENTURY PKWY NE STE 550,ATLANTA,GA,30345-3161,,"Health organization in ATLANTA, GA with annual revenue of approximately $124M",
ASCENSION ST FRANCIS HOSPITAL INC,390907740,Health,PO BOX 45998,SAINT LOUIS,MO,63145-5998,,"Health organization in SAINT LOUIS, MO with annual revenue of approximately $124M",
NEW YORK COMMUNITY HOSPITAL OF BROOKLYN INC,111986351,Health,2525 KINGS HWY,BROOKLYN,NY,11229-1705,,"Health organization in BROOKLYN, NY with annual revenue of approximately $124M",
SOUTH SHORE HEALTH SYSTEM INC,042105926,Health,55 FOGG RD,S WEYMOUTH,MA,02190-2432,,"Health organization in S WEYMOUTH, MA with annual revenue of approximately $124M",
OAK RIDGE ASSOCIATED UNIVERSITIES INC,620476816,Other,PO BOX 117,OAK RIDGE,TN,37831-0117,,"Other organization in OAK RIDGE, TN with annual revenue of approximately $124M",
RIVER SPRINGS CHARTER SCHOOL INC,205069467,Education,27740 JEFFERSON AVE,TEMECULA,CA,92590-2638,,"Education organization in TEMECULA, CA with annual revenue of approximately $124M",
AMERICAN COLLEGE OF CARDIOLOGY FOUNDATION,135641985,Health,2400 N STREET NW,WASHINGTON,DC,20037-1153,,"Health organization in WASHINGTON, DC with annual revenue of approximately $124M",
CENTRAL CALIFORNIA FOOD BANK,770320851,Human Services,4010 E AMENDOLA DR,FRESNO,CA,93725-2335,,"Human Services organization in FRESNO, CA with annual revenue of approximately $124M",
WESTMONT COLLEGE,951684793,Education,955 LA PAZ RD,SANTA BARBARA,CA,93108-1023,,"Education organization in SANTA BARBARA, CA with annual revenue of approximately $124M",
THE UNIVERSITY OF BRIDGEPORT INC,861274088,Education,1 RIVERSIDE DR,EAST HARTFORD,CT,06118-1837,,"Education organization in EAST HARTFORD, CT with annual revenue of approximately $124M",
DOMINICAN UNIVERSITY,362167855,Education,7900 DIVISION ST,RIVER FOREST,IL,60305-1066,,"Education organization in RIVER FOREST, IL with annual revenue of approximately $123M",
NORTH CAROLINA PARTNERSHIP FOR CHILDREN INC,561850485,Education,1100 WAKE FOREST RD,RALEIGH,NC,27604-1354,,"Education organization in RALEIGH, NC with annual revenue of approximately $123M",
CALIFORNIA ONLINE PUBLIC SCHOOLS,510596749,Education,33272 VALLE RD,SAN JUAN CAPO,CA,92675-4842,,"Education organization in SAN JUAN CAPO, CA with annual revenue of approximately $123M",
INTERNEWS NETWORK,943027961,Arts & Culture,PO BOX 4448,ARCATA,CA,95518-4448,,"Arts & Culture organization in ARCATA, CA with annual revenue of approximately $123M",
WB COMMUNITY HEALTH,061494220,Education,2000 CHAPEL VIEW BLVD,CRANSTON,RI,02920-3078,,"Education organization in CRANSTON, RI with annual revenue of approximately $123M",
AUGUSTANA UNIVERSITY ASSOCIATION,460224588,Education,2001 S SUMMIT AVE,SIOUX FALLS,SD,57197-0001,,"Education organization in SIOUX FALLS, SD with annual revenue of approximately $123M",
NEW YORK MEDICAL COLLEGE,131099420,Other,40 SUNSHINE COTTAGE RD,VALHALLA,NY,10595-1524,,"Other organization in VALHALLA, NY with annual revenue of approximately $123M",
SVCMC INC,134077996,Health,530 7TH AVENUE,NEW YORK,NY,10018-4878,,"Health organization in NEW YORK, NY with annual revenue of approximately $123M",
BOWEN HEALTH INC,351057889,Health,PO BOX 497,WARSAW,IN,46581-0497,,"Health organization in WARSAW, IN with annual revenue of approximately $123M",
SPECTRUM HEALTH SYSTEMS INC,042478978,Health,10 MECHANIC ST STE 302,WORCESTER,MA,01608-2419,,"Health organization in WORCESTER, MA with annual revenue of approximately $123M",
BAY PARK COMMUNITY HOSPITAL,341883132,Health,100 MADISON AVE,TOLEDO,OH,43604-1516,,"Health organization in TOLEDO, OH with annual revenue of approximately $123M",
SEGERSTROM CENTER FOR THE ARTS,237287150,Arts & Culture,600 TOWN CENTER DR,COSTA MESA,CA,92626-1916,,"Arts & Culture organization in COSTA MESA, CA with annual revenue of approximately $123M",
SANFORD BURNHAM PREBYS MEDICAL DISCOVERY INSTITUTE,510197108,Health,10901 N TORREY PINES RD,LA JOLLA,CA,92037-1005,,"Health organization in LA JOLLA, CA with annual revenue of approximately $123M",
UNIVERSITY AT BUFFALO FOUNDATION INC,160865182,Education,PO BOX 900,BUFFALO,NY,14226-0900,,"Education organization in BUFFALO, NY with annual revenue of approximately $123M",
ST VINCENT HEALTH INC,352052591,Health,PO BOX 45998,SAINT LOUIS,MO,63145-5998,,"Health organization in SAINT LOUIS, MO with annual revenue of approximately $123M",
ST MARYS HOSPITAL DECATUR OF THE HOSPITAL SISTERS OF THE THIRD ORDE,370661244,Health,1800 E LAKE SHORE DR,DECATUR,IL,62521-3810,,"Health organization in DECATUR, IL with annual revenue of approximately $123M",
AMERICAN ASSOCIATION FOR THE ADVANCEMENT OF SCIENCE,530196568,Research,1200 NEW YORK AVE NW,WASHINGTON,DC,20005-3928,,"Research organization in WASHINGTON, DC with annual revenue of approximately $123M",
VERMONT ENERGY INVESTMENT CORP,030304418,Environment,20 WINOOSKI FALLSWAY 5TH,WINOOSKI,VT,05404-0000,,"Environment organization in WINOOSKI, VT with annual revenue of approximately $123M",
NEWARK WAYNE COMMUNITY HOSPITAL,150584188,Health,100 KINGS HIGHWAY SOUTH,ROCHESTER,NY,14617-5504,,"Health organization in ROCHESTER, NY with annual revenue of approximately $123M",
JUSTICE INNOVATION INC,852810883,Human Services,520 8TH AVE 18TH FL,NEW YORK,NY,10018-6507,,"Human Services organization in NEW YORK, NY with annual revenue of approximately $123M",
TRICORE LABORATORY SERVICES CORPORATION,201358178,Health,1001 WOODWARD PL NE,ALBUQUERQUE,NM,87102-2705,,"Health organization in ALBUQUERQUE, NM with annual revenue of approximately $122M",
FREDERICK HEALTH MEDICAL GROUP LLC,453007639,Health,400 WEST SEVENTH STREET,FREDERICK,MD,21701-4506,,"Health organization in FREDERICK, MD with annual revenue of approximately $122M",
PRESBYTERIAN MANORS INC,237154996,Human Services,2414 N WOODLAWN BLVD,WICHITA,KS,67220-3902,,"Human Services organization in WICHITA, KS with annual revenue of approximately $122M",
UNIVERSITY OF ARKANSAS FOUNDATION INC,716056774,Education,535 W RESEARCH CENTER BLVD STE 120,FAYETTEVILLE,AR,72701-6944,,"Education organization in FAYETTEVILLE, AR with annual revenue of approximately $122M",
ST BERNARD HOSPITAL,362264414,Health,326 W 64TH ST,CHICAGO,IL,60621-3114,,"Health organization in CHICAGO, IL with annual revenue of approximately $122M",
THE PROVIDENCE COMMUNITY HEALTH CENTERS INC,050368134,Other,375 ALLENS AVE,PROVIDENCE,RI,02905-5010,,"Other organization in PROVIDENCE, RI with annual revenue of approximately $122M",
CAPITAL UNIVERSITY,314379435,Education,1 COLLEGE AND MAIN,COLUMBUS,OH,43209-7812,,"Education organization in COLUMBUS, OH with annual revenue of approximately $122M",
OHIO WESLEYAN UNIVERSITY,314379585,Education,61 S SANDUSKY ST,DELAWARE,OH,43015-2333,,"Education organization in DELAWARE, OH with annual revenue of approximately $122M",
WASHINGTON INSTITUTE FOR COAGULATION,832302258,Health,701 PIKE ST STE 1900,SEATTLE,WA,98101-3932,,"Health organization in SEATTLE, WA with annual revenue of approximately $122M",
THDF II INC,582491657,Human Services,2455 PACES FERRY ROAD C-17,ATLANTA,GA,30339-6444,,"Human Services organization in ATLANTA, GA with annual revenue of approximately $122M",
WINDHAM COMMUNITY MEMORIAL HOSPITAL INC,060646966,Health,112 MANSFIELD AVE,WILLIMANTIC,CT,06226-2045,,"Health organization in WILLIMANTIC, CT with annual revenue of approximately $122M",
LOVETT SCHOOL,580619038,Education,4075 PACES FERRY RD NW,ATLANTA,GA,30327-3009,,"Education organization in ATLANTA, GA with annual revenue of approximately $122M",
GRAND ITASCA CLINIC AND HOSPITAL,411865874,Health,1601 GOLF COURSE RD,GRAND RAPIDS,MN,55744-8648,,"Health organization in GRAND RAPIDS, MN with annual revenue of approximately $122M",
ERIE FAMILY HEALTH CENTER INC,363088628,Health,1701 W SUPERIOR ST,CHICAGO,IL,60622-5646,,"Health organization in CHICAGO, IL with annual revenue of approximately $122M",
DENVER SCHOOL OF SCIENCE AND TECHNOLOGY INC,841602733,Education,730 COLORADO BLVD UNIT 200,DENVER,CO,80206-9962,,"Education organization in DENVER, CO with annual revenue of approximately $122M",
CENTER FOR FAMILY SERVICES INC,223669704,Human Services,1 ALPHA AVE,VOORHEES,NJ,08043-1049,,"Human Services organization in VOORHEES, NJ with annual revenue of approximately $122M",
SUNRISE COMMUNITY INC,650118730,Human Services,9040 SW 72ND ST,MIAMI,FL,33173-3432,,"Human Services organization in MIAMI, FL with annual revenue of approximately $122M",
B H R A G S HOMECARE INC,112579798,Other,2005 NOSTRAND AVE,BROOKLYN,NY,11210-1531,,"Other organization in BROOKLYN, NY with annual revenue of approximately $122M",
AVERA ST MARYS,460230199,Health,801 E SIOUX AVE,PIERRE,SD,57501-3323,,"Health organization in PIERRE, SD with annual revenue of approximately $122M",
EPOCH TIMES ASSOCIATION INC,223848589,Arts & Culture,229 W 28TH ST FL 6,NEW YORK,NY,10001-5905,,"Arts & Culture organization in NEW YORK, NY with annual revenue of approximately $122M",
FRIENDS OF THE WORLD FOOD PROGRAM INC,133843435,Human Services,1750 H ST NW STE 500,WASHINGTON,DC,20006-4692,,"Human Services organization in WASHINGTON, DC with annual revenue of approximately $122M",
RIVERVIEW SCHOOL INC,042240919,Education,551 ROUTE 6A,EAST SANDWICH,MA,02537-1448,,"Education organization in EAST SANDWICH, MA with annual revenue of approximately $122M",
OKLAHOMA CITY UNIVERSITY,730579265,Education,2501 N BLACKWELDER AVE,OKLAHOMA CITY,OK,73106-1402,,"Education organization in OKLAHOMA CITY, OK with annual revenue of approximately $121M",
FIVE KEYS SCHOOLS AND PROGRAMS,810622701,Education,320 13TH STREET,OAKLAND,CA,94612-3953,,"Education organization in OAKLAND, CA with annual revenue of approximately $121M",
MYSTIC VALLEY ELDER SERVICES INC,042562646,Human Services,300 COMMERCIAL ST STE 19,MALDEN,MA,02148-7311,,"Human Services organization in MALDEN, MA with annual revenue of approximately $121M",
ST VINCENTS AMBULATORY CARE INC,592292041,Other,PO BOX 45998,SAINT LOUIS,MO,63145-5998,,"Other organization in SAINT LOUIS, MO with annual revenue of approximately $121M",
UNITED WAY OF CENTRAL ALABAMA INC,630288846,Community,3600 8TH AVENUE SOUTH,BIRMINGHAM,AL,35222-3250,,"Community organization in BIRMINGHAM, AL with annual revenue of approximately $121M",
ROPER ST FRANCIS MOUNT PLEASANT HOSPITAL,570360499,Health,3500 N HIGHWAY 17,MT PLEASANT,SC,29466-9123,,"Health organization in MT PLEASANT, SC with annual revenue of approximately $121M",
SOUTHEAST FLORIDA BEHAVIORAL HEALTH NETWORK INC,271871869,Health,8895 N MILITARY TRL STE 102E,WEST PALM BCH,FL,33410-6262,,"Health organization in WEST PALM BCH, FL with annual revenue of approximately $121M",
ST JOSEPHS HOSPITAL OF BUCKHANNON INC,550356996,Health,1 AMALIA DR,BUCKHANNON,WV,26201-2276,,"Health organization in BUCKHANNON, WV with annual revenue of approximately $121M",
GEORGIA SOUTHERN UNIVERSITY RESEARCH AND SVC FOUNDATION INC,582354256,Research,PO BOX 8005,STATESBORO,GA,30460-1000,,"Research organization in STATESBORO, GA with annual revenue of approximately $121M",
PROJECT RENEWAL INC,132602882,Health,200 VARICK STREET,NEW YORK,NY,10014-4810,,"Health organization in NEW YORK, NY with annual revenue of approximately $121M",
VIRTUA WILLINGBORO HOSPITAL INC,223612265,Health,406 LIPPINCOTT DR STE J,MARLTON,NJ,08053-4168,,"Health organization in MARLTON, NJ with annual revenue of approximately $121M",
AMERICAN ASSOCIATION OF STATE HIGHWAY & TRANSPORTATION OFFICIALS,530204654,Community,555 12TH ST NW STE 1000,WASHINGTON,DC,20004-1208,,"Community organization in WASHINGTON, DC with annual revenue of approximately $121M",
SEVEN COUNTIES SERVICES INC,310939757,Health,10401 LINN STATION RD STE 100,LOUISVILLE,KY,40223-3842,,"Health organization in LOUISVILLE, KY with annual revenue of approximately $121M",
ST AMBROSE UNIVERSITY,420703280,Education,518 W LOCUST ST,DAVENPORT,IA,52803-2829,,"Education organization in DAVENPORT, IA with annual revenue of approximately $121M",
SAUK PRAIRIE HEALTHCARE INC,390872080,Health,260 26TH ST,PR DU SAC,WI,53578-2203,,"Health organization in PR DU SAC, WI with annual revenue of approximately $121M",
MYRIAD USA INC,582277856,International,551 5TH AVE RM 2400,NEW YORK,NY,10176-2603,,"International organization in NEW YORK, NY with annual revenue of approximately $121M",
SIDNEY HEALTH CENTER,810233499,Health,216 14TH AVE SW,SIDNEY,MT,59270-3519,,"Health organization in SIDNEY, MT with annual revenue of approximately $121M",
GEORGIA CYBER ACADEMY,470963688,Education,1745 PHOENIX BLVD STE 10,ATLANTA,GA,30349-5591,,"Education organization in ATLANTA, GA with annual revenue of approximately $121M",
MERCY ACO CLINICAL SERVICES INC,464504901,Health,15740 SOUTH OUTER 40 RD,CHESTERFIELD,MO,63017-2004,,"Health organization in CHESTERFIELD, MO with annual revenue of approximately $121M",
SHELBY COUNTY MEMORIAL HOSPITAL ASSOCIATION INC,344427944,Health,915 WEST MICHIGAN STREET,SIDNEY,OH,45365-0000,,"Health organization in SIDNEY, OH with annual revenue of approximately $121M",
FLORIDA PACE CENTERS INC,651051439,Human Services,5200 NE 2ND AVE,MIAMI,FL,33137-2706,,"Human Services organization in MIAMI, FL with annual revenue of approximately $121M",
UNIVERSITY OF NORTHWESTERN-ST PAUL,410711610,Education,3003 SNELLING AVE N,SAINT PAUL,MN,55113-1501,,"Education organization in SAINT PAUL, MN with annual revenue of approximately $121M",
COORDINATED BEHAVIORAL CARE INC,452647637,Education,55 BROADWAY 7TH FLOOR,NEW YORK,NY,10006-3008,,"Education organization in NEW YORK, NY with annual revenue of approximately $120M",
EASTERN UNIVERSITY,231409675,Education,1300 EAGLE RD,ST DAVIDS,PA,19087-3696,,"Education organization in ST DAVIDS, PA with annual revenue of approximately $120M",
GLOBALGIVING FOUNDATION INC,300108263,International,1 THOMAS CIRCLE NW,WASHINGTON,DC,20005-5802,,"International organization in WASHINGTON, DC with annual revenue of approximately $120M",
TROUSDALE FOUNDATION INC,222986746,Other,485 CENTRAL AVE NE,CLEVELAND,TN,37311-5541,,"Other organization in CLEVELAND, TN with annual revenue of approximately $120M",
CENTRAL FLORIDA CARES HEALTH SYSTEM INC,510448002,Human Services,707 MENDHAM BLVD STE 201,ORLANDO,FL,32825-3245,,"Human Services organization in ORLANDO, FL with annual revenue of approximately $120M",
CATHOLIC CHARITIES NEIGHBORHOOD SERVICES INC,112047151,Human Services,191 JORALEMON ST,BROOKLYN,NY,11201-4306,,"Human Services organization in BROOKLYN, NY with annual revenue of approximately $120M",
UNIVERSITY OF MARYLAND FACULTY PHYSICIANS INC,521299563,Health,250 W PRATT ST STE 901,BALTIMORE,MD,21201-6808,,"Health organization in BALTIMORE, MD with annual revenue of approximately $120M",
THE THRESHOLDS,362518901,Other,4101 N RAVENSWOOD AVE,CHICAGO,IL,60613-2193,,"Other organization in CHICAGO, IL with annual revenue of approximately $120M",
LEBANON VALLEY COLLEGE,231352354,Education,101 N COLLEGE AVE,ANNVILLE,PA,17003-1404,,"Education organization in ANNVILLE, PA with annual revenue of approximately $120M",
BANNER MEDICAL GROUP COLORADO,900532831,Health,2901 N CENTRAL AVE STE 160,PHOENIX,AZ,85012-2702,,"Health organization in PHOENIX, AZ with annual revenue of approximately $120M",
DANA-FARBER INC,043102433,Other,450 BROOKLINE AVE BP418,BOSTON,MA,02215-5418,,"Other organization in BOSTON, MA with annual revenue of approximately $120M",
HARVARD PRIVATE CAPITAL REALTY INC,223138409,Education,600 ATLANTIC AVENUE C/O HMC INC,BOSTON,MA,02210-2203,,"Education organization in BOSTON, MA with annual revenue of approximately $120M",
MSU HEALTH CARE INC,832236308,Health,909 WILSON RD 421,EAST LANSING,MI,48824-6410,,"Health organization in EAST LANSING, MI with annual revenue of approximately $120M",
OUR AMERICAN FUTURE FOUNDATION,884235954,Religion,1032 15TH ST NW 385,WASHINGTON,DC,20005-1502,,"Religion organization in WASHINGTON, DC with annual revenue of approximately $120M",
CONNECTICUT FOODSHARE INC,061063025,Other,2 RESEARCH PKWY,WALLINGFORD,CT,06492-1929,,"Other organization in WALLINGFORD, CT with annual revenue of approximately $120M",
CARBON SCHIYLKILL COMMUNITY HOSPITAL INC,251550350,Health,1110 ST LUKES WAY,ALLENTOWN,PA,18109-9153,,"Health organization in ALLENTOWN, PA with annual revenue of approximately $120M",
HARVEY MUDD COLLEGE,951911219,Education,301 PLATT BLVD,CLAREMONT,CA,91711-5901,,"Education organization in CLAREMONT, CA with annual revenue of approximately $120M",
MARINERS HOSPITAL INC,591987355,Health,91500 OVERSEAS HWY,TAVERNIER,FL,33070-2547,,"Health organization in TAVERNIER, FL with annual revenue of approximately $120M",
DOOR COUNTY MEMORIAL HOSPITAL,390806324,Health,323 S 18TH AVE,STURGEON BAY,WI,54235-1401,,"Health organization in STURGEON BAY, WI with annual revenue of approximately $120M",
MCLAREN MEDICAL GROUP,382988086,Health,401 S BALLENGER HWY,FLINT,MI,48532-3638,,"Health organization in FLINT, MI with annual revenue of approximately $120M",
PATHFINDER INTERNATIONAL,530235320,International,1015 15TH ST NW STE 1100,WASHINGTON,DC,20005-2619,,"International organization in WASHINGTON, DC with annual revenue of approximately $119M",
CATAWBA COLLEGE,560530251,Education,2300 W INNES ST,SALISBURY,NC,28144-2441,,"Education organization in SALISBURY, NC with annual revenue of approximately $119M",
IPS ENTERPRISES INC,844633153,Education,2115 W PIKE BLVD,WESLACO,TX,78596-0054,,"Education organization in WESLACO, TX with annual revenue of approximately $119M",
SALEM HEALTH HOSPITALS AND CLINICS,930823471,Other,890 OAK ST SE,SALEM,OR,97301-3905,,"Other organization in SALEM, OR with annual revenue of approximately $119M",
MELWOOD HORTICULTURAL TRAINING CENTER INC,520857690,Human Services,5606 DOWER HOUSE RD,UPPR MARLBORO,MD,20772-3604,,"Human Services organization in UPPR MARLBORO, MD with annual revenue of approximately $119M",
ZOOLOGICAL SOCIETY OF CINCINNATI,310537171,Health,3400 VINE ST,CINCINNATI,OH,45220-1333,,"Health organization in CINCINNATI, OH with annual revenue of approximately $119M",
METHODIST ASSOCIATES IN HEALTHCARE INC,232678055,Health,2301 S BROAD ST,PHILADELPHIA,PA,19148-3542,,"Health organization in PHILADELPHIA, PA with annual revenue of approximately $119M",
VALLEY OF THE SUN UNITED WAY,860104419,Community,3200 E CAMELBACK RD STE 375,PHOENIX,AZ,85018-2328,,"Community organization in PHOENIX, AZ with annual revenue of approximately $119M",
MILE BLUFF MEDICAL CENTER INC,390992883,Health,1050 DIVISION ST,MAUSTON,WI,53948-1931,,"Health organization in MAUSTON, WI with annual revenue of approximately $119M",
TENNESSEE PERFORMING ARTS CENTER MANAGEMENT CORPORATION,581320590,Arts & Culture,505 DEADERICK ST,NASHVILLE,TN,37243-1402,,"Arts & Culture organization in NASHVILLE, TN with annual revenue of approximately $119M",
HOPE OF THE VALLEY RESCUE MISSION,272053273,Human Services,16641 ROSCOE PL,NORTH HILLS,CA,91343-6104,,"Human Services organization in NORTH HILLS, CA with annual revenue of approximately $119M",
THE COMMUNITY FOUNDATION INC,237009135,Community,3409 MOORE ST,RICHMOND,VA,23230-4443,,"Community organization in RICHMOND, VA with annual revenue of approximately $119M",
MOODY BIBLE INSTITUTE OF CHICAGO,362167792,Education,820 N LA SALLE DR,CHICAGO,IL,60610-3214,,"Education organization in CHICAGO, IL with annual revenue of approximately $119M",
PUTNAM HOSPITAL CENTER,146019179,Health,670 STONELEIGH AVE,CARMEL,NY,10512-3997,,"Health organization in CARMEL, NY with annual revenue of approximately $119M",
PHILADELPHIA POST-ACUTE PARTNERSLLC,208283421,Health,850 S 5TH ST,ALLENTOWN,PA,18103-3308,,"Health organization in ALLENTOWN, PA with annual revenue of approximately $119M",
J DAVID GLADSTONE INSTITUTES,237203666,Health,1650 OWENS ST,SAN FRANCISCO,CA,94158-2261,,"Health organization in SAN FRANCISCO, CA with annual revenue of approximately $119M",
YOUNG MENS CHRISTIAN ASSOCIATION OF SAN FRANCISCO,940997140,Human Services,169 STEUART ST,SAN FRANCISCO,CA,94105-1206,,"Human Services organization in SAN FRANCISCO, CA with annual revenue of approximately $119M",
GLOBAL CONNECTIONS TO EMPLOYMENT INC,472592811,Human Services,1221 W LAKEVIEW AVE,PENSACOLA,FL,32501-1857,,"Human Services organization in PENSACOLA, FL with annual revenue of approximately $119M",
ALICE PECK DAY MEMORIAL HOSPITAL,020222791,Health,10 ALICE PECK DAY DR,LEBANON,NH,03766-2900,,"Health organization in LEBANON, NH with annual revenue of approximately $119M",
DAVENPORT UNIVERSITY,381945965,Education,6191 KRAFT AVE SE,GRAND RAPIDS,MI,49512-9396,,"Education organization in GRAND RAPIDS, MI with annual revenue of approximately $119M",
SOUTHSIDE COMMUNITY HOSPITAL INC,540555201,Health,800 OAK ST,FARMVILLE,VA,23901-1199,,"Health organization in FARMVILLE, VA with annual revenue of approximately $118M",
SOUTHWEST HEALTH CENTER INC,391370626,Health,1400 EASTSIDE RD,PLATTEVILLE,WI,53818-9800,,"Health organization in PLATTEVILLE, WI with annual revenue of approximately $118M",
SINAI HEALTH SYSTEM,363166895,Health,CALIFORNIA AVENUE AT 15TH STREET,CHICAGO,IL,60608-0000,,"Health organization in CHICAGO, IL with annual revenue of approximately $118M",
ADELANTE HEALTHCARE INC,860377821,Health,3033 N CENTRAL AVE STE 145,PHOENIX,AZ,85012-2808,,"Health organization in PHOENIX, AZ with annual revenue of approximately $118M",
CAMERON MEMORIAL COMMUNITY HOSPITAL INC,350211370,Health,416 E MAUMEE ST,ANGOLA,IN,46703-2015,,"Health organization in ANGOLA, IN with annual revenue of approximately $118M",
AMERICAN PHYSICAL SOCIETY,131656610,Research,1 PHYSICS ELLIPSE,COLLEGE PARK,MD,20740-3841,,"Research organization in COLLEGE PARK, MD with annual revenue of approximately $118M",
LA SALLE UNIVERSITY,231352654,Education,1900 W OLNEY AVE,PHILADELPHIA,PA,19141-1108,,"Education organization in PHILADELPHIA, PA with annual revenue of approximately $118M",
EHS INC,161202971,Health,206 S ELMWOOD AVE,BUFFALO,NY,14201-2398,,"Health organization in BUFFALO, NY with annual revenue of approximately $118M",
AMERICAN SOCIETY OF HEMATOLOGY INC,237080568,Health,2021 L ST NW STE 900,WASHINGTON,DC,20036-4929,,"Health organization in WASHINGTON, DC with annual revenue of approximately $118M",
CITY FUND,824938743,Community,9450 SW GEMINI DR PMB 28552,BEAVERTON,OR,97008-7105,,"Community organization in BEAVERTON, OR with annual revenue of approximately $118M",
JUDGE ROTENBERG EDUCATIONAL CENTER INC,042489805,Education,250 TURNPIKE ST,CANTON,MA,02021-2359,,"Education organization in CANTON, MA with annual revenue of approximately $118M",
MISSISSIPPI COLLEGE,640303086,Education,200 CAPITOL ST,CLINTON,MS,39056-4026,,"Education organization in CLINTON, MS with annual revenue of approximately $118M",
ADVENTIST DEVELOPMENT AND RELIEF AGENCY INTERNATIONAL,521314847,International,12501 OLD COLUMBIA PIKE,SILVER SPRING,MD,20904-6601,,"International organization in SILVER SPRING, MD with annual revenue of approximately $118M",
WINROCK INTERNATIONAL INSTITUTE FOR AGRICULTURAL DEVELOPMENT,710603560,International,204 E 4TH ST,N LITTLE ROCK,AR,72114-5402,,"International organization in N LITTLE ROCK, AR with annual revenue of approximately $118M",
ASCENSION MEDICAL GROUP-FOX VALLEY WISCONSIN INC,391127163,Health,PO BOX 45998,SAINT LOUIS,MO,63145-5998,,"Health organization in SAINT LOUIS, MO with annual revenue of approximately $118M",
ROGOSIN INSTITUTE INC,133184198,Health,504-6 E 74TH ST 5TH FLR,NEW YORK,NY,10021-0000,,"Health organization in NEW YORK, NY with annual revenue of approximately $118M",
CW RESOURCES INC,060806499,Human Services,200 MYRTLE ST,NEW BRITAIN,CT,06053-4160,,"Human Services organization in NEW BRITAIN, CT with annual revenue of approximately $118M",
YOUNG MENS CHRISTIAN ASSOCIATION OF METROPOLITAN ATLANTA INC,580566253,Human Services,569 MARTIN LUTHER KING JR DR NW,ATLANTA,GA,30314-4164,,"Human Services organization in ATLANTA, GA with annual revenue of approximately $118M",
INTERNATIONAL JUSTICE MISSION,541722887,International,671 N GLEBE RD STE 800,ARLINGTON,VA,22203-2138,,"International organization in ARLINGTON, VA with annual revenue of approximately $118M",
ST NICHOLAS HOSPITAL OF THE HOSPITAL SISTERS OF THE THIRD,390808480,Health,4936 LAVERNA RD,SPRINGFIELD,IL,62707-9797,,"Health organization in SPRINGFIELD, IL with annual revenue of approximately $118M",
GIRL SCOUTS OF THE UNITED STATES OF AMERICA,131624016,Human Services,420 FIFTH AVENUE,NEW YORK,NY,10018-2729,,"Human Services organization in NEW YORK, NY with annual revenue of approximately $118M",
NYSARC INC,146020996,Human Services,465 N PERRY ST,JOHNSTOWN,NY,12095-1014,,"Human Services organization in JOHNSTOWN, NY with annual revenue of approximately $118M",
SAINT THOMAS HEALTH,581716804,Health,PO BOX 45998,SAINT LOUIS,MO,63145-5998,,"Health organization in SAINT LOUIS, MO with annual revenue of approximately $118M",
SENTARA ENTERPRISES,541917649,Health,1300 SENTARA PARK,VIRGINIA BCH,VA,23464-5884,,"Health organization in VIRGINIA BCH, VA with annual revenue of approximately $117M",
INSTITUTE OF GAS TECHNOLOGY,362170137,Research,1700 S MOUNT PROSPECT RD,DES PLAINES,IL,60018-1804,,"Research organization in DES PLAINES, IL with annual revenue of approximately $117M",
MRIGLOBAL,440545878,Research,425 DR MARTIN LUTHER KING JR BLVD,KANSAS CITY,MO,64110-2241,,"Research organization in KANSAS CITY, MO with annual revenue of approximately $117M",
CAYUGA MEDICAL ASSOCIATES PC,204356115,Health,101 DATES DR,ITHACA,NY,14850-1342,,"Health organization in ITHACA, NY with annual revenue of approximately $117M",
NORTHWEST MEDICAL FOUNDATION OF TILLAMOOK,930622075,Health,1 ADVENTIST HEALTH WAY,ROSEVILLE,CA,95661-3266,,"Health organization in ROSEVILLE, CA with annual revenue of approximately $117M",
KIPP NEW ORLEANS INC,202277213,Education,1055 SAINT CHARLES AVE STE 400,NEW ORLEANS,LA,70130-3994,,"Education organization in NEW ORLEANS, LA with annual revenue of approximately $117M",
SELFHELP COMMUNITY SERVICES INC,131624178,Human Services,520 EIGHTH AVENUE 5TH FLOOR,NEW YORK,NY,10018-6553,,"Human Services organization in NEW YORK, NY with annual revenue of approximately $117M",
LUTHERAN SOCIAL SERVICE OF THE SOUTH INC,741109745,Human Services,8305 CROSS PARK DR,AUSTIN,TX,78754-5154,,"Human Services organization in AUSTIN, TX with annual revenue of approximately $117M",
MAINE COAST REGIONAL HEALTH FACILI DBA NORTHERN LIGHT MAINE COAST HOS,010198331,Health,50 UNION ST,ELLSWORTH,ME,04605-1534,,"Health organization in ELLSWORTH, ME with annual revenue of approximately $117M",
MILFORD REGIONAL PHYSICIAN GROUP INC,043159969,Health,9 INDUSTRIAL RD STE 5,MILFORD,MA,01757-3736,,"Health organization in MILFORD, MA with annual revenue of approximately $117M",
AMERICAN BAR ASSOCIATION FUND FOR JUSTICE AND EDUCATION,366110299,Human Services,321 N CLARK STREET,CHICAGO,IL,60654-4714,,"Human Services organization in CHICAGO, IL with annual revenue of approximately $117M",
FRANKLIN ACADEMY FOUNDATION INC,272123983,Education,1225 SE 2ND AVE,FT LAUDERDALE,FL,33316-1807,,"Education organization in FT LAUDERDALE, FL with annual revenue of approximately $117M",
BROCKTON AREA MULTI-SERVICES INC,042562377,Human Services,10 CHRISTY DR,BROCKTON,MA,02301-1812,,"Human Services organization in BROCKTON, MA with annual revenue of approximately $117M",
BREAST CANCER RESEARCH FOUNDATION INC,133727250,Human Services,28 WEST 44TH STREET SUITE 609,NEW YORK,NY,10036-7422,,"Human Services organization in NEW YORK, NY with annual revenue of approximately $117M",
GOODWILL INDUSTRIES OF CENTRAL FLORIDA INC,590908166,Other,7531 S ORANGE BLOSSOM TRL,ORLANDO,FL,32809-6901,,"Other organization in ORLANDO, FL with annual revenue of approximately $117M",
CENTER FOR DISABILITY SERVICES INC,141425851,Health,314 SMANNING BLVD,ALBANY,NY,12208-0000,,"Health organization in ALBANY, NY with annual revenue of approximately $117M",
DREW UNIVERSITY,221487164,Education,36 MADISON AVE,MADISON,NJ,07940-1434,,"Education organization in MADISON, NJ with annual revenue of approximately $117M",
GULLIVER PREPARATORY SCHOOL INC,650900712,Education,6575 NORTH KENDALL DRIVE,PINECREST,FL,33156-0000,,"Education organization in PINECREST, FL with annual revenue of approximately $117M",
BOSTON SYMPHONY ORCHESTRA INC,042103550,Arts & Culture,301 MASS AVENUE,BOSTON,MA,02115-4557,,"Arts & Culture organization in BOSTON, MA with annual revenue of approximately $117M",
NATHAN LITTAUER HOSPITAL ASSOCIATION,141338465,Health,99 E STATE ST,GLOVERSVILLE,NY,12078-1203,,"Health organization in GLOVERSVILLE, NY with annual revenue of approximately $117M",
JEWISH HOME,940545320,Human Services,302 SILVER AVE,SAN FRANCISCO,CA,94112-1510,,"Human Services organization in SAN FRANCISCO, CA with annual revenue of approximately $117M",
WAGNER COLLEGE,135604699,Education,1 CAMPUS RD,STATEN ISLAND,NY,10301-4479,,"Education organization in STATEN ISLAND, NY with annual revenue of approximately $116M",
LUTHERAN SOCIAL SERVICES OF ILLINOIS,362584799,Other,1001 E TOUHY AVE STE 50A,DES PLAINES,IL,60018-5801,,"Other organization in DES PLAINES, IL with annual revenue of approximately $116M",
CONCORDIA COLLEGE CORPORATION,410693977,Other,901 8TH ST S,MOORHEAD,MN,56562-0001,,"Other organization in MOORHEAD, MN with annual revenue of approximately $116M",
RML HEALTH PROVIDERS LIMITED PARTNERSHIP,364113692,Health,5601 S COUNTY LINE RD,HINSDALE,IL,60521-4875,,"Health organization in HINSDALE, IL with annual revenue of approximately $116M",
LITTLETON HOSPITAL ASSOCIATION,020222152,Health,600 SAINT JOHNSBURY RD,LITTLETON,NH,03561-3442,,"Health organization in LITTLETON, NH with annual revenue of approximately $116M",
SALEM COMMUNITY HOSPITAL,341041385,Health,1995 E STATE ST,SALEM,OH,44460-2423,,"Health organization in SALEM, OH with annual revenue of approximately $116M",
WHITNEY MUSEUM OF AMERICAN ART,131789318,Arts & Culture,99 GANSEVOORT ST,NEW YORK,NY,10014-1404,,"Arts & Culture organization in NEW YORK, NY with annual revenue of approximately $116M",
NEW YORK ROAD RUNNERS INC,132949483,Other,156 WEST 56TH ST,NEW YORK,NY,10019-3800,,"Other organization in NEW YORK, NY with annual revenue of approximately $116M",
MSI US,541901882,Community,1730 RHODE ISLAND AVE,WASHINGTON,DC,20036-3101,,"Community organization in WASHINGTON, DC with annual revenue of approximately $116M",
BRATTLEBORO MEMORIAL HOSPITAL,030107300,Health,17 BELMONT AVE,BRATTLEBORO,VT,05301-6613,,"Health organization in BRATTLEBORO, VT with annual revenue of approximately $116M",
HOLY CROSS HOSPITAL,362170133,Health,2701 W 68TH ST,CHICAGO,IL,60629-1813,,"Health organization in CHICAGO, IL with annual revenue of approximately $116M",
MASONIC HOMES OF CALIFORNIA,941156564,Human Services,1111 CALIFORNIA ST,SAN FRANCISCO,CA,94108-2252,,"Human Services organization in SAN FRANCISCO, CA with annual revenue of approximately $116M",
NATIONAL COLLEGIATE INVENTORS & INNOVATORS ALLIANCE,421727335,Education,100 VENTURE WAY,HADLEY,MA,01035-9462,,"Education organization in HADLEY, MA with annual revenue of approximately $116M",
MEDICAL CARE OF BOSTON MANAGEMENT CORPORATION,042810972,Health,CO BILH TAX 529 MAIN ST 4TH FL,CHARLESTOWN,MA,02129-0000,,"Health organization in CHARLESTOWN, MA with annual revenue of approximately $116M",
GREATER CLEVELAND FOOD BANK INC,341292848,Human Services,13815 COIT RD,CLEVELAND,OH,44110-2201,,"Human Services organization in CLEVELAND, OH with annual revenue of approximately $116M",
JEWISH FAMILY SERVICE OF SAN DIEGO,951644024,Human Services,8804 BALBOA AVE,SAN DIEGO,CA,92123-1506,,"Human Services organization in SAN DIEGO, CA with annual revenue of approximately $116M",
BRILLIANT CORNERS,562379862,Education,854 FOLSOM ST,SAN FRANCISCO,CA,94107-1123,,"Education organization in SAN FRANCISCO, CA with annual revenue of approximately $116M",
WAYNE MEMORIAL HOSPITAL,240798839,Health,601 PARK ST,HONESDALE,PA,18431-1445,,"Health organization in HONESDALE, PA with annual revenue of approximately $116M",
CHARLESTON SOUTHERN UNIVERSITY,570474291,Education,9200 UNIVERSITY BLVD,N CHARLESTON,SC,29406-9121,,"Education organization in N CHARLESTON, SC with annual revenue of approximately $116M",
GLEANERS COMMUNITY FOOD BANK OF SOUTHEASTERN MICHIGAN,382156255,Human Services,2131 BEAUFAIT ST,DETROIT,MI,48207-3410,,"Human Services organization in DETROIT, MI with annual revenue of approximately $116M",
NATIONAL CHURCH RESIDENCES,310651750,Human Services,2335 N BANK DR,COLUMBUS,OH,43220-5423,,"Human Services organization in COLUMBUS, OH with annual revenue of approximately $116M",
TECHNOSERVE INC,132626135,International,1777 N KENT ST STE 1100,ARLINGTON,VA,22209-2110,,"International organization in ARLINGTON, VA with annual revenue of approximately $115M",
ST VINCENTS HEALTH SYSTEM,630931008,Health,500 22ND STREET SOUTH SUITE 408,BIRMINGHAM,AL,35233-3110,,"Health organization in BIRMINGHAM, AL with annual revenue of approximately $115M",
ELEMENT CARE INC,043267751,Human Services,235 WOODLAND N,LYNN,MA,01904-1414,,"Human Services organization in LYNN, MA with annual revenue of approximately $115M",
