name,ein,category,address,city,state,zip_code,website,description,phone
DIMENSIONS HEALTHCARE ASSOCIATES,521902711,Health,900 ELKRIDGE LANDING RD 3W,LINTHICUM HEIGHTS,MD,21090-2924,,"Health organization in LINTHICUM HEIGHTS, MD with annual revenue of approximately $32M",
COLORADO AFFORDABLE CATHOLIC HOUSING CORP,841183023,Human Services,6240 SMITH RD,DENVER,CO,80216-4632,,"Human Services organization in DENVER, CO with annual revenue of approximately $32M",
FIRST STEP INC,710307372,Other,PO BOX 2440,HOT SPRINGS,AR,71914-2440,,"Other organization in HOT SPRINGS, AR with annual revenue of approximately $32M",
COUNCIL FOR ADVANCEMENT AND SUPPORT OF EDUCATION,521012307,Other,1201 EYE ST NW 300,WASHINGTON,DC,20005-5909,,"Other organization in WASHINGTON, DC with annual revenue of approximately $32M",
DILEY RIDGE MEDICAL CENTER,342032340,Health,3100 EASTON SQUARE PL STE 300,COLUMBUS,OH,43219-6290,,"Health organization in COLUMBUS, OH with annual revenue of approximately $31M",
PLANNED PARENTHOOD OF GREATER TEXAS,521243220,Health,7424 GREENVILLE AVE STE 206,DALLAS,TX,75231-4534,,"Health organization in DALLAS, TX with annual revenue of approximately $31M",
CENTER FOR TRANSPORTATION AND THE ENVIROMENT INC,582052891,Research,730 PEACHTREE ST NE STE 450,ATLANTA,GA,30308-1244,,"Research organization in ATLANTA, GA with annual revenue of approximately $31M",
COMMUNITY ACTION MARIN,946136365,Human Services,7665 REDWOOD BLVD,SAN RAFAEL,CA,94945-1405,,"Human Services organization in SAN RAFAEL, CA with annual revenue of approximately $31M",
HERITAGE UNIVERSITY,911160585,Education,3240 FORT RD,TOPPENISH,WA,98948-9599,,"Education organization in TOPPENISH, WA with annual revenue of approximately $31M",
J ARTHUR TRUDEAU MEMORIAL CENTER,050310093,Other,3445 POST RD,WARWICK,RI,02886-7147,,"Other organization in WARWICK, RI with annual revenue of approximately $31M",
MIRA BELLA,342030255,Human Services,116 FAIRVIEW AVENUE NORTH,SEATTLE,WA,98109-5360,,"Human Services organization in SEATTLE, WA with annual revenue of approximately $31M",
INTEGRATED COMMUNITY ALTERNATIVES NETWORK INC,161541078,Other,310 MAIN ST,UTICA,NY,13501-1236,,"Other organization in UTICA, NY with annual revenue of approximately $31M",
KOINONIA FOSTER HOMES INC,942792265,Other,PO BOX 1403,LOOMIS,CA,95650-1403,,"Other organization in LOOMIS, CA with annual revenue of approximately $31M",
ASCENSION VIA CHRISTI HEALTH INC,481172107,Health,PO BOX 45998,SAINT LOUIS,MO,63145-5998,,"Health organization in SAINT LOUIS, MO with annual revenue of approximately $31M",
THE LENFEST INST FOR JOURNALISM SPE ASSET FUND OF THE PHL FOUNDATION,043731829,Community,1835 MARKET ST STE 2410,PHILADELPHIA,PA,19103-2909,,"Community organization in PHILADELPHIA, PA with annual revenue of approximately $31M",
PHOENIX GOSPEL MISSION,866057771,Religion,338 N 15TH AVE,PHOENIX,AZ,85007-2402,,"Religion organization in PHOENIX, AZ with annual revenue of approximately $31M",
CENTRAL OKLAHOMA UNITED METHODIST RETIREMENT FACILITY INC,731292317,Human Services,14901 N PENNSYLVANIA AVENUE,OKLAHOMA CITY,OK,73134-6069,,"Human Services organization in OKLAHOMA CITY, OK with annual revenue of approximately $31M",
THE MATHER EVANSTON,205860808,Human Services,1560 SHERMAN AVE STE 1010,EVANSTON,IL,60201-4803,,"Human Services organization in EVANSTON, IL with annual revenue of approximately $31M",
GOSNOLD INC,042502970,Other,200 TER HEUN DR,FALMOUTH,MA,02540-2525,,"Other organization in FALMOUTH, MA with annual revenue of approximately $31M",
CORNERSTONE MONTGOMERY INC,520937199,Other,2 TAFT CT STE 200,ROCKVILLE,MD,20850-1390,,"Other organization in ROCKVILLE, MD with annual revenue of approximately $31M",
AREA RESOURCES FOR COMMUNITY AND HUMAN SERVICES,311611583,Human Services,539 N GRAND 6TH FLOOR,ST LOUIS,MO,63103-1026,,"Human Services organization in ST LOUIS, MO with annual revenue of approximately $31M",
VILLAGE AT ORCHARD RIDGE INC,263445374,Human Services,5275 WESTVIEW DR STE 110,FREDERICK,MD,21703-8548,,"Human Services organization in FREDERICK, MD with annual revenue of approximately $31M",
HALO NETWORK INC,270408181,Education,300 MERRICK RD,AMITYVILLE,NY,11701-3448,,"Education organization in AMITYVILLE, NY with annual revenue of approximately $31M",
REDEEMER CITY TO CITY,383773431,Religion,150 WEST 83RD STREET SUITE 4F,NEW YORK,NY,10024-5259,,"Religion organization in NEW YORK, NY with annual revenue of approximately $31M",
YOUNG MENS CHRISTIAN ASSOCIATION OF THE SUNCOAST INC,590810731,Human Services,2469 ENTERPRISE RD,CLEARWATER,FL,33763-1702,,"Human Services organization in CLEARWATER, FL with annual revenue of approximately $31M",
OMAHA ZOO FOUNDATION,363297716,Health,3701 S 10TH ST,OMAHA,NE,68107-2299,,"Health organization in OMAHA, NE with annual revenue of approximately $31M",
PROGRESS FOUNDATION,941716828,Health,368 FELL ST,SAN FRANCISCO,CA,94102-5144,,"Health organization in SAN FRANCISCO, CA with annual revenue of approximately $31M",
GRAYS HARBOR COMMUNITY FOUNDATION,911607005,Community,PO BOX 615,HOQUIAM,WA,98550-0615,,"Community organization in HOQUIAM, WA with annual revenue of approximately $31M",
UNITED WAY OF BROWARD COUNTY,590624402,Community,1300 S ANDREWS AVE,FT LAUDERDALE,FL,33316-1838,,"Community organization in FT LAUDERDALE, FL with annual revenue of approximately $31M",
WAIKIKI HEALTH,990159253,Health,277 OHUA AVE,HONOLULU,HI,96815-6612,,"Health organization in HONOLULU, HI with annual revenue of approximately $31M",
DALLAS MENNONITE RETIREMENT COMMUNITY INC,930415213,Human Services,377 NW JASPER ST,DALLAS,OR,97338-1279,,"Human Services organization in DALLAS, OR with annual revenue of approximately $31M",
FLORIDA CITRUS SPORTS EVENTS INC,593021238,Human Services,1 CITRUS BOWL PL,ORLANDO,FL,32805-2459,,"Human Services organization in ORLANDO, FL with annual revenue of approximately $31M",
READING PARTNERS,770568469,Education,638 3RD ST,OAKLAND,CA,94607-3551,,"Education organization in OAKLAND, CA with annual revenue of approximately $31M",
WATER ENVIRONMENT FEDERATION,530225129,Environment,601 WYTHE ST,ALEXANDRIA,VA,22314-1919,,"Environment organization in ALEXANDRIA, VA with annual revenue of approximately $31M",
MFI RECOVERY CENTER,952833715,Other,5870 ARLINGTON AVE,RIVERSIDE,CA,92504-2037,,"Other organization in RIVERSIDE, CA with annual revenue of approximately $31M",
HOSPICE OF THE WESTERN RESERVE AT UNIVERSITY HOSPITALS LLC,832806180,Other,17876 SAINT CLAIR AVE,CLEVELAND,OH,44110-2602,,"Other organization in CLEVELAND, OH with annual revenue of approximately $31M",
UNIVERSITY OF MASSACHUSETTS AMHERST FOUNDATION INC,542084125,Education,134 HICKS WAY,AMHERST,MA,01003-9270,,"Education organization in AMHERST, MA with annual revenue of approximately $31M",
ARMAND HAMMER MUSEUM OF ART AND CULTURAL CENTER INC,954217197,Arts & Culture,10899 WILSHIRE BLVD,LOS ANGELES,CA,90024-4343,,"Arts & Culture organization in LOS ANGELES, CA with annual revenue of approximately $31M",
COMMUNITY DENTAL CARE,043692982,Health,1670 BEAM AVE STE 204,MAPLEWOOD,MN,55109-1227,,"Health organization in MAPLEWOOD, MN with annual revenue of approximately $31M",
WELTY HOME FOR THE AGED INC,550362615,Human Services,159 EDGINGTON LN,WHEELING,WV,26003-1542,,"Human Services organization in WHEELING, WV with annual revenue of approximately $31M",
METROPOLITAN PUBLIC DEFENDER SERVICE INC,930591637,Other,101 SOUTHWEST MAIN STREET,PORTLAND,OR,97204-3228,,"Other organization in PORTLAND, OR with annual revenue of approximately $31M",
HARLEM CHILDRENS ZONE PROMISE ACADEMY CHARTER SCHOOL,760756768,Education,35 E 125TH ST,NEW YORK,NY,10035-1816,,"Education organization in NEW YORK, NY with annual revenue of approximately $31M",
EIHAB HUMAN SERVICES INC,113376415,Human Services,16818 S CONDUIT AVENUE,JAMAICA,NY,11434-4806,,"Human Services organization in JAMAICA, NY with annual revenue of approximately $31M",
EAST TEXAS BORDER HEALTH CLINIC,030538912,Health,400 S ALAMO BLVD,MARSHALL,TX,75670-4260,,"Health organization in MARSHALL, TX with annual revenue of approximately $31M",
SOUTHWEST CHRISTIAN SCHOOL INC,751305937,Education,6801 DAN DANCIGER RD,FORT WORTH,TX,76133-4903,,"Education organization in FORT WORTH, TX with annual revenue of approximately $31M",
PLANNED PARENTHOOD CALIFORNIA CENTRAL COAST,952319356,Health,518 GARDEN ST,SANTA BARBARA,CA,93101-1606,,"Health organization in SANTA BARBARA, CA with annual revenue of approximately $31M",
CHILD DEVELOPMENT CENTERS INC,251198158,Other,213 E 41ST ST,ERIE,PA,16504-2009,,"Other organization in ERIE, PA with annual revenue of approximately $31M",
PLAINS HOSPITALS INC,810475376,Health,PO BOX 768,PLAINS,MT,59859-0768,,"Health organization in PLAINS, MT with annual revenue of approximately $31M",
CANNON SCHOOL INC,560935064,Education,5801 POPLAR TENT RD,CONCORD,NC,28027-7575,,"Education organization in CONCORD, NC with annual revenue of approximately $31M",
SEA RESEARCH FOUNDATION INC,061480300,Health,55 COOGAN BLVD,MYSTIC,CT,06355-1927,,"Health organization in MYSTIC, CT with annual revenue of approximately $31M",
HOUSTON GATEWAY ACADEMY INC,311614343,Education,7310 BOWIE ST,HOUSTON,TX,77012-2904,,"Education organization in HOUSTON, TX with annual revenue of approximately $31M",
FACING HISTORY & OURSELVES INC,042761636,Arts & Culture,89 SOUTH ST STE 401,BOSTON,MA,02111-2676,,"Arts & Culture organization in BOSTON, MA with annual revenue of approximately $31M",
CASTLE FAMILY HEALTH CENTERS INC,205864304,Health,3605 HOSPITAL RD STE H,ATWATER,CA,95301-5173,,"Health organization in ATWATER, CA with annual revenue of approximately $31M",
HOPE ACADEMY INC,411962874,Education,710 EAST 24TH STREET,MINNEAPOLIS,MN,55404-3840,,"Education organization in MINNEAPOLIS, MN with annual revenue of approximately $31M",
MILWAUKEE CATHOLIC HOME INC,390806215,Human Services,2462 NORTH PROSPECT AVENUE,MILWAUKEE,WI,53211-4451,,"Human Services organization in MILWAUKEE, WI with annual revenue of approximately $31M",
CATHOLIC HEALTH SYSTEM INFUSION PHARMACY INC,200198518,Other,144 GENESEE STREET,BUFFALO,NY,14203-1560,,"Other organization in BUFFALO, NY with annual revenue of approximately $31M",
WESTERN NORTH CAROLINA COMMUNITY HEALTH SERVICES INC,561852922,Other,29 TURTLE CREEK DR,ASHEVILLE,NC,28803-3152,,"Other organization in ASHEVILLE, NC with annual revenue of approximately $31M",
HEALTHPOINT FAMILY CARE INC,610729915,Health,215 E 11TH ST,NEWPORT,KY,41071-2203,,"Health organization in NEWPORT, KY with annual revenue of approximately $31M",
CIRCLE THE CITY,262420730,Human Services,300 W CLARENDON AVE STE 200,PHOENIX,AZ,85013-3422,,"Human Services organization in PHOENIX, AZ with annual revenue of approximately $31M",
ROXBURY LATIN SCHOOL INC,042104857,Education,101 SAINT THERESA AVE,WEST ROXBURY,MA,02132-3419,,"Education organization in WEST ROXBURY, MA with annual revenue of approximately $31M",
GOODWILL INDUSTRIES OF SOUTH TEXAS INC,741223056,Other,2961 S PORT AVE,CORP CHRISTI,TX,78405-2098,,"Other organization in CORP CHRISTI, TX with annual revenue of approximately $31M",
MAKE THE ROAD NEW YORK,113344389,Human Services,301 GROVE STREET,BROOKLYN,NY,11237-5664,,"Human Services organization in BROOKLYN, NY with annual revenue of approximately $31M",
CHALLENGE UNLIMITED INC,370805566,Human Services,4 EMMIE L KAUS LN,ALTON,IL,62002-8865,,"Human Services organization in ALTON, IL with annual revenue of approximately $31M",
ALZHEIMERS DISEASE RESEARCH FOUNDATION,522396428,Health,34 WASHINGTON ST STE 230,WELLESLEY HLS,MA,02481-1903,,"Health organization in WELLESLEY HLS, MA with annual revenue of approximately $31M",
NEW VISIONS FOR PUBLIC SCHOOLS INC,133538961,Education,205 E 42ND STREET 4TH FL,NEW YORK,NY,10017-5749,,"Education organization in NEW YORK, NY with annual revenue of approximately $31M",
GIRLS PREPARATORY SCHOOL INC,620475682,Education,205 ISLAND AVE,CHATTANOOGA,TN,37405-4217,,"Education organization in CHATTANOOGA, TN with annual revenue of approximately $31M",
SERVICIOS DE SALUD PRIMARIOS DE,660426667,Other,PO BOX 2045,BARCELONETA,PR,00617-2045,,"Other organization in BARCELONETA, PR with annual revenue of approximately $31M",
JEWISH COMMUNITY CENTER OF SAN FRANCISCO,943227260,Human Services,3200 CALIFORNIA ST,SAN FRANCISCO,CA,94118-1904,,"Human Services organization in SAN FRANCISCO, CA with annual revenue of approximately $31M",
THE ROCHESTER FRIENDLY HOME,160743132,Health,3156 EAST AVE,ROCHESTER,NY,14618-3428,,"Health organization in ROCHESTER, NY with annual revenue of approximately $31M",
GREENWOOD GENETIC CENTER INC,570604070,Health,101 GREGOR MENDEL CIR,GREENWOOD,SC,29646-2316,,"Health organization in GREENWOOD, SC with annual revenue of approximately $31M",
DELTA COMMUNITY SUPPORTS INC,232016631,Human Services,1777 SENTRY PKWY W,BLUE BELL,PA,19422-2207,,"Human Services organization in BLUE BELL, PA with annual revenue of approximately $31M",
AUBURN SENIOR SERVICES INC,463900740,Health,3 SAINT ANTHONY ST,AUBURN,NY,13021-4525,,"Health organization in AUBURN, NY with annual revenue of approximately $31M",
YOUNG MENS CHRISTIAN ASSOC OF BIRMINGHAM,630299894,Human Services,2401 20TH PL S,BIRMINGHAM,AL,35223-1735,,"Human Services organization in BIRMINGHAM, AL with annual revenue of approximately $31M",
JOURNALISM DEVELOMENT NETWORK INC,260898750,Education,1220 L ST NW STE 100,WASHINGTON,DC,20005-4033,,"Education organization in WASHINGTON, DC with annual revenue of approximately $31M",
WESTSIDE FAMILY HEALTHCARE INC,222488654,Other,300 WATER ST STE 200,WILMINGTON,DE,19801-5043,,"Other organization in WILMINGTON, DE with annual revenue of approximately $31M",
BRECKINRIDGE HEALTH INC,610525158,Health,1011 OLD HIGHWAY 60,HARDINSBURG,KY,40143-2519,,"Health organization in HARDINSBURG, KY with annual revenue of approximately $31M",
BLACK BELT COMMUNITY FOUNDATION INC,631270745,Community,PO BOX 2020,SELMA,AL,36702-2020,,"Community organization in SELMA, AL with annual revenue of approximately $31M",
KOREAN HEALTH EDUCATION INFORMATION AND RESEARCH CENTER,954074660,Health,3727 W 6TH ST STE 210,LOS ANGELES,CA,90020-5108,,"Health organization in LOS ANGELES, CA with annual revenue of approximately $31M",
WHOLE LIFE INC,061204033,Human Services,216 BROAD STREET 3RD FLOOR,NEW LONDON,CT,06320-5335,,"Human Services organization in NEW LONDON, CT with annual revenue of approximately $31M",
HACKENSACK MERIDIAN HEALTH MEDICAL GROUP-COMPLEX CARE PC,061755230,Health,399 THORNALL ST STE 2,EDISON,NJ,08837-2238,,"Health organization in EDISON, NJ with annual revenue of approximately $31M",
THRU THE BIBLE INC,956145276,Religion,1254 HARVARD AVE,CLAREMONT,CA,91711-3818,,"Religion organization in CLAREMONT, CA with annual revenue of approximately $31M",
CHILDRENS HOME SOCIETY OF WEST VIRGINIA,550360199,Human Services,1422 KANAWHA BLVD E,CHARLESTON,WV,25301-3002,,"Human Services organization in CHARLESTON, WV with annual revenue of approximately $31M",
BARRY GOLDWATER INSTITUTE FOR PUBLIC POLICY RESEARCH,860597661,Community,500 E CORONADO RD,PHOENIX,AZ,85004-1543,,"Community organization in PHOENIX, AZ with annual revenue of approximately $31M",
SOUTH ALABAMA REGIONAL PLANNING COMMISSION,630501382,Community,110 BEAUREGARD STREET,MOBILE,AL,36602-4042,,"Community organization in MOBILE, AL with annual revenue of approximately $31M",
CAMBIAR EDUCATION,813508420,Education,4653 CARMEL MOUNT RD SUITE 308-97,SAN DIEGO,CA,92130-0000,,"Education organization in SAN DIEGO, CA with annual revenue of approximately $31M",
UNIVERSITY HOSPITALS HEALTH SYSTEM INC,341778204,Health,3605 WARRENSVILLE CENTER RD,SHAKER HTS,OH,44122-9100,,"Health organization in SHAKER HTS, OH with annual revenue of approximately $31M",
SALUSCARE INC,591287693,Other,3763 EVANS AVE,FORT MYERS,FL,33901-9302,,"Other organization in FORT MYERS, FL with annual revenue of approximately $31M",
WALWORTH BARBOUR AMERICAN INTERNATIONAL SCHOOL IN ISRAEL INC,986004081,Other,1919 GALLOWS ROAD,VIENNA,VA,22182-3964,,"Other organization in VIENNA, VA with annual revenue of approximately $31M",
TOURNAMENTS FOR CHARITY,020618422,Community,5750 MEMORIAL DR,DUBLIN,OH,43017-9742,,"Community organization in DUBLIN, OH with annual revenue of approximately $31M",
MICHIGAN STATE UNIVERSITY FOUNDATION,237326030,Education,325 E GRAND RIVER AVE STE 275,EAST LANSING,MI,48823-4378,,"Education organization in EAST LANSING, MI with annual revenue of approximately $31M",
PALO ALTO VETERANS INSTITUTE FOR RESEARCH,770207331,Health,PO BOX 38,PALO ALTO,CA,94304-0038,,"Health organization in PALO ALTO, CA with annual revenue of approximately $31M",
ADVANCE COMMUNITY HEALTH INC,561004791,Health,1001 ROCK QUARRY RD,RALEIGH,NC,27610-3825,,"Health organization in RALEIGH, NC with annual revenue of approximately $31M",
LOUISIANA BAR FOUNDATION,237100704,Human Services,1615 POYDRAS ST STE 1000,NEW ORLEANS,LA,70112-1247,,"Human Services organization in NEW ORLEANS, LA with annual revenue of approximately $31M",
MANET COMMUNITY HEALTH CENTER INC,042646695,Health,110 WEST SQUANTUM STREET,NORTH QUINCY,MA,02171-2122,,"Health organization in NORTH QUINCY, MA with annual revenue of approximately $31M",
ST CAMILLUS HEALTH CENTER INC,391079224,Human Services,10101 W WISCONSIN AVENUE,WAUWATOSA,WI,53226-4861,,"Human Services organization in WAUWATOSA, WI with annual revenue of approximately $31M",
INQUILINOS BORICUAS EN ACCION INC,237090081,Other,2 SAN JUAN ST,BOSTON,MA,02118-1504,,"Other organization in BOSTON, MA with annual revenue of approximately $31M",
THE KINGS ACADEMY,770287771,Education,562 N BRITTON AVE,SUNNYVALE,CA,94085-3841,,"Education organization in SUNNYVALE, CA with annual revenue of approximately $31M",
LENAPE VALLEY FOUNDATION,231914438,Health,500 N WEST ST,DOYLESTOWN,PA,18901-2366,,"Health organization in DOYLESTOWN, PA with annual revenue of approximately $31M",
ENRICHMENT SERVICES PROGRAM INCORPORATED,581020547,Human Services,2601 CROSS COUNTRY DRIVE BLDG C-1,COLUMBUS,GA,31906-1801,,"Human Services organization in COLUMBUS, GA with annual revenue of approximately $31M",
KIMBALL UNION ACADEMY,020222147,Education,7 CAMPUS CENTER DR,MERIDEN,NH,03770-5402,,"Education organization in MERIDEN, NH with annual revenue of approximately $31M",
THE BARUCH COLLEGE FUND,237039817,Education,17 LEXINGTON AVE BOX 293,NEW YORK,NY,10010-5585,,"Education organization in NEW YORK, NY with annual revenue of approximately $31M",
COLORADO WEST INC,840625890,Health,515 28 34 RD BLDG A,GRAND JUNCTION,CO,81501-0000,,"Health organization in GRAND JUNCTION, CO with annual revenue of approximately $31M",
PORT HEALTH SERVICES,200287545,Human Services,4300 SAPPHIRE CT STE 110,GREENVILLE,NC,27834-9079,,"Human Services organization in GREENVILLE, NC with annual revenue of approximately $31M",
NATIONS FINEST,942699571,Community,PO BOX 378,SANTA ROSA,CA,95402-0378,,"Community organization in SANTA ROSA, CA with annual revenue of approximately $31M",
BREAKING GROUND HOUSING DEVELOPMENT FUND CORPORATION,113048002,Human Services,505 EIGHTH AVENUE 5TH FLOOR,NEW YORK,NY,10018-6550,,"Human Services organization in NEW YORK, NY with annual revenue of approximately $31M",
MUNSON MEDICAL GROUP,273600575,Health,1105 SIXTH ST,TRAVERSE CITY,MI,49684-2345,,"Health organization in TRAVERSE CITY, MI with annual revenue of approximately $31M",
E CENTER,942232933,Education,1003 STABLER LN,YUBA CITY,CA,95993-2622,,"Education organization in YUBA CITY, CA with annual revenue of approximately $31M",
SUMMIT ACADEMY INCORPORATED,043778013,Education,1225 E 13200 S,DRAPER,UT,84020-9000,,"Education organization in DRAPER, UT with annual revenue of approximately $31M",
CENTRAL CONNECTICUT COAST YOUNG MENS CHRISTIAN ASSOCIATION INC,060662195,Human Services,1240 CHAPEL ST,NEW HAVEN,CT,06511-4602,,"Human Services organization in NEW HAVEN, CT with annual revenue of approximately $31M",
LASANTE HEALTH CENTER INC,464149537,Health,672 PARKSIDE AVENUE,BROOKLYN,NY,11226-2298,,"Health organization in BROOKLYN, NY with annual revenue of approximately $31M",
JEWISH FOUNDATION FOR GROUP HOMES,521263608,Human Services,6101 EXECUTIVE BLVD STE 100,ROCKVILLE,MD,20852-3938,,"Human Services organization in ROCKVILLE, MD with annual revenue of approximately $31M",
VOLUNTEERS OF AMERICA INC,411554078,Other,7625 METRO BLVD,MINNEAPOLIS,MN,55439-3053,,"Other organization in MINNEAPOLIS, MN with annual revenue of approximately $31M",
ECMC EDUCATION INC,472237488,Education,111 WASHINGTON AVE S STE 1400,MINNEAPOLIS,MN,55401-6800,,"Education organization in MINNEAPOLIS, MN with annual revenue of approximately $31M",
CATALYST SCHOOLS,204069346,Education,6727 S CALIFORNIA AVE,CHICAGO,IL,60629-1816,,"Education organization in CHICAGO, IL with annual revenue of approximately $31M",
AFRICAN POPULATION HEALTH & RESEARCH CENTER INC,061608361,Research,CO MICHAEL MEYERSTEIN,BALTIMORE,MD,21209-0000,,"Research organization in BALTIMORE, MD with annual revenue of approximately $31M",
THE UNITED WAY OF CENTRAL MARYLAND INC,520591543,Community,1800 WASHINGTON BLVD STE 340,BALTIMORE,MD,21230-1732,,"Community organization in BALTIMORE, MD with annual revenue of approximately $31M",
GIVING BACK FUND INC,043367888,Community,500 COMMERCIAL ST STE 4R,BOSTON,MA,02109-5577,,"Community organization in BOSTON, MA with annual revenue of approximately $31M",
GILL ST BERNARDS SCHOOL,221964930,Education,25 ST BERNARDS ROAD,GLADSTONE,NJ,07934-0000,,"Education organization in GLADSTONE, NJ with annual revenue of approximately $31M",
THE 3000 CLUB,273295358,Human Services,1741 W ROSE GARDEN LN STE 6 # 10,PHOENIX,AZ,85027-2734,,"Human Services organization in PHOENIX, AZ with annual revenue of approximately $31M",
PURE INC,274586127,Human Services,1720 S WALTON BLVD STE 4 PMB 155,BENTONVILLE,AR,72712-7533,,"Human Services organization in BENTONVILLE, AR with annual revenue of approximately $31M",
EASTER SEALS DELAWARE & MARYLANDS EASTERN SHORE INC,510066728,Health,61 COPRORATE CIRCLE,NEW CASTLE,DE,19720-0000,,"Health organization in NEW CASTLE, DE with annual revenue of approximately $31M",
NORTH CAROLINA LEARNS INC,474549510,Education,4220 NC HIGHWAY 55 STE 130,DURHAM,NC,27713-0000,,"Education organization in DURHAM, NC with annual revenue of approximately $31M",
STONY BROOK EMERGENCY PHYSICIANS UNIVERSITY FACULTY PRACTICE CORPOR,113066770,Health,PO BOX 1554,STONY BROOK,NY,11790-0988,,"Health organization in STONY BROOK, NY with annual revenue of approximately $31M",
PROVIDENCE MEDICAL CENTER,470566524,Other,1200 PROVIDENCE RD,WAYNE,NE,68787-1212,,"Other organization in WAYNE, NE with annual revenue of approximately $31M",
ROLLING PLAINS MANAGEMENT CORPORATION OF BAYLOR COTTLE FOARD,756047309,Human Services,PO BOX 490,CROWELL,TX,79227-0490,,"Human Services organization in CROWELL, TX with annual revenue of approximately $31M",
CHRISTUS NORTHEAST TEXAS AND NORTHERN LOUISIANA HEALTH SYSTEM C,752616975,Religion,5101 N O CONNOR BLVD,IRVING,TX,75039-5714,,"Religion organization in IRVING, TX with annual revenue of approximately $31M",
LAKES REGION COMMUNITY SERVICES COUNCIL,020329795,Human Services,719 N MAIN ST,LACONIA,NH,03246-2741,,"Human Services organization in LACONIA, NH with annual revenue of approximately $31M",
LUTHERAN COMMUNITY AT TELFORD,231611427,Human Services,12 LUTHERAN HOME DR,TELFORD,PA,18969-1728,,"Human Services organization in TELFORD, PA with annual revenue of approximately $31M",
KITSAP COMMUNITY RESOURCES,910791411,Human Services,845 8TH ST,BREMERTON,WA,98337-1517,,"Human Services organization in BREMERTON, WA with annual revenue of approximately $31M",
COMMERCIAL CLUB FOUNDATION,363406446,Other,190 SOUTH LASALLE STREET 39TH FLOO,CHICAGO,IL,60603-3431,,"Other organization in CHICAGO, IL with annual revenue of approximately $31M",
INDIANAPOLIS JEWISH HOME INC HOOVERWOOD,356041299,Health,7001 HOOVER RD,INDIANAPOLIS,IN,46260-4169,,"Health organization in INDIANAPOLIS, IN with annual revenue of approximately $31M",
MULTI-AGENCY ALLIANCE FOR CHILDREN INC,582374925,Human Services,225 PEACHTREE ST NE STE 1400,ATLANTA,GA,30303-1729,,"Human Services organization in ATLANTA, GA with annual revenue of approximately $31M",
COLLINGTON EPISCOPAL LIFE CARE COMMUNITY INC,521281156,Human Services,10450 LOTTSFORD ROAD,MITCHELLVILLE,MD,20721-2734,,"Human Services organization in MITCHELLVILLE, MD with annual revenue of approximately $31M",
CODA INC,930716860,Health,1027 E BURNSIDE ST,PORTLAND,OR,97214-1328,,"Health organization in PORTLAND, OR with annual revenue of approximately $31M",
HOSPICE OF NORTHWEST OHIO,341283188,Other,30000 E RIVER RD,PERRYSBURG,OH,43551-3429,,"Other organization in PERRYSBURG, OH with annual revenue of approximately $31M",
FIELD SCHOOL INC,520960218,Other,2301 FOXHALL RD NW,WASHINGTON,DC,20007-1147,,"Other organization in WASHINGTON, DC with annual revenue of approximately $31M",
SHIELD OF DAVID INC DBA THE SHIELD INSTITUTE,131740041,Human Services,14461 ROOSEVELT AVE,FLUSHING,NY,11354-6252,,"Human Services organization in FLUSHING, NY with annual revenue of approximately $31M",
GERMAN MARSHALL FUND OF THE US,520954751,International,1744 R ST NW,WASHINGTON,DC,20009-2410,,"International organization in WASHINGTON, DC with annual revenue of approximately $31M",
WASHINGTON HEALTH INSTITUTE,832339581,Health,1140 VARNUM ST NE STE 203,WASHINGTON,DC,20017-2153,,"Health organization in WASHINGTON, DC with annual revenue of approximately $31M",
VILLAGEREACH,912083484,Education,210 S HUDSON ST 307,SEATTLE,WA,98134-2417,,"Education organization in SEATTLE, WA with annual revenue of approximately $31M",
AVOW HOSPICE INC,592201250,Human Services,1095 WHIPPOORWILL LN,NAPLES,FL,34105-3800,,"Human Services organization in NAPLES, FL with annual revenue of approximately $31M",
CONSERVATION SOCIETY OF CALIFORNIA,941687847,Health,PO BOX 5238,OAKLAND,CA,94605-0238,,"Health organization in OAKLAND, CA with annual revenue of approximately $31M",
AIR & SPACE FORCES ASSOCIATION,526043929,Education,1201 S JOYCE STREET C6 SECOND FLR,ARLINGTON,VA,22202-2067,,"Education organization in ARLINGTON, VA with annual revenue of approximately $31M",
TENNESSEE AQUARIUM,581837154,Health,1 BROAD ST,CHATTANOOGA,TN,37402-1024,,"Health organization in CHATTANOOGA, TN with annual revenue of approximately $31M",
LONE STAR COMMUNITY HEALTH CENTER INC,300038860,Health,605 S CONROE MEDICAL DR,CONROE,TX,77304-4722,,"Health organization in CONROE, TX with annual revenue of approximately $31M",
GOOD SHEPHERD LONG-TERM CARE FACILITY,232215800,Human Services,GOOD SHEPHERD PLAZA 850 S 5TH ST,ALLENTOWN,PA,18103-0000,,"Human Services organization in ALLENTOWN, PA with annual revenue of approximately $31M",
GEORGIA STATE UNIVERSITY ATHLETIC ASSOCIATION INC,586043293,Other,PO BOX 4030,ATLANTA,GA,30302-4030,,"Other organization in ATLANTA, GA with annual revenue of approximately $31M",
REGENTS SCHOOL OF AUSTIN INC,742636515,Education,3230 TRAVIS COUNTRY CIR,AUSTIN,TX,78735-6112,,"Education organization in AUSTIN, TX with annual revenue of approximately $31M",
UNIVERSITY OF MARYLAND ANESTHESIOLOGY ASSOCIATES P A,521076158,Other,22 S GREENE ST SC11C00,BALTIMORE,MD,21201-1544,,"Other organization in BALTIMORE, MD with annual revenue of approximately $31M",
INTERMOUNTAIN CENTERS FOR HUMAN DEVELOPMENT INC,850254535,Human Services,PO BOX 86537,TUCSON,AZ,85754-6537,,"Human Services organization in TUCSON, AZ with annual revenue of approximately $31M",
WKU STUDENT LIFE FOUNDATION INC,611350986,Education,1906 COLLEGE HEIGHTS BLVD 8051,BOWLING GREEN,KY,42101-1000,,"Education organization in BOWLING GREEN, KY with annual revenue of approximately $31M",
CAIRN UNIVERSITY,230973290,Education,200 MANOR AVE,LANGHORNE,PA,19047-2942,,"Education organization in LANGHORNE, PA with annual revenue of approximately $31M",
HUI HULIAU,274710855,Education,4017 W MARTIN LUTHER KING JR BLVD,TAMPA,FL,33614-7003,,"Education organization in TAMPA, FL with annual revenue of approximately $31M",
R A I N HOME ATTENDANT SERVICES INC,133008330,Other,811 MORRIS PARK AVE,BRONX,NY,10462-3605,,"Other organization in BRONX, NY with annual revenue of approximately $31M",
BENJAMIN FRANKLIN CUMMINGS INSTITUTE OF TECHNOLOGY,042103576,Education,41 BERKELEY ST,BOSTON,MA,02116-6307,,"Education organization in BOSTON, MA with annual revenue of approximately $31M",
COMMUNITY YOUTH CENTER OF SAN FRANCISCO,941728818,Other,980 CLEMENT ST,SAN FRANCISCO,CA,94118-2111,,"Other organization in SAN FRANCISCO, CA with annual revenue of approximately $31M",
CHILDRENS CLINIC NETWORK,453765330,Health,2525 CHICAGO AVE,MINNEAPOLIS,MN,55404-4518,,"Health organization in MINNEAPOLIS, MN with annual revenue of approximately $31M",
BROOKS HOME CARE ADVANTAGE,262216181,Health,3599 UNIVERSITY BLVD S,JACKSONVILLE,FL,32216-4252,,"Health organization in JACKSONVILLE, FL with annual revenue of approximately $31M",
BRONSON AT HOME,383298476,Health,601 JOHN STREET BOX 26,KALAMAZOO,MI,49007-5341,,"Health organization in KALAMAZOO, MI with annual revenue of approximately $31M",
NATIONAL ASSOCIATION FOR EQUAL OPPORTUNITY IN HIGHER EDUCATION,237439804,Other,600 MARYLAND AVE SW STE 800E,WASHINGTON,DC,20024-2539,,"Other organization in WASHINGTON, DC with annual revenue of approximately $31M",
HEATH VILLAGE INC,221717575,Human Services,430 SCHOOLEYS MOUNTAIN R,HACKETTSTOWN,NJ,07840-4039,,"Human Services organization in HACKETTSTOWN, NJ with annual revenue of approximately $31M",
JUPITER MEDICAL CENTER PHYSICIANS GROUP INC,263187119,Health,1210 S OLD DIXIE HWY,JUPITER,FL,33458-7205,,"Health organization in JUPITER, FL with annual revenue of approximately $31M",
RESURRECTION PROJECT,363576073,Human Services,1818 S PAULINA ST,CHICAGO,IL,60608-2719,,"Human Services organization in CHICAGO, IL with annual revenue of approximately $31M",
X PRIZE FOUNDATION INC,521876879,Community,10736 JEFFERSON BLVD SUITE 406,CULVER CITY,CA,90230-4933,,"Community organization in CULVER CITY, CA with annual revenue of approximately $31M",
NOVA UKRAINE,465335435,International,963 MEARS CT,STANFORD,CA,94305-1041,,"International organization in STANFORD, CA with annual revenue of approximately $31M",
KIDSPEACE CHILDRENS HOSPITAL INC,232654910,Other,4085 INDEPENDENCE DR,SCHNECKSVILLE,PA,18078-2574,,"Other organization in SCHNECKSVILLE, PA with annual revenue of approximately $31M",
WILLS EYE OPHTHALMOLOGY CLINIC INC,233065896,Health,840 WALNUT ST SUITE 1530,PHILADELPHIA,PA,19107-5109,,"Health organization in PHILADELPHIA, PA with annual revenue of approximately $31M",
SOUTHWEST NETWORK,860966400,Health,2700 N CENTRAL AVE STE 1050,PHOENIX,AZ,85004-1217,,"Health organization in PHOENIX, AZ with annual revenue of approximately $31M",
BETHEL COLLEGE,480543782,Education,300 E 27TH ST,NORTH NEWTON,KS,67117-8061,,"Education organization in NORTH NEWTON, KS with annual revenue of approximately $31M",
LEARNING DISABILITIES ASSOCIATION OF WESTERN NEW YORK INC,161118058,Other,2495 MAIN ST STE 342,BUFFALO,NY,14214-2154,,"Other organization in BUFFALO, NY with annual revenue of approximately $31M",
OCEAN MENTAL HEALTH SERVICES INC,210722291,Health,687 ROUTE 9,BAYVILLE,NJ,08721-2548,,"Health organization in BAYVILLE, NJ with annual revenue of approximately $31M",
CHRISTIAN UNITY HOSPITAL CORPORATION,450310159,Health,164 W 13TH ST,GRAFTON,ND,58237-1826,,"Health organization in GRAFTON, ND with annual revenue of approximately $31M",
LIFE PATTERNS INC,481128445,Human Services,3300 SW 29TH ST STE 100,TOPEKA,KS,66614-2069,,"Human Services organization in TOPEKA, KS with annual revenue of approximately $31M",
WESTCHESTER JEWISH COMMUNITY SERVICES INC,131740071,Health,845 N BROADWAY,WHITE PLAINS,NY,10603-2403,,"Health organization in WHITE PLAINS, NY with annual revenue of approximately $31M",
HOUSING WORKS HEALTH SERVICES III INC,133826364,Health,57 WILLOUGHBY ST 2ND FLOOR,BROOKLYN,NY,11201-5290,,"Health organization in BROOKLYN, NY with annual revenue of approximately $31M",
EAST MOUNTAIN HEALTH PHYSICIANS INC,473767341,Health,220 CAMPUS BLVD STE 310,WINCHESTER,VA,22601-2889,,"Health organization in WINCHESTER, VA with annual revenue of approximately $31M",
VISITING NURSE SERVICES OF IOWA,420680446,Health,3000 EASTON BLVD,DES MOINES,IA,50317-3124,,"Health organization in DES MOINES, IA with annual revenue of approximately $31M",
INTERNATIONAL SCHOOL OF LOS ANGELES LYCEE INTERNATIONAL DE LOS ANGELES,953363496,Education,1105 W RIVERSIDE DR,BURBANK,CA,91506-3214,,"Education organization in BURBANK, CA with annual revenue of approximately $31M",
RANDOLPH SCHOOL,630412843,Education,1005 DRAKE AVE SE,HUNTSVILLE,AL,35802-1099,,"Education organization in HUNTSVILLE, AL with annual revenue of approximately $31M",
NEWVIEW OKLAHOMA INC,730592386,Human Services,501 N DOUGLAS AVE,OKLAHOMA CITY,OK,73106-5007,,"Human Services organization in OKLAHOMA CITY, OK with annual revenue of approximately $31M",
EL EDUCATION INC,061576405,Education,247 W 35TH ST 8TH FLOOR,NEW YORK,NY,10001-1921,,"Education organization in NEW YORK, NY with annual revenue of approximately $31M",
PORTER-LEATH,581409385,Other,3400 PRESCOTT RD,MEMPHIS,TN,38118-3602,,"Other organization in MEMPHIS, TN with annual revenue of approximately $31M",
JEWISH FAMILY AND CHILDRENS SERVICE,042104356,Other,1430 MAIN ST,WALTHAM,MA,02451-1623,,"Other organization in WALTHAM, MA with annual revenue of approximately $31M",
FOREST AT DUKE INC,561630158,Human Services,2701 PICKETT RD,DURHAM,NC,27705-5610,,"Human Services organization in DURHAM, NC with annual revenue of approximately $31M",
YMCA OF GREATER CLEVELAND,340714728,Human Services,1301 EAST 9TH STREET,CLEVELAND,OH,44114-1804,,"Human Services organization in CLEVELAND, OH with annual revenue of approximately $31M",
SUN HEALTH GRANDVIEW TERRACE,832576991,Human Services,PO BOX 6030,SUN CITY WEST,AZ,85376-6030,,"Human Services organization in SUN CITY WEST, AZ with annual revenue of approximately $31M",
OUT-OF-DOOR ACADEMY OF SARASOTA INC,591731857,Education,444 REID ST,SARASOTA,FL,34242-1332,,"Education organization in SARASOTA, FL with annual revenue of approximately $31M",
IMMANUEL LIVING,810247706,Other,185 CRESTLINE AVE,KALISPELL,MT,59901-3573,,"Other organization in KALISPELL, MT with annual revenue of approximately $31M",
FINGER LAKES MIGRANT HEALTH CARE PROJECT INC,161581104,Health,14 MAIDEN LN,PENN YAN,NY,14527-1208,,"Health organization in PENN YAN, NY with annual revenue of approximately $31M",
PRESBYTERIAN SENIORCARE,250969422,Human Services,1215 HULTON RD,OAKMONT,PA,15139-1135,,"Human Services organization in OAKMONT, PA with annual revenue of approximately $31M",
ALTERNATIVES FOR CHILDREN,112933851,Other,14 RESEARCH WAY,EAST SETAUKET,NY,11733-3453,,"Other organization in EAST SETAUKET, NY with annual revenue of approximately $31M",
SEEDING JUSTICE,930691187,Community,3625 N MISSISSIPPI AVE,PORTLAND,OR,97227-1156,,"Community organization in PORTLAND, OR with annual revenue of approximately $31M",
ANIMAL CARE AND CONTROL OF NEW YORK CITY INC,133788986,Health,11 PARK PL STE 1212,NEW YORK,NY,10007-2820,,"Health organization in NEW YORK, NY with annual revenue of approximately $31M",
MARTHAS TABLE,521186071,Human Services,2375 ELVANS RD SE,WASHINGTON,DC,20020-3543,,"Human Services organization in WASHINGTON, DC with annual revenue of approximately $31M",
SHELBY RESIDENTIAL AND VOCATIONAL SERVICES INC,620854890,Human Services,3971 KNIGHT ARNOLD RD,MEMPHIS,TN,38118-3004,,"Human Services organization in MEMPHIS, TN with annual revenue of approximately $31M",
GLENN CATHOLIC SENIOR COMMUNITIES INC,411533125,Other,CO GREAT LAKES MANAGEMENT COMPANY,PLYMOUTH,MN,55441-0000,,"Other organization in PLYMOUTH, MN with annual revenue of approximately $31M",
BLACKSTONE VALLEY COMMUNITY HEALTH CARE INC,510183476,Health,39 EAST AVE,PAWTUCKET,RI,02860-4003,,"Health organization in PAWTUCKET, RI with annual revenue of approximately $31M",
COMP-U-DOPT INC,261460311,Education,1602 AIRLINE DR,HOUSTON,TX,77009-3608,,"Education organization in HOUSTON, TX with annual revenue of approximately $31M",
HUMANGOOD NEVADA,200566413,Human Services,1900 HUNTINGTON DR,DUARTE,CA,91010-2694,,"Human Services organization in DUARTE, CA with annual revenue of approximately $31M",
NEW ROADS SCHOOL,954823489,Education,3131 OLYMPIC BLVD,SANTA MONICA,CA,90404-5002,,"Education organization in SANTA MONICA, CA with annual revenue of approximately $31M",
